BusinessName,Address,ZIP,DESCRIPT,Latitude,Longitude,Neighborhood_Geopy
# 7 RESTAURANT,225 Grove,2132,Eating & Drinking w/ Take Out,42.2619,-71.1574,Roxbury
100 Federal Market & Barista- 11th Floor,100 Federal,2110,Eating & Drinking w/ Take Out,42.3548,-71.0561,Downtown Boston
100 Percent Delicias Express,656 Centre,2130,Eating & Drinking w/ Take Out,42.3128,-71.1139,Jamaica Plain
11 Dining -16th Fl.,200 Berkeley,2116,Eating & Drinking,42.3499,-71.0729,Back Bay
1928 Beacon Hill,97 Mount Vernon,2108,Eating & Drinking,42.3581,-71.0697,Beacon Hill
20TH CENTRY BOWLING LANES,1231 Hyde Park,2136,Eating & Drinking w/ Take Out,42.2568,-71.1241,Hyde Park
21 ST. AMENDMENT,150 Bowdoin,2108,Eating & Drinking,42.3583,-71.0626,Beacon Hill
224 BOSTON,224 Boston,2125,Eating & Drinking,42.3223,-71.0608,Dorchester
320 Cafe,314 Spring,2132,Eating & Drinking,42.2717,-71.1721,Roxbury
75 CHESTNUT,75 Chestnut,2108,Eating & Drinking,42.3569,-71.071,Beacon Hill
753 South,749 South,2131,Eating & Drinking,42.2872,-71.1291,Roslindale
8 Pizzas,600 Washington,2135,Eating & Drinking w/ Take Out,42.3504,-71.167,Brighton
89 Broad Street/Fin Point,89 Broad,2110,Eating & Drinking,42.3574,-71.0532,Downtown Boston
99 RESTAURANT AND PUB,29 Austin,2129,Eating & Drinking,42.3749,-71.0671,Charlestown
A & N PIZZA,1409 Centre,2132,Eating & Drinking w/ Take Out,42.2941,-71.1367,Roslindale
A K's Take Out & Delivery,1427 Tremont,2120,Eating & Drinking w/ Take Out,42.3319,-71.0963,Mission Hill
ABE & LOUIE'S,793 Boylston,2116,Eating & Drinking,42.3492,-71.0816,Back Bay
Adams B & B,12 Edgerly,2115,Eating & Drinking,42.3461,-71.0879,Fenway/Kenmore
AFC Sushi @ Shaws #1208,246 Border,2128,Eating & Drinking w/ Take Out,42.3764,-71.04,East Boston
AFC Sushi @ Walgreens #15390,10 School,2108,Eating & Drinking w/ Take Out,42.3573,-71.059,Downtown Boston
AFC SUSHI @SIMMONS COLLEGE,300 Fenway,2115,Eating & Drinking,42.3393,-71.1,Fenway/Kenmore
AFC Sushi @Star Market #3577,75 Spring,2132,Eating & Drinking w/ Take Out,42.2787,-71.1633,Roxbury
Agganis Arena-FS,925 Commonwealth,2215,Eating & Drinking,42.3522,-71.1177,Allston
Agganis Arena-Stand 1,925 Commonwealth,2215,Eating & Drinking w/ Take Out,42.3522,-71.1177,Allston
Agganis Arena-Stand 2,925 Commonwealth,2215,Eating & Drinking w/ Take Out,42.3522,-71.1177,Allston
Agganis Arena-Stand 3,925 Commonwealth,2215,Eating & Drinking w/ Take Out,42.3522,-71.1177,Allston
Agganis Arena-Stand 4,925 Commonwealth,2215,Eating & Drinking w/ Take Out,42.3522,-71.1177,Allston
Agganis Arena-Stand 5,925 Commonwealth,2215,Eating & Drinking w/ Take Out,42.3522,-71.1177,Allston
Ajeen,1219 Commonwealth,2134,Eating & Drinking w/ Take Out,42.3508,-71.1309,Allston
AL DENTE RISTORANTE,109 Salem,2113,Eating & Drinking,42.3642,-71.0554,North End
Alcove,131 Beverly,2114,Eating & Drinking,42.367,-71.0601,West End
ALEX PIZZA,1252 Washington,2118,Eating & Drinking w/ Take Out,42.3423,-71.0674,South End
ALFREDO'S,229 Brighton,2134,Eating & Drinking w/ Take Out,42.3537,-71.1357,Allston
ALFREDO'S ITALIAN KITCHEN,243 Dorchester,2127,Eating & Drinking w/ Take Out,42.3329,-71.0513,South Boston
ALI ROTI RESTAURANT,1035 Tremont,2120,Eating & Drinking w/ Take Out,42.3367,-71.0856,South End
Alibi,215 Charles,2114,Eating & Drinking,42.362,-71.0704,West End
Ali's Uyghur Kitchen,1 Brighton,2134,Eating & Drinking w/ Take Out,42.3524,-71.1253,Allston
All Spice Restaurant,41 Worcester,2118,Eating & Drinking,42.3359,-71.0742,South End
ALLIS ROTI + MEAT MARKET,1188 Blue Hill,2126,Eating & Drinking w/ Take Out,42.2838,-71.0913,Mattapan
Alma Cantina,15 Union,2108,Eating & Drinking,42.3609,-71.0567,No Details
AL'S CAF√â,27 DRYDOCK,2210,Eating & Drinking w/ Take Out,42.3443,-71.028,South Boston
Al's South St. Express,179 Essex,2111,Eating & Drinking w/ Take Out,42.3521,-71.0576,Downtown Boston
Alta Strada Pizza Pronto,201 Brookline,2215,Eating & Drinking w/ Take Out,42.3446,-71.1022,Fenway/Kenmore
Alta Strada/AM2-A03/29,100 Terminal,2128,Eating & Drinking,42.3645,-71.0218,East Boston
Alumni 1,2597 Beacon,2135,Eating & Drinking w/ Take Out,42.3362,-71.1664,Chestnut Hill
Alumni 2,2597 Beacon,2135,Eating & Drinking w/ Take Out,42.3362,-71.1664,Chestnut Hill
Alumni 3,2597 Beacon,2135,Eating & Drinking w/ Take Out,42.3362,-71.1664,Chestnut Hill
Alumni 4,2597 Beacon,2135,Eating & Drinking w/ Take Out,42.3362,-71.1664,Chestnut Hill
Alumni 5,2597 Beacon,2135,Eating & Drinking w/ Take Out,42.3362,-71.1664,Chestnut Hill
Al-Wadi Restaurant,1249 VFW,2132,Eating & Drinking,42.2772,-71.1726,Roxbury
Amateras,112 South,2111,Eating & Drinking,42.351,-71.0571,Downtown Boston
AMC Theatres Boston Common 19,175 Tremont,2111,Eating & Drinking w/ Take Out,42.3531,-71.064,Downtown Boston
Amelia's Taqueria,1076 Boylston,2215,Eating & Drinking,42.3469,-71.088,Fenway/Kenmore
Amelia's Taqueria,180 Brighton,2134,Eating & Drinking w/ Take Out,42.353,-71.1336,Allston
Amelia's Taqueria,309 Huntington,2115,Eating & Drinking w/ Take Out,42.3412,-71.0877,Fenway/Kenmore
Amelia's Taqueria III,1936 Beacon,2135,Eating & Drinking,42.3364,-71.1499,Brighton
Americano Espresso Bar,155 Meridian,2128,Eating & Drinking w/ Take Out,42.3739,-71.0389,East Boston
America's Test Kitchen,21 Dry Dock,2210,Eating & Drinking,42.3443,-71.0309,South Boston
Amorino,249 Newbury,2116,Eating & Drinking w/ Take Out,42.3498,-71.0828,Back Bay
ANDREW SQUARE HOUSE OF PIZZA,395 Dorchester,2127,Eating & Drinking w/ Take Out,42.33,-71.0566,South Boston
Angela's Cafe,131 Lexington,2128,Eating & Drinking w/ Take Out,42.3785,-71.035,East Boston
Angela's Cafe II,1012 Bennington,2128,Eating & Drinking w/ Take Out,42.3871,-71.0063,East Boston
Anna Hand Cut Donuts,2056 Centre,2132,Eating & Drinking,42.28,-71.1582,Roxbury
Anna's Cafe,267 Medford,2129,Eating & Drinking w/ Take Out,42.3813,-71.0615,Charlestown
Anna's Taqueria,242 Cambridge,2114,Eating & Drinking,42.3609,-71.0671,Beacon Hill
Anna's Taqueria,800 Boylston,2199,Eating & Drinking w/ Take Out,42.3473,-71.0815,Back Bay
Anoush' Ella,201 Brookline,2215,Eating & Drinking w/ Take Out,42.3446,-71.1022,Fenway/Kenmore
Anshur Restauruant,291 Roxbury,2119,Eating & Drinking w/ Take Out,42.3304,-71.0943,Roxbury
ANTICO FORNO,93 Salem,2113,Eating & Drinking,42.3637,-71.0556,North End
Antonios Bacaro,1 Fairmount,2136,Eating & Drinking,42.2556,-71.1212,Hyde Park
Antonio's Hi-Fi,1508 Dorchester,2122,Eating & Drinking w/ Take Out,42.2993,-71.0602,Dorchester
ANTONIO'S ITALIANO CUCINA,286 Cambridge,2114,Eating & Drinking,42.361,-71.0682,Beacon Hill
APPLEBEE'S NEIGHBORHOOD GRILL & BAR,11A Allstate,2125,Eating & Drinking,42.326,-71.0636,Dorchester
2022-04-23 00:00:00,222 Newbury,2116,Eating & Drinking w/ Take Out,42.3498,-71.0811,Back Bay
AQUITAINE,569 Tremont,2118,Eating & Drinking,42.3438,-71.0724,South End
Arboretum Grill,4021 Washington,2131,Eating & Drinking,42.292,-71.1224,Roslindale
ARCHIE'S NEW YORK DELI,93 Arch,2110,Eating & Drinking w/ Take Out,42.355,-71.0591,Downtown Boston
Arizona B B Q,2360 Washington,2119,Eating & Drinking w/ Take Out,42.3294,-71.0845,Roxbury
Article 24,458 Western,2135,Eating & Drinking w/ Take Out,42.362,-71.1422,Brighton
ARTU,6 Prince,2113,Eating & Drinking,42.3641,-71.0537,North End
Arya Trattoria,253 Hanover,2113,Eating & Drinking,42.3632,-71.0548,North End
Ascia Foods,100 Malcolm X,2119,Eating & Drinking,42.3309,-71.0934,Roxbury
Ashburton Cafe,1 Ashburton,2114,Eating & Drinking,42.3593,-71.0624,Beacon Hill
ASHMONT GRILL,555 Talbot,2124,Eating & Drinking,42.2861,-71.0647,Dorchester
Asian Thai Eatery,1064 River,2136,Eating & Drinking,42.2588,-71.1177,Hyde Park
Assembly on 2,100 Summer,2110,Eating & Drinking,42.3536,-71.0574,Downtown Boston
ATLANTIC FISH COMPANY,761 Boylston,2116,Eating & Drinking,42.3494,-71.0812,Back Bay
ATRIUM CAFE/HARVARD MED.SCHOOL,260 Longwood,2115,Eating & Drinking,42.337,-71.1042,Fenway/Kenmore
Au Bon Pain,101 Merrimac,2114,Eating & Drinking w/ Take Out,42.3638,-71.0617,West End
Au Bon Pain,17 Blackfan,2115,Eating & Drinking w/ Take Out,42.3374,-71.1063,Fenway/Kenmore
Au Bon Pain,26 Park,2116,Eating & Drinking w/ Take Out,42.3514,-71.0691,Back Bay
Au Bon Pain,640 Atlantic,2111,Eating & Drinking w/ Take Out,42.3629,-71.0513,North End
Au Bon Pain,75 Francis,2115,Eating & Drinking w/ Take Out,42.3361,-71.1075,Fenway/Kenmore
Au Bon Pain,800 Washington,2111,Eating & Drinking w/ Take Out,42.3496,-71.0636,No Details
Au Bon Pain,90 Oliver,2110,Eating & Drinking w/ Take Out,42.3563,-71.0518,Downtown Boston
Audubon,838 Beacon,2215,Eating & Drinking,42.3474,-71.1032,Fenway/Kenmore
AUNTIE VIE'S BAKERY & CAFE,538 Dudley,2119,Eating & Drinking w/ Take Out,42.3216,-71.072,Roxbury
Avana Express Bar,40 Harrison,2111,Eating & Drinking w/ Take Out,42.3516,-71.061,No Details
Avana Market Place,40 Harrison,2111,Eating & Drinking w/ Take Out,42.3517,-71.061,No Details
Avana Sushi,58 Franklin,2110,Eating & Drinking,42.3558,-71.0585,Downtown Boston
Azama Grill,44 Harvard,2134,Eating & Drinking w/ Take Out,42.3545,-71.1323,Allston
B & G OYSTERS LTD.,550 Tremont,2116,Eating & Drinking,42.3439,-71.0713,South End
B Nutritious,204 Cambridge,2114,Eating & Drinking w/ Take Out,42.361,-71.0659,Beacon Hill
B. Good,100 Terminal,2128,Eating & Drinking,42.3645,-71.0218,East Boston
B. U. Einsteins Bagels,685 Commonwealth,2215,Eating & Drinking w/ Take Out,42.3501,-71.1043,Fenway/Kenmore
B.U. SCHOOL OF MANAGEMENT,595 Commonwealth,2215,Eating & Drinking,42.3496,-71.0998,Fenway/Kenmore
B.U. WEST CAMPUS,278 Babcock,2134,Eating & Drinking,42.3532,-71.1221,Allston
BACCO RISTORANTE & BAR,107 Salem,2113,Eating & Drinking,42.3642,-71.0554,North End
Back Bay Social Club,867 Boylston,2116,Eating & Drinking,42.3487,-71.0834,Back Bay
Back Deck,10 West,2111,Eating & Drinking,42.3544,-71.0622,Downtown Boston
BACKWOODS PIZZA,539 Dudley,2119,Eating & Drinking w/ Take Out,42.3217,-71.0725,Roxbury
Bailey & Sage,131 Dartmouth,2116,Eating & Drinking w/ Take Out,42.3468,-71.0754,South End
Bailey and Sage,100 Federal,2110,Eating & Drinking w/ Take Out,42.3548,-71.0561,Downtown Boston
Bain Capital (40th Fl),200 Clarendon,2116,Eating & Drinking,42.3492,-71.0751,Back Bay
BALE RESTAURANT,1052 Dorchester,2125,Eating & Drinking w/ Take Out,42.3148,-71.0566,Dorchester
Ban Toi Restaurant,1035 Dorchester,2125,Eating & Drinking,42.3153,-71.0569,Dorchester
BANGKOK BISTRO,433 Washington,2135,Eating & Drinking w/ Take Out,42.3493,-71.1568,Brighton
Bangkok Pinto,1041 Tremont,2120,Eating & Drinking w/ Take Out,42.3366,-71.0857,South End
Banh Mi Huong Que,696 Washington,2111,Eating & Drinking w/ Take Out,42.3511,-71.0627,No Details
Bani Restaurant,4541 Washington,2131,Eating & Drinking,42.2783,-71.1372,Roslindale
Banners Kitchen and Tap,80 Causeway,2114,Eating & Drinking,42.3657,-71.0617,West End
Banyan Bar & Refuge,537 Tremont,2116,Eating & Drinking,42.3447,-71.0714,South End
Bar A Vin 1855,259 Newbury,2116,Eating & Drinking,42.3496,-71.0832,Back Bay
Bar Cichetti,54 Devonshire,2109,Eating & Drinking,42.3583,-71.0571,Downtown Boston
Bar Volpe,170 Broadway,2127,Eating & Drinking,42.3405,-71.0529,South Boston
Barcelona Restaurant,503 Tremont,2116,Eating & Drinking,42.3449,-71.0708,South End
BARNES & NOBLE BOOKSELLERS (R),800 Boylston,2199,Eating & Drinking,42.3473,-71.0815,Back Bay
BARNEY'S GRILL,299 Havre,2128,Eating & Drinking,42.3765,-71.0338,East Boston
BARRY'S BOOTCAMP,10 Huntington,2116,Eating & Drinking,42.3485,-71.0773,Back Bay
BARRY'S BOOTCAMP,38 Chauncy,2111,Eating & Drinking,42.3538,-71.0598,Downtown Boston
Basho Express,685 Commonwealth,2215,Eating & Drinking w/ Take Out,42.3501,-71.1045,Fenway/Kenmore
Basho Japanese Brasserie,1310 Boylston,2215,Eating & Drinking,42.3441,-71.0984,Fenway/Kenmore
Basho Japanese Sushi@B.U.(G.S.U.),775 Commonwealth,2215,Eating & Drinking w/ Take Out,42.3509,-71.109,Fenway/Kenmore
Basile- Fine Italian Kitchen,162 Columbus,2116,Eating & Drinking,42.3493,-71.0706,Back Bay
BATTERY WHARF HOTEL BOSTON WATERFRONT,2 Battery,2109,Eating & Drinking,42.3672,-71.0502,North End
Beacon Cafe @Univ. of Mass Boston,100 William T Morrissey,2125,Eating & Drinking,42.3131,-71.0389,Dorchester
Beacon Hill Pub,147 Charles,2114,Eating & Drinking,42.3605,-71.0706,Beacon Hill
Bean & Leaf Cafe,20 Custom House,2111,Eating & Drinking w/ Take Out,42.3581,-71.0531,Downtown Boston
Beantown Pho & Grill,272 Newbury,2116,Eating & Drinking,42.3491,-71.0834,Back Bay
Beantown Pub/Ziggy's Coffee Bar,100 Tremont,2108,Eating & Drinking w/ Take Out,42.3572,-71.061,Downtown Boston
Beatnic,399 Boylston,2116,Eating & Drinking,42.3518,-71.0721,Back Bay
Bell In Hand,45 Union,2108,Eating & Drinking,42.3616,-71.0571,No Details
Bella Vista,288 Hanover,2113,Eating & Drinking,42.364,-71.0545,North End
Ben & Jerry's,174 Newbury,2116,Eating & Drinking w/ Take Out,42.3503,-71.079,Back Bay
Ben & Jerry's (Kiosk),800 Boylston,2199,Eating & Drinking w/ Take Out,42.3473,-71.0815,Back Bay
Ben Cotto,357 Hanover,2113,Eating & Drinking,42.3647,-71.0534,North End
Benevento's,111 Salem,2113,Eating & Drinking,42.3643,-71.0554,North End
Bennetts Sandwich Shop,84 Peterborough,2215,Eating & Drinking,42.3431,-71.0988,Fenway/Kenmore
Berkeley Bistro,200 Berkeley,2116,Eating & Drinking w/ Take Out,42.3501,-71.0729,Back Bay
BERKELEY PERK CAFE,69 Berkeley,2116,Eating & Drinking w/ Take Out,42.3468,-71.0706,South End
Best Fried Chicken,1198 Blue Hill,2126,Eating & Drinking w/ Take Out,42.2837,-71.092,Mattapan
Beth Israel Deaconess,330 Brookline,2115,Eating & Drinking,42.3398,-71.1057,Fenway/Kenmore
BGood,665 Boylston,2116,Eating & Drinking,42.35,-71.0787,Back Bay
Biddy Earlys,141 Pearl,2110,Eating & Drinking,42.3546,-71.0537,Downtown Boston
BIG DADDY HOT DOGS,10 Whittier,2114,Eating & Drinking w/ Take Out,42.3657,-71.0666,West End
Big Night Live,80 Causeway,2114,Eating & Drinking,42.3657,-71.0617,West End
Bijou Night Club,51 Stuart,2116,Eating & Drinking,42.3512,-71.0641,No Details
Billares Colombia,16 Bennington,2128,Eating & Drinking,42.3753,-71.0383,East Boston
Bill's Bar,7 Lansdowne,2215,Eating & Drinking,42.3473,-71.095,Fenway/Kenmore
Billy's Sub Shop,57 Berkeley,2116,Eating & Drinking w/ Take Out,42.3466,-71.0705,South End
BILLY'S TEXAS B.B.Q.,530 Washington,2124,Eating & Drinking,42.293,-71.0716,Dorchester
Bin 26 Enoteca,26 Charles,2114,Eating & Drinking,42.3567,-71.07,Beacon Hill
BISHOP'S MEDITERRANEAN,70 Staniford,2114,Eating & Drinking w/ Take Out,42.3627,-71.0642,West End
Bisq Meat & Sandwiches,201 Brookline,2215,Eating & Drinking w/ Take Out,42.3446,-71.1022,Fenway/Kenmore
Bistro du Midi,272 Boylston,2116,Eating & Drinking,42.3519,-71.0697,Beacon Hill
Black Rose,160 State,2109,Eating & Drinking,42.3594,-71.0538,Downtown Boston
Black Seeds,131 Tremont,2111,Eating & Drinking,42.356,-71.0621,Beacon Hill
Blackbird Doughnuts,100 High,2110,Eating & Drinking w/ Take Out,42.3544,-71.0554,Downtown Boston
Blackbird Doughnuts & Sally's Sandwiches,460 Tremont,2116,Eating & Drinking w/ Take Out,42.3458,-71.0691,South End
Blackmoor Bar & Kitchen,1 Chelsea,2129,Eating & Drinking,42.3712,-71.0617,Charlestown
Blaze Pizza,123 Stuart,2116,Eating & Drinking,42.3514,-71.0657,No Details
Blaze Pizza,961 Commonwealth,2215,Eating & Drinking,42.3519,-71.1191,Allston
Bleacher Bar,70 Lansdowne,2215,Eating & Drinking,42.3471,-71.0983,Fenway/Kenmore
Blu,4 Avery,2111,Eating & Drinking,42.3531,-71.0629,Downtown Boston
Blue Asia Cafe,101 Brighton,2134,Eating & Drinking,42.3531,-71.1306,Allston
Blue Bottle Coffee,163 Newbury,2116,Eating & Drinking w/ Take Out,42.3508,-71.0788,Back Bay
Blue Bottle Coffee,800 Boylston,2199,Eating & Drinking,42.3473,-71.0815,Back Bay
Blue Cross Blue Sheild of Ma. Cafe,101 Huntington,2199,Eating & Drinking,42.3469,-71.0806,Back Bay
Blue Hill House of Pizza,161 Blue Hill,2119,Eating & Drinking w/ Take Out,42.3193,-71.078,Roxbury
Blue Mountain Jamaican Restaurant,884 Morton,2124,Eating & Drinking,42.281,-71.0846,Mattapan
BLUE STAR RESTAURANT,11 Corinth,2131,Eating & Drinking,42.2864,-71.1304,Roslindale
Blue Yama,418 Market,2135,Eating & Drinking,42.3493,-71.1532,Brighton
Bluestone Lane,125 High,2110,Eating & Drinking w/ Take Out,42.3553,-71.0531,Downtown Boston
BO9/CO9/Y7,4 Jersey,2215,Eating & Drinking w/ Take Out,42.3467,-71.0987,Fenway/Kenmore
Boba Me,1520 Tremont,2120,Eating & Drinking w/ Take Out,42.3322,-71.0998,Mission Hill
Bodega Canal,57 Canal,2114,Eating & Drinking,42.3639,-71.0591,West End
Bohemios Restaurant,30 Bennington,2128,Eating & Drinking w/ Take Out,42.3754,-71.038,East Boston
Boloco,133 Federal,2110,Eating & Drinking w/ Take Out,42.3543,-71.0566,Downtown Boston
Boloco,48 Congress,2109,Eating & Drinking w/ Take Out,42.358,-71.056,Downtown Boston
Boloco - Berklee,1080 Boylston,2215,Eating & Drinking w/ Take Out,42.347,-71.088,Fenway/Kenmore
Boloco Inspired Burritos,2 Park,2116,Eating & Drinking w/ Take Out,42.3523,-71.0671,No Details
BON APPETIT RESTAURANT,1138 Blue Hill,2124,Eating & Drinking w/ Take Out,42.2858,-71.0913,Mattapan
Bon Me,415 Brookline,2215,Eating & Drinking,42.3387,-71.1078,Fenway/Kenmore
Bon Me,441 Stuart,2116,Eating & Drinking,42.3486,-71.076,Back Bay
Bon Me Restaurant,313 Congress,2210,Eating & Drinking w/ Take Out,42.3511,-71.0502,South Boston
Bonapita,51 Franklin,2110,Eating & Drinking w/ Take Out,42.3554,-71.0588,Downtown Boston
Bonapita,77 Spring,2132,Eating & Drinking,42.2778,-71.164,Roxbury
Bonchon Allston,101 Brighton,2134,Eating & Drinking,42.3531,-71.1306,Allston
Bonne Chance Cafe,77 Canal,2114,Eating & Drinking,42.3642,-71.0595,West End
BOS' Sichuan Taste,204 Harvard,2134,Eating & Drinking,42.35,-71.1305,Allston
BOSTON BACK BAY HILTON,40 Dalton,2115,Eating & Drinking,42.3464,-71.0853,Fenway/Kenmore
Boston Bagel Company,753 Broadway,2127,Eating & Drinking,42.3354,-71.0352,South Boston
Boston Burger,1100 Boylston,2215,Eating & Drinking,42.3468,-71.0885,Fenway/Kenmore
BOSTON COLLEGE CLUB,100 Federal,2110,Eating & Drinking,42.3548,-71.0561,Downtown Boston
Boston Harbor Distillery,12R Ericsson,2122,Eating & Drinking,42.2921,-71.041,Dorchester
Boston Harbor Hotel Wharf Room,40 Rowes,2110,Eating & Drinking,42.3567,-71.0497,North End
Boston Kebab House,44 Kilby,2109,Eating & Drinking,42.3581,-71.0553,Downtown Boston
Boston Kitchen Pizza,707 Washington,2111,Eating & Drinking w/ Take Out,42.3511,-71.0631,Downtown Boston
Boston Living Center,29 Stanhope,2116,Eating & Drinking,42.3486,-71.073,Back Bay
Boston Lodge of Elks #10,1 Morrell,2132,Eating & Drinking,42.2737,-71.1693,Roxbury
Boston Marriott Long Wharf - FS,296 State,2110,Eating & Drinking,42.3601,-71.0509,North End
Boston Marriott Longwharf,296 State,2110,Eating & Drinking,42.3601,-71.0509,North End
Boston News Cafe,28 State,2109,Eating & Drinking,42.3593,-71.0575,Downtown Boston
Boston News Cafe (90 Arch St.),90 Arch,2110,Eating & Drinking w/ Take Out,42.3547,-71.0584,Downtown Boston
Boston Opera House,539 Washington,2111,Eating & Drinking w/ Take Out,42.354,-71.0624,Downtown Boston
Boston Park Plaza (Main Kitchen/Room Serv.),50 Park,2116,Eating & Drinking,42.3513,-71.0692,Back Bay
Boston Park Plaza Employee Cafeteria(3rdFl),50 Park,2116,Eating & Drinking,42.3513,-71.0692,Back Bay
Boston Pizza & Grill,533 Columbia,2125,Eating & Drinking w/ Take Out,42.3157,-71.066,Dorchester
BOSTON SAIL LOFT,80 Atlantic,2110,Eating & Drinking,42.3625,-71.0507,North End
Boston Scoops,200 Faneuil Hall Marketplace,2109,Eating & Drinking w/ Take Out,42.3602,-71.0548,No Details
Bostonia Public House,131 State,2109,Eating & Drinking,42.359,-71.0542,Downtown Boston
BOURBON ST. CAFE,417 Washington,2108,Eating & Drinking w/ Take Out,42.3558,-71.0604,Downtown Boston
Bourbon Street Cafe,350 Longwood,2115,Eating & Drinking w/ Take Out,42.3391,-71.1081,Fenway/Kenmore
BPL Newsfeed Cafe,700 Boylston,2116,Eating & Drinking,42.3492,-71.0787,Back Bay
Brasserie,560 Harrison,2118,Eating & Drinking,42.3408,-71.0674,South End
Brassica Kitchen & Cafe,3710 Washington,2130,Eating & Drinking,42.3002,-71.1131,Roslindale
BREADWINNERS/STARBUCK'S,595 Commonwealth,2215,Eating & Drinking w/ Take Out,42.3496,-71.0998,Fenway/Kenmore
Breeze,130 Jersey,2215,Eating & Drinking w/ Take Out,42.3424,-71.0966,Fenway/Kenmore
Brendan Behan Pub,378 Centre,2130,Eating & Drinking,42.322,-71.1093,Jamaica Plain
BRICCO Restaurant/Bakery,239 Hanover,2113,Eating & Drinking,42.3631,-71.0549,North End
Brick House Pizza & Grille,256 Washington,2135,Eating & Drinking,42.3479,-71.1497,Brighton
Brigham & Womens Coffee Connection,75 Francis,2115,Eating & Drinking w/ Take Out,42.3361,-71.1075,Fenway/Kenmore
BRIGHAM CIRCLE CHINESE FOOD,728 Huntington,2115,Eating & Drinking w/ Take Out,42.3338,-71.1051,Mission Hill
Brighams & Womens Hospital - Tower Cafe,75 Francis,2115,Eating & Drinking,42.3361,-71.1075,Fenway/Kenmore
Bright-Landry Arena Briggs Cafe,65 Harvard,2163,Eating & Drinking w/ Take Out,42.3676,-71.1259,Allston
Brighton Bodega,328 Washington,2135,Eating & Drinking,42.3489,-71.1522,Brighton
BRIGHTON HOUSE OF PIZZA,218 Market,2135,Eating & Drinking w/ Take Out,42.3552,-71.1494,Brighton
Brighton Music Hall,156 Brighton,2134,Eating & Drinking,42.3528,-71.1326,Allston
Broadway Pastry,258 Broadway,2127,Eating & Drinking w/ Take Out,42.3394,-71.0514,South Boston
BROADWAY'S BEST PIZZA,483 Broadway,2127,Eating & Drinking w/ Take Out,42.3353,-71.0456,South Boston
Brother Deli Restaurant,1636 Blue Hill,2126,Eating & Drinking,42.2682,-71.0934,Mattapan
Brown Brothers Harriman & Co.,185 Franklin,2110,Eating & Drinking,42.3554,-71.0548,Downtown Boston
BROWN SUGAR CAFE,1033 Commonwealth,2215,Eating & Drinking,42.3523,-71.1218,Allston
Bruins Bar,1 Harborside,2128,Eating & Drinking,42.3634,-71.0257,East Boston
Bubble Bath,100 High,2110,Eating & Drinking,42.3544,-71.0554,Downtown Boston
Bubor Cha Cha,41 Beach,2111,Eating & Drinking,42.3513,-71.0609,No Details
BUKHARA INDIAN BISTRO,3698 Washington,2130,Eating & Drinking,42.3006,-71.1128,Roslindale
Bukowski Tavern,50 Dalton,2115,Eating & Drinking,42.3471,-71.0856,Fenway/Kenmore
Bunker Hill Kinghts of Columbu #62,545 Medford,2129,Eating & Drinking,42.3839,-71.0706,Charlestown
Burger King,1 Maverick,2128,Eating & Drinking w/ Take Out,42.3717,-71.0428,East Boston
Burger King,1200 Dorchester,2125,Eating & Drinking w/ Take Out,42.3095,-71.0577,Dorchester
Burger King,128 Tremont,2108,Eating & Drinking w/ Take Out,42.3563,-71.0619,Beacon Hill
Burger King,210 Brighton,2134,Eating & Drinking w/ Take Out,42.353,-71.135,Allston
Burger King,280 Broadway,2127,Eating & Drinking w/ Take Out,42.3392,-71.051,South Boston
Burger King,944 Bennington,2128,Eating & Drinking w/ Take Out,42.3862,-71.0095,East Boston
Burger King # 3483,1610 VFW,2132,Eating & Drinking w/ Take Out,42.2659,-71.168,Roxbury
Burger King # 3531,4594 Washington,2131,Eating & Drinking w/ Take Out,42.276,-71.1392,Roslindale
Burro Bar,1357 Washington,2118,Eating & Drinking,42.3417,-71.0693,South End
Buttermilk & Bourbon,160 Commonwealth,2116,Eating & Drinking,42.3513,-71.0786,Back Bay
C01/B01/Y01,4 Jersey,2215,Eating & Drinking w/ Take Out,42.3467,-71.0987,Fenway/Kenmore
Cactus Grill,42 Maverick,2128,Eating & Drinking w/ Take Out,42.3701,-71.0392,East Boston
Cafe 1924 @ Mass Financial Services,111 Huntington,2199,Eating & Drinking,42.3465,-71.0815,Back Bay
Cafe 24,24 Fenway,2215,Eating & Drinking w/ Take Out,42.3459,-71.0901,Fenway/Kenmore
Cafe 26,26 Temple,2111,Eating & Drinking w/ Take Out,42.3554,-71.0621,Beacon Hill
Cafe 472,472 Commonwealth,2215,Eating & Drinking w/ Take Out,42.3486,-71.0937,Fenway/Kenmore
Cafe 939,939 Boylston,2115,Eating & Drinking w/ Take Out,42.3482,-71.085,Back Bay
Cafe Amalfi,2 Battery Wharf,2109,Eating & Drinking,42.3672,-71.0502,North End
Cafe Beirut,650 Centre,2130,Eating & Drinking w/ Take Out,42.3131,-71.1139,Jamaica Plain
Cafe Bonjour,55 Temple,2111,Eating & Drinking w/ Take Out,42.3549,-71.0618,Downtown Boston
Cafe Iterum,25 Lewis,2128,Eating & Drinking w/ Take Out,42.3676,-71.0422,East Boston
Cafe Juice Up,1290 Blue Hill,2126,Eating & Drinking w/ Take Out,42.2796,-71.0927,Mattapan
Cafe Landwer,900 Beacon,2215,Eating & Drinking,42.3468,-71.1057,Fenway/Kenmore
Cafe Madeleine,517 Columbus,2118,Eating & Drinking w/ Take Out,42.3422,-71.0801,South End
CAFE MIRROR,362 Washington,2135,Eating & Drinking w/ Take Out,42.349,-71.1536,Brighton
CAFE NAPOLI,81 Chelsea,2128,Eating & Drinking,42.3718,-71.0362,East Boston
CAFE POLONIA,611 Dorchester,2127,Eating & Drinking,42.3288,-71.0571,South Boston
CAFE PORTO BELLO,672 Broadway,2127,Eating & Drinking,42.3358,-71.0376,South Boston
CAFE QUATTRO,60 Springfield,2118,Eating & Drinking w/ Take Out,42.3357,-71.0745,South End
Cafe Sauvage,25 Massachusetts,2115,Eating & Drinking w/ Take Out,42.3505,-71.0896,Back Bay
Cafe SuSu,240A Newbury,2116,Eating & Drinking,42.3495,-71.0822,Back Bay
CAFENATION,378 Washington,2135,Eating & Drinking,42.349,-71.1542,Brighton
Caffe Bene,333 Massachusetts,2115,Eating & Drinking,42.3422,-71.0847,Fenway/Kenmore
Caffe Lil Italy,178 Salem,2113,Eating & Drinking,42.3665,-71.0548,North End
Caffe Nero,100 Huntington,2116,Eating & Drinking,42.3472,-71.0782,Back Bay
Caffe Nero,1047 Commonwealth,2134,Eating & Drinking,42.3524,-71.1226,Allston
Caffe Nero,189 Massachusetts,2115,Eating & Drinking,42.3453,-71.0872,Fenway/Kenmore
Caffe Nero,53 Union,2118,Eating & Drinking w/ Take Out,42.3436,-71.072,South End
Caffe Nero,725 Centre,2130,Eating & Drinking,42.3112,-71.1148,Jamaica Plain
Caffe Nero Americas  Inc.,100 Huntington,2116,Eating & Drinking w/ Take Out,42.3472,-71.0782,Back Bay
Caffe Vittoria,290 Hanover,2113,Eating & Drinking,42.3641,-71.0544,North End
Cajun Cajun,640 Atlantic,2110,Eating & Drinking,42.35,-71.0559,Downtown Boston
CALIFORNIA PIZZA KITCHEN,800 Boylston,2199,Eating & Drinking,42.3472,-71.0825,Back Bay
Canary Square,435 Huntington,2130,Eating & Drinking,42.3198,-71.112,Jamaica Plain
Candy's Cake,345 Washington,2135,Eating & Drinking w/ Take Out,42.3493,-71.153,Brighton
Cannonball Cafe,383 Dorchester,2127,Eating & Drinking,42.3351,-71.0572,South Boston
CANTON HOUSE,6 Hancock,2125,Eating & Drinking w/ Take Out,42.3156,-71.0659,Dorchester
Cape Verde Taste,481 Geneva,2122,Eating & Drinking w/ Take Out,42.2993,-71.0648,Dorchester
Capital Burger #3202,159 Newbury,2116,Eating & Drinking,42.3509,-71.0786,Back Bay
CAPITAL GRILLE,880 Boylston,2199,Eating & Drinking,42.3475,-71.0841,Back Bay
CAPITOL COFFEE HOUSE,122 Bowdoin,2108,Eating & Drinking,42.3589,-71.0628,Beacon Hill
CAPO RESTAURANT,443 Broadway,2127,Eating & Drinking,42.3361,-71.047,South Boston
CAPPY'S PIZZA,304 Centre,2130,Eating & Drinking w/ Take Out,42.3227,-71.1034,Jamaica Plain
CAPPY'S PIZZA & SUBS,82 Westland,2115,Eating & Drinking w/ Take Out,42.3437,-71.0896,Fenway/Kenmore
CAPTAIN NEMO'S,367 Centre,2130,Eating & Drinking w/ Take Out,42.3225,-71.1086,Jamaica Plain
Caramelo Bakery Cafe,375 Blue Hill,2121,Eating & Drinking w/ Take Out,42.3118,-71.0811,Roxbury
Caribbean Flavors,1210 Blue Hill,2126,Eating & Drinking w/ Take Out,42.283,-71.0913,Mattapan
CARLOS CUCINA ITALIANA,131 Brighton,2134,Eating & Drinking,42.3531,-71.1312,Allston
Carmelina's North End,307 Hanover,2113,Eating & Drinking,42.3639,-71.0542,North End
CARNEY HOSPITAL,2100 Dorchester,2124,Eating & Drinking,42.278,-71.066,Dorchester
Carrie Nation,11 Beacon,2108,Eating & Drinking,42.3584,-71.0618,Beacon Hill
CARTER FULLER MENTAL HOSPITAL,85 Newton,2118,Eating & Drinking,42.3364,-71.071,South End
Casa Bonita Mexican Grill,1033 Massachusetts,2118,Eating & Drinking w/ Take Out,42.3271,-71.0676,Dorchester
Casa Cana,1234 Soldiers Field,2134,Eating & Drinking,42.3637,-71.1364,Brighton
Casa Razdora,115 Water,2109,Eating & Drinking w/ Take Out,42.358,-71.0546,Downtown Boston
CASA ROMERO,30 Gloucester,2115,Eating & Drinking,42.3494,-71.0845,Back Bay
Casa Verde,711 Centre,2130,Eating & Drinking,42.3114,-71.1147,Jamaica Plain
Castle Island Brewing Co/Bardo's Bar Pizza,10 Old Colony,2127,Eating & Drinking,42.3373,-71.0563,South Boston
Catering,4 Jersey,2215,Eating & Drinking,42.3467,-71.0987,Fenway/Kenmore
Cathedral Station,1222 Washington,2118,Eating & Drinking,42.3428,-71.0667,South End
Cava,1350 Boylston,2215,Eating & Drinking,42.3438,-71.0995,Fenway/Kenmore
Cava,800 Boylston,2199,Eating & Drinking w/ Take Out,42.3473,-71.0815,Back Bay
CAVAN CAFE,1406 Hyde Park,2136,Eating & Drinking,42.2506,-71.1257,Hyde Park
Center Stage @ Emerson,116 Boylston,2116,Eating & Drinking,42.3522,-71.0656,Beacon Hill
Centerplate @ ORPHEUM THEATRE,1 Hamilton,2108,Eating & Drinking w/ Take Out,42.3562,-71.061,Downtown Boston
Central Wharf Co.,160 Milk,2109,Eating & Drinking,42.3587,-71.0528,Downtown Boston
CGK Newbury,266 Newbury,2116,Eating & Drinking,42.3492,-71.0832,Back Bay
Cha Kung Fong,1 Nassau,2111,Eating & Drinking,42.3486,-71.063,No Details
Chacarero,93 Arch,2110,Eating & Drinking w/ Take Out,42.355,-71.0591,Downtown Boston
CHACHO'S PIZZA,1502 Tremont,2120,Eating & Drinking w/ Take Out,42.3321,-71.0993,Mission Hill
Charlestown Recovery House,15 Bunker Hill,2129,Eating & Drinking,42.3796,-71.064,Charlestown
Charley's Philly Steak,417 Washington,2108,Eating & Drinking w/ Take Out,42.3558,-71.0604,Downtown Boston
Charley's Philly Steaks,350 Longwood,2115,Eating & Drinking w/ Take Out,42.3391,-71.1081,Fenway/Kenmore
CHARLIE'S HOUSE OF PIZZA,1740 Dorchester,2124,Eating & Drinking,42.2907,-71.0627,Dorchester
Charlie's Pizza & Cafe,177 Allston,2134,Eating & Drinking w/ Take Out,42.3477,-71.1383,Allston
Charlies Sandwich Shoppe,429 Columbus,2116,Eating & Drinking,42.3441,-71.0778,South End
CHART HOUSE,60 Long,2110,Eating & Drinking,42.3602,-71.0494,North End
Chartwells Churchill Cafe,380 Huntington,2115,Eating & Drinking w/ Take Out,42.3388,-71.0889,Fenway/Kenmore
Chatime,331 Huntington,2115,Eating & Drinking,42.3409,-71.0884,Fenway/Kenmore
Chattermark Distillers,200 Terminal,2129,Eating & Drinking,42.3832,-71.05,Charlestown
CHEQUERS,72 Concord,2118,Eating & Drinking,42.3362,-71.0725,South End
Chequers Coffee Express,72 Concord,2118,Eating & Drinking w/ Take Out,42.3362,-71.0725,South End
Chestnut Park @Cleveland Circle,50 Sutherland,2135,Eating & Drinking,42.338,-71.1499,Brighton
CHEZ-VOUS SKATING RINK,11 Rhoades,2124,Eating & Drinking,42.2854,-71.0922,Mattapan
Chickadee,21 Dry Dock,2210,Eating & Drinking,42.3443,-71.0309,South Boston
Chicken and Rice Guys,85 Bedford,2111,Eating & Drinking w/ Take Out,42.3531,-71.0587,Downtown Boston
Chick-Fil-A,569 Boylston,2116,Eating & Drinking,42.3506,-71.0764,Back Bay
Chilacates,222 Amory,2130,Eating & Drinking w/ Take Out,42.3164,-71.1032,Roxbury
Chilacates,658 Centre,2130,Eating & Drinking,42.3127,-71.1139,Jamaica Plain
Chili Bento,1 Brighton,2134,Eating & Drinking w/ Take Out,42.3524,-71.1253,Allston
Chilton Club,150 Commonwealth,2116,Eating & Drinking,42.3515,-71.0778,Back Bay
CHINA GOURMET RESTAURANT,23 Tyler,2111,Eating & Drinking,42.3508,-71.0609,No Details
CHINA HOUSE,331 Hanover,2113,Eating & Drinking w/ Take Out,42.3642,-71.0538,North End
China Maxim,241 Market,2134,Eating & Drinking w/ Take Out,42.3546,-71.1505,Brighton
China Pearl Restaurant,9 Tyler,2111,Eating & Drinking,42.3511,-71.0608,No Details
China Sea,1194 Blue Hill,2126,Eating & Drinking w/ Take Out,42.2836,-71.0914,Mattapan
China Sky Restaurant,782 Adams,2124,Eating & Drinking w/ Take Out,42.2831,-71.0556,Dorchester
China Station Restaurant,530 Washington,2124,Eating & Drinking w/ Take Out,42.293,-71.0716,Dorchester
Chinatown Cafe,262 Harrison,2111,Eating & Drinking,42.3475,-71.0625,No Details
CHINATOWN EXPRESS,79 River,2126,Eating & Drinking w/ Take Out,42.2714,-71.074,Mattapan
CHINESE DRAGON,380 Chelsea,2128,Eating & Drinking w/ Take Out,42.3793,-71.0281,East Boston
Chipotle Mexican Grill,1924 Beacon,2135,Eating & Drinking,42.3365,-71.1496,Brighton
Chipotle Mexican Grill,8 Park,2116,Eating & Drinking,42.3514,-71.0687,Back Bay
Chipotle Mexican Grill #1520,101 Summer,2110,Eating & Drinking,42.3536,-71.0582,Downtown Boston
Chipotle Mexican Grille,283 Washington,2108,Eating & Drinking,42.3576,-71.0584,Downtown Boston
Chopped & Topped 3rd Fl.,800 Washington,2111,Eating & Drinking w/ Take Out,42.3496,-71.0636,No Details
Christos Pizzeria,1761 Centre,2132,Eating & Drinking w/ Take Out,42.2875,-71.1507,Roxbury
CHULO,350 Longwood,2115,Eating & Drinking w/ Take Out,42.3391,-71.1081,Fenway/Kenmore
CHUNG WAH,199 Bowdoin,2122,Eating & Drinking w/ Take Out,42.3051,-71.0682,Dorchester
Cinis,252 Friend,2114,Eating & Drinking w/ Take Out,42.3645,-71.0612,West End
Citizen Public House & Oyster Bar,1310 Boylston,2215,Eating & Drinking,42.3442,-71.098,Fenway/Kenmore
CitizenM Hotel,50 Causeway,2114,Eating & Drinking,42.3657,-71.0617,West End
Citra A Fresh Cafe,221 Longwood,2115,Eating & Drinking w/ Take Out,42.3372,-71.1022,Fenway/Kenmore
Citrus & Salt,142 Berkeley,2116,Eating & Drinking,42.3488,-71.0721,Back Bay
City Tap House,374 Congress,2210,Eating & Drinking,42.3499,-71.0474,South Boston
CLARKE'S,21 Merchants,2109,Eating & Drinking,42.3595,-71.0555,No Details
Classic Harbor Lines,60 Rowes,2110,Eating & Drinking,42.3565,-71.0503,North End
Clay Pot Cafe,74 Kneeland,2111,Eating & Drinking,42.3505,-71.0604,No Details
CLERY'S,331 Columbus,2116,Eating & Drinking,42.3461,-71.0752,South End
Clover,160 Federal,2110,Eating & Drinking,42.354,-71.0559,Downtown Boston
Clover,27 School,2108,Eating & Drinking,42.3577,-71.0591,Downtown Boston
Clover,800 Boylston,2199,Eating & Drinking,42.3473,-71.0815,Back Bay
Clover Food Lab,565 Boylston,2116,Eating & Drinking w/ Take Out,42.3507,-71.0764,Back Bay
Club Cafe,209 Columbus,2116,Eating & Drinking,42.3485,-71.0724,Back Bay
CLUB HOTEL BAR,240 Mount Vernon,2125,Eating & Drinking,42.319,-71.045,Dorchester
Coco Leaf,1480 Dorchester,2122,Eating & Drinking,42.3001,-71.06,Dorchester
Coco Leaf,303 Newbury,2115,Eating & Drinking,42.349,-71.0855,Back Bay
Cocobeet,100 City Hall,2108,Eating & Drinking w/ Take Out,42.3595,-71.0588,Downtown Boston
Code 10 Restaurant Cafe,2 Concord,2118,Eating & Drinking,42.3379,-71.0747,South End
COFFEE SHOP,11 Elkins,2127,Eating & Drinking w/ Take Out,42.3394,-71.0361,South Boston
Cold Stone Creamery,800 Boylston,2199,Eating & Drinking w/ Take Out,42.3473,-71.0815,Back Bay
College Club,44 Commonwealth,2116,Eating & Drinking,42.3527,-71.0734,Back Bay
COLLEGE PIZZA,50 Queensberry,2215,Eating & Drinking w/ Take Out,42.3426,-71.0973,Fenway/Kenmore
Colonnade Hotel,120 Huntington,2116,Eating & Drinking,42.3455,-71.0811,Back Bay
Columbia Park Cafe @ Santander Bank,2 William T Morrissey,2125,Eating & Drinking,42.3194,-71.0493,Dorchester
Comedy Connection @ The Wilbur Theater,244 Tremont,2116,Eating & Drinking,42.3507,-71.0647,No Details
Comella's,1882 Centre,2132,Eating & Drinking w/ Take Out,42.2857,-71.1555,Roxbury
Common Ground Cafe @ Simmons College,300 Fenway,2115,Eating & Drinking w/ Take Out,42.3393,-71.1,Fenway/Kenmore
Community Servings Employee Cafeteria,18 Marbury,2130,Eating & Drinking,42.3178,-71.1029,Roxbury
Community Workshop Inc.,174 Portland,2114,Eating & Drinking,42.3641,-71.0618,West End
Concepts,18 Newbury,2116,Eating & Drinking w/ Take Out,42.3521,-71.0722,Back Bay
Concession Kitchen South Side,2597 Beacon,2135,Eating & Drinking w/ Take Out,42.3362,-71.1664,Chestnut Hill
Conte 1,2597 Beacon,2135,Eating & Drinking w/ Take Out,42.3362,-71.1664,Chestnut Hill
Conte 2,2597 Beacon,2135,Eating & Drinking w/ Take Out,42.3362,-71.1664,Chestnut Hill
Conte 3,2597 Beacon,2135,Eating & Drinking w/ Take Out,42.3362,-71.1664,Chestnut Hill
Conte 4,2597 Beacon,2135,Eating & Drinking w/ Take Out,42.3362,-71.1664,Chestnut Hill
Conte 5,2597 Beacon,2135,Eating & Drinking w/ Take Out,42.3362,-71.1664,Chestnut Hill
Conte 6,2597 Beacon,2135,Eating & Drinking w/ Take Out,42.3362,-71.1664,Chestnut Hill
Conte 7,2597 Beacon,2135,Eating & Drinking w/ Take Out,42.3362,-71.1664,Chestnut Hill
Conte 8,2597 Beacon,2135,Eating & Drinking w/ Take Out,42.3362,-71.1664,Chestnut Hill
Contessa,15 Arlington,2116,Eating & Drinking,42.3528,-71.0716,Back Bay
COOGAN'S BLUFF,171 Milk,2109,Eating & Drinking,42.3583,-71.0533,Downtown Boston
Corner Cafe,87 Prince,2113,Eating & Drinking,42.3656,-71.056,North End
CORRIB PUB,396 Market,2135,Eating & Drinking,42.3499,-71.1528,Brighton
CORRIB PUB AND RESTAURANT,2030 Centre,2132,Eating & Drinking,42.2807,-71.158,Roxbury
Cosi,133 Federal,2110,Eating & Drinking,42.3543,-71.0566,Downtown Boston
Cosmica @ the Revolution Hotel,40 Berkeley,2116,Eating & Drinking,42.3459,-71.0709,South End
Costello's Tavern Inc,717 Centre,2130,Eating & Drinking,42.3112,-71.1147,Jamaica Plain
Country Kitchen,830 Blue Hill,2124,Eating & Drinking,42.2962,-71.0872,Roxbury
Countway LIbrary Cafe,10 Shattuck,2115,Eating & Drinking,42.3351,-71.1037,Fenway/Kenmore
Fomu,655 Tremont,2118,Eating & Drinking w/ Take Out,42.3421,-71.0756,South End
Courtyard Boston Downtown,275 Tremont,2116,Eating & Drinking,42.35,-71.0655,No Details
Courtyard By Marriott,65R Boston,2125,Eating & Drinking,42.3282,-71.0601,Dorchester
COURTYARD CAFE,200 Longwood,2115,Eating & Drinking,42.3362,-71.1027,Fenway/Kenmore
COURTYARD CAFE,275 Tremont,2116,Eating & Drinking,42.35,-71.0655,No Details
COURTYARD CAFE,77 Warren,2135,Eating & Drinking,42.349,-71.1427,Brighton
COURTYARD MARRIOTT COPLEY,88 Exeter,2116,Eating & Drinking,42.3486,-71.0788,Back Bay
Courtyard Marriott Logan Airport,225 William F McClellan,2128,Eating & Drinking,42.3873,-71.0166,East Boston
Crane River Cheese Club,138 Cambridge,2114,Eating & Drinking w/ Take Out,42.361,-71.0639,Beacon Hill
Crave Mad For Chicken,75 Kneeland,2111,Eating & Drinking,42.3502,-71.0606,No Details
Crazy Dough's Pizza,2201 Commonwealth,2135,Eating & Drinking w/ Take Out,42.3398,-71.1664,Chestnut Hill
CRISPY CREPES CAFE,714 Commonwealth,2215,Eating & Drinking w/ Take Out,42.3496,-71.1057,Cambridge
CROKE PARK,268 Broadway,2127,Eating & Drinking,42.3393,-71.0512,South Boston
Crown Fried Chicken,344 Warren,2119,Eating & Drinking,42.319,-71.0811,Roxbury
Crudo,78 Salem,2113,Eating & Drinking,42.3637,-71.0559,North End
Crystal/Gorage Lounge,20 Linden,2134,Eating & Drinking,42.3555,-71.1307,Allston
Cuppa Coffee,275 Albany,2118,Eating & Drinking w/ Take Out,42.3438,-71.0627,South End
Cusser's Roast Beef and Seafood,201 Brookline,2215,Eating & Drinking w/ Take Out,42.3446,-71.1022,Fenway/Kenmore
D Coal Pot,984 Hyde Park,2136,Eating & Drinking w/ Take Out,42.2661,-71.1208,Hyde Park
Da Long Yi Hot Pot,137 Brighton,2134,Eating & Drinking,42.3531,-71.1314,Allston
Dahlak Restaurant,1127 Harrison,2119,Eating & Drinking w/ Take Out,42.3304,-71.082,Roxbury
Daiquiris & Daisies,100 High,2110,Eating & Drinking,42.3544,-71.0554,Downtown Boston
Darbar Indo-Pak Rest.,130 Beacon,2135,Eating & Drinking,42.3549,-71.1448,Brighton
Darryl's Corner Bar and Kitchen,604 Columbus,2118,Eating & Drinking,42.3398,-71.0824,South End
Dash Cafe,1 Henshaw,2135,Eating & Drinking,42.3495,-71.1496,Brighton
DAVIO'S,75 Arlington,2117,Eating & Drinking,42.3507,-71.0704,Back Bay
DAYIB CAFE,722 Shawmut,2119,Eating & Drinking w/ Take Out,42.3328,-71.0832,Roxbury
DBAR,1236 Dorchester,2125,Eating & Drinking,42.3084,-71.058,Dorchester
Deja - Brew,704 Broadway,2127,Eating & Drinking,42.3358,-71.0372,South Boston
Delfino Restaurant,754 South,2131,Eating & Drinking,42.287,-71.1295,Roslindale
DELI OF COURSE,451 D,2127,Eating & Drinking w/ Take Out,42.3452,-71.042,South Boston
Delicias Del Caribe,149 Stoughton,2125,Eating & Drinking w/ Take Out,42.3146,-71.0603,Dorchester
Delicious Yogurt,4198 Washington,2131,Eating & Drinking w/ Take Out,42.2868,-71.1274,Roslindale
Delini Gelato,5 Bellevue,2132,Eating & Drinking w/ Take Out,42.2835,-71.1566,Roxbury
Delta Sky Club Temp Kitchen,100 Terminal,2128,Eating & Drinking,42.3645,-71.0218,East Boston
Delta Sky Club Terminal SAT,100 Terminal,2128,Eating & Drinking,42.3645,-71.0218,East Boston
Delta Sky Club Trmnl A Main,100 Terminal,2128,Eating & Drinking,42.3645,-71.0218,East Boston
DEM & TED INC.  PIZZA SHUTTLE,239 Meridian,2128,Eating & Drinking w/ Take Out,42.3758,-71.0389,East Boston
Democracy Brewing,29 Temple,2111,Eating & Drinking,42.3551,-71.0622,Downtown Boston
Deno's Pizza and Subs,2040 Centre,2132,Eating & Drinking w/ Take Out,42.2803,-71.158,Roxbury
Deparma,182 Sumner,2128,Eating & Drinking,42.3694,-71.0403,East Boston
Deuxave,371 Commonwealth,2116,Eating & Drinking,42.3495,-71.0891,Back Bay
DEVLIN'S RESTAURANT,332 Washington,2135,Eating & Drinking,42.3489,-71.1523,Brighton
D'Guru,43 Kingston,2111,Eating & Drinking w/ Take Out,42.3534,-71.0595,Downtown Boston
Dig Inn,277 Washington,2108,Eating & Drinking,42.3576,-71.0584,Downtown Boston
Dig Inn,557 Boylston,2116,Eating & Drinking,42.3507,-71.0762,Back Bay
Dig Inn,800 Boylston,2199,Eating & Drinking,42.3473,-71.0815,Back Bay
DIMITRIOS HOUSE OF PIZZA,1750 Dorchester,2124,Eating & Drinking w/ Take Out,42.2902,-71.0629,Dorchester
DING HO FAST FOOD,88 Harrison,2111,Eating & Drinking w/ Take Out,42.3507,-71.0612,No Details
DINO'S CAFE,141 Salem,2113,Eating & Drinking,42.3651,-71.0554,North End
Dirty Water Dough Company,222 Newbury,2116,Eating & Drinking w/ Take Out,42.3498,-71.0811,Back Bay
Discovery Cafe,3 Blackfan,2115,Eating & Drinking w/ Take Out,42.339,-71.1042,Fenway/Kenmore
Distraction Brewing,2 Belgrade,2131,Eating & Drinking,42.2869,-71.1302,Roslindale
District 7 Tavern,380 Warren,2119,Eating & Drinking,42.318,-71.0817,Roxbury
Dive Bar,100 High,2110,Eating & Drinking w/ Take Out,42.3544,-71.0554,Downtown Boston
DOGWOOD CAFE,3712 Washington,2130,Eating & Drinking,42.3002,-71.1131,Roslindale
Dolce,270 Hanover,2113,Eating & Drinking w/ Take Out,42.3638,-71.0547,North End
DOLCE VITA,215 Hanover,2113,Eating & Drinking,42.3628,-71.0553,North End
DOLCE VITA (1696 Comm. Ave.),1696 Commonwealth,2135,Eating & Drinking w/ Take Out,42.3412,-71.1465,Brighton
Dolphin Bay,72 Brighton,2134,Eating & Drinking,42.3524,-71.1287,Allston
Domino's,1144 Saratoga,2128,Eating & Drinking w/ Take Out,42.3846,-71.0003,East Boston
Domino's,25 Staniford,2114,Eating & Drinking w/ Take Out,42.3627,-71.0627,West End
Domino's,4000 Washington,2131,Eating & Drinking w/ Take Out,42.2923,-71.1215,Roslindale
Domino's,4640 Washington,2131,Eating & Drinking w/ Take Out,42.2755,-71.139,Roslindale
Domino's Pizza,1514 Blue Hill,2126,Eating & Drinking w/ Take Out,42.2723,-71.0932,Mattapan
Domino's Pizza,163 Old Colony,2127,Eating & Drinking w/ Take Out,42.334,-71.055,South Boston
Domino's Pizza,508 Park,2111,Eating & Drinking w/ Take Out,42.3477,-71.1058,Cambridge
Domino's Pizza (695 Truman Pkwy),695 Truman,2136,Eating & Drinking w/ Take Out,42.2525,-71.119,Hyde Park
Dona Habana Restaurant,811 Massachusetts,2119,Eating & Drinking,42.3323,-71.074,South End
DONNA'S RESTAURANT,978 Saratoga,2128,Eating & Drinking w/ Take Out,42.387,-71.0074,East Boston
Dot Cafe,1459 Dorchester,2122,Eating & Drinking,42.3009,-71.0601,Dorchester
Double Chin,86 Harrison,2111,Eating & Drinking,42.3507,-71.0612,No Details
Double Tree Guest Suites,400 Soldiers Field,2134,Eating & Drinking,42.36,-71.1183,Allston
Double Zero,163 Newbury,2116,Eating & Drinking,42.3508,-71.0788,Back Bay
Doughboy Donuts & Deli,220 Dorchester,2127,Eating & Drinking w/ Take Out,42.3401,-71.0568,South Boston
DOUZO JAPANESE RESTAURANT,131 Dartmouth,2116,Eating & Drinking,42.3468,-71.0754,South End
Dovetail,1 First,2129,Eating & Drinking,42.3726,-71.0577,Charlestown
Down Home Delivery & Catering,2 Bowdoin,2124,Eating & Drinking w/ Take Out,42.2996,-71.0733,Dorchester
Dragon Bowl,396 Brookline,2115,Eating & Drinking w/ Take Out,42.3383,-71.1069,Fenway/Kenmore
Dragon Chef East,4198 Washington,2131,Eating & Drinking,42.2868,-71.1274,Roslindale
Drink,348 Congress,2210,Eating & Drinking,42.3507,-71.0485,South Boston
Drydock Cafe,7 Dry Dock,2210,Eating & Drinking,42.3443,-71.0361,South Boston
DUBLIN HOUSE,9 Stoughton,2125,Eating & Drinking,42.3167,-71.0648,Dorchester
Dugout Inseat,4 Jersey,2215,Eating & Drinking w/ Take Out,42.3467,-71.0987,Fenway/Kenmore
Dumpling Cafe Inc.,693 Washington,2111,Eating & Drinking,42.3513,-71.0631,Downtown Boston
Dumpling Gourmet,52 Beach,2111,Eating & Drinking,42.3515,-71.0606,No Details
Dumpling King,40 Harrison,2111,Eating & Drinking w/ Take Out,42.3516,-71.061,No Details
Dumpling Palace,179 Massachusetts,2115,Eating & Drinking,42.3457,-71.0873,Fenway/Kenmore
Dunkin,100 Cambridge,2114,Eating & Drinking w/ Take Out,42.3606,-71.0621,Beacon Hill
Dunkin,1912 Beacon,2135,Eating & Drinking w/ Take Out,42.3366,-71.1488,Brighton
Dunkin,44 Parker,2129,Eating & Drinking,42.3825,-71.0792,Charlestown
DUNKIN',1 Cambridge,2108,Eating & Drinking w/ Take Out,42.3596,-71.0593,No Details
Gardner Museum Cafe,2 Palace,2115,Eating & Drinking,42.3383,-71.1004,Fenway/Kenmore
DUNKIN',684 American Legion,2131,Eating & Drinking w/ Take Out,42.2836,-71.1125,Roslindale
DUNKIN',715 Boylston,2116,Eating & Drinking w/ Take Out,42.3496,-71.08,Back Bay
DUNKIN (STATION DONUTS),4610 Washington,2131,Eating & Drinking w/ Take Out,42.2754,-71.1393,Roslindale
Dunkin (store 1916),1 Harborside,2128,Eating & Drinking w/ Take Out,42.3634,-71.0257,East Boston
DUNKIN DONUT,326 Congress,2210,Eating & Drinking w/ Take Out,42.3512,-71.0493,South Boston
Dunkin Donuts,100 William T Morrissey,2125,Eating & Drinking w/ Take Out,42.3131,-71.0389,Dorchester
Dunkin Donuts,115 Forsyth,2115,Eating & Drinking w/ Take Out,42.3391,-71.0882,Fenway/Kenmore
Dunkin Donuts,1200 Hyde Park,2136,Eating & Drinking w/ Take Out,42.2579,-71.1232,Hyde Park
Dunkin Donuts,147 Tremont,2111,Eating & Drinking w/ Take Out,42.3551,-71.063,Downtown Boston
Dunkin Donuts,153 Massachusetts,2115,Eating & Drinking w/ Take Out,42.3464,-71.0876,Fenway/Kenmore
Dunkin Donuts,1580 Dorchester,2122,Eating & Drinking w/ Take Out,42.2969,-71.0604,Dorchester
Dunkin Donuts,1955 Beacon,2467,Eating & Drinking w/ Take Out,42.3357,-71.1499,Brighton
Dunkin Donuts,218 Congress,2110,Eating & Drinking w/ Take Out,42.3545,-71.0542,Downtown Boston
Dunkin Donuts,283 Huntington,2115,Eating & Drinking w/ Take Out,42.3419,-71.0865,Fenway/Kenmore
Dunkin Donuts,315 Centre,2130,Eating & Drinking w/ Take Out,42.323,-71.1039,Jamaica Plain
Dunkin Donuts,330 Washington,2108,Eating & Drinking w/ Take Out,42.3567,-71.0587,Downtown Boston
Dunkin Donuts,350 Washington,2110,Eating & Drinking w/ Take Out,42.3564,-71.059,Downtown Boston
Dunkin Donuts,39 First,2129,Eating & Drinking w/ Take Out,42.3756,-71.0539,Charlestown
Dunkin Donuts,417 Washington,2108,Eating & Drinking w/ Take Out,42.3558,-71.0604,Downtown Boston
Dunkin Donuts,510 Southampton,2127,Eating & Drinking w/ Take Out,42.3297,-71.0574,South Boston
Dunkin Donuts,530 Commonwealth,2215,Eating & Drinking w/ Take Out,42.3485,-71.0963,Fenway/Kenmore
Dunkin Donuts,60 Everett,2135,Eating & Drinking w/ Take Out,42.3565,-71.1392,Allston
Dunkin Donuts,711 Atlantic,2111,Eating & Drinking w/ Take Out,42.3512,-71.0567,Downtown Boston
Dunkin Donuts,736 Cambridge,2135,Eating & Drinking w/ Take Out,42.3496,-71.148,Brighton
Dunkin Donuts,75 L,2127,Eating & Drinking w/ Take Out,42.3351,-71.0356,South Boston
Dunkin Donuts,750 Washington,2111,Eating & Drinking w/ Take Out,42.3501,-71.0631,No Details
Dunkin Donuts,89 Broad,2110,Eating & Drinking w/ Take Out,42.3574,-71.0532,Downtown Boston
Dunkin' Donuts,1131 Tremont,2120,Eating & Drinking w/ Take Out,42.3355,-71.0882,Fenway/Kenmore
Dunkin' Donuts,1236 Dorchester,2125,Eating & Drinking w/ Take Out,42.3084,-71.058,Dorchester
Dunkin' Donuts,13 Maverick,2128,Eating & Drinking w/ Take Out,42.369,-71.0392,East Boston
Dunkin' Donuts,1926 Columbus,2119,Eating & Drinking w/ Take Out,42.317,-71.098,Roxbury
Dunkin' Donuts,22 Beacon,2108,Eating & Drinking w/ Take Out,42.3577,-71.0629,Beacon Hill
Dunkin' Donuts,2290 Dorchester,2124,Eating & Drinking w/ Take Out,42.2724,-71.0678,Dorchester
Dunkin' Donuts,235 Washington,2108,Eating & Drinking w/ Take Out,42.3581,-71.0582,Downtown Boston
Dunkin' Donuts,2360 Washington,2119,Eating & Drinking w/ Take Out,42.3294,-71.0845,Roxbury
Dunkin' Donuts,256 Boston,2125,Eating & Drinking w/ Take Out,42.3209,-71.0609,Dorchester
Dunkin' Donuts,7 Walk Hill,2130,Eating & Drinking w/ Take Out,42.2956,-71.1161,Roslindale
Dunkin' Donuts,847 Dorchester,2125,Eating & Drinking w/ Take Out,42.3218,-71.057,Dorchester
Dunkin' Donuts,951 Bennington,2128,Eating & Drinking w/ Take Out,42.3859,-71.0083,East Boston
DUNKIN DONUTS',20 North,2109,Eating & Drinking w/ Take Out,42.3607,-71.0563,No Details
DUNKIN DONUTS',800 Boylston,2199,Eating & Drinking w/ Take Out,42.3473,-71.0815,Back Bay
DUNKIN' DONUTS #0311,818 Harrison,2118,Eating & Drinking,42.3347,-71.0735,South End
Dunkin Donuts (1447 Tremont St.),1447 Tremont,2120,Eating & Drinking w/ Take Out,42.332,-71.0968,Mission Hill
Dunkin Donuts (219 Cambridge),219 Cambridge,2134,Eating & Drinking w/ Take Out,42.3582,-71.1263,Allston
Dunkin Donuts (48 W Broadway),48 Broadway,2127,Eating & Drinking w/ Take Out,42.3424,-71.0557,South Boston
Dunkin Donuts (895 Morton St.),895 Morton,2126,Eating & Drinking w/ Take Out,42.2804,-71.0841,Mattapan
DUNKIN DONUTS (ALLSTON),509 Cambridge,2134,Eating & Drinking w/ Take Out,42.3534,-71.1385,Allston
Dunkin Donuts (Canal St.),168 Canal,2114,Eating & Drinking w/ Take Out,42.365,-71.0612,West End
DUNKIN DONUTS (CARNEY),2100 Dorchester,2124,Eating & Drinking w/ Take Out,42.278,-71.066,Dorchester
Dunkin Donuts (Causeway St.),55 Causeway,2114,Eating & Drinking w/ Take Out,42.3643,-71.0629,West End
DUNKIN DONUTS (CITY PLACE),8 Park,2116,Eating & Drinking w/ Take Out,42.3514,-71.0687,Back Bay
DUNKIN DONUTS (WEST ROXBURY),5305 Washington,2132,Eating & Drinking w/ Take Out,42.2586,-71.1607,Roxbury
Dunkin Donuts @ MBTA Station,145 Dartmouth,2116,Eating & Drinking w/ Take Out,42.3474,-71.0748,South End
DUNKIN DONUTS BLUE HILL AVE,456 Blue Hill,2121,Eating & Drinking w/ Take Out,42.3094,-71.082,Roxbury
Dunkin' Donuts Express,145 Dartmouth,2116,Eating & Drinking w/ Take Out,42.3474,-71.0748,South End
Dunkin Donuts Kiosk,640 Atlantic,2110,Eating & Drinking w/ Take Out,42.35,-71.0559,Downtown Boston
Dunkin Donuts(757 Centre St.),757 Centre,2130,Eating & Drinking w/ Take Out,42.3105,-71.1152,Jamaica Plain
Dunkin' Donuts(C.A. Donuts),155 Spring,2132,Eating & Drinking w/ Take Out,42.2765,-71.1668,Roxbury
DUNKIN DONUTS(FRANKLIN),265 Franklin,2110,Eating & Drinking w/ Take Out,42.3565,-71.0533,Downtown Boston
DUNKIN DONUTS(WOLCOTT SQ. LLC),942 Hyde Park,2136,Eating & Drinking w/ Take Out,42.2676,-71.1199,Hyde Park
Dunkin Donuts/1138 Washington St.,1138 Washington,2118,Eating & Drinking w/ Take Out,42.3437,-71.0658,South End
Dunkin Donuts/Airside,400 Terminal,2128,Eating & Drinking w/ Take Out,42.3669,-71.0209,East Boston
DUNKIN DONUTS/GALLERIA,340 Longwood,2115,Eating & Drinking w/ Take Out,42.3383,-71.107,Fenway/Kenmore
DUNKIN DONUTS/HYDE PK AVE,1800 Hyde Park,2136,Eating & Drinking w/ Take Out,42.2379,-71.1321,Hyde Park
DUNKIN DONUTS/SCNVANOS,440 Massachusetts,2118,Eating & Drinking w/ Take Out,42.3409,-71.0818,South End
DUNKIN' DONUTS/WATERMARK,1 Summer,2111,Eating & Drinking w/ Take Out,42.3547,-71.0602,Downtown Boston
DUNKIN' DONUTS-WATERMARK,111 State,2109,Eating & Drinking w/ Take Out,42.359,-71.0548,Downtown Boston
DUNKIN/DONUT/WATERMARK,630 Washington,2111,Eating & Drinking w/ Take Out,42.3522,-71.0624,Downtown Boston
DUNKIN'DONUTS/WATERMARK,101 Summer,2110,Eating & Drinking w/ Take Out,42.3536,-71.0582,Downtown Boston
Dunkin-Term E Airside,100 Terminal,2128,Eating & Drinking w/ Take Out,42.3645,-71.0218,East Boston
Durty Nellie's,108 Blackstone,2109,Eating & Drinking,42.3617,-71.0566,No Details
Eagle Cafe 7th Fl,160 Federal,2110,Eating & Drinking,42.354,-71.0559,Downtown Boston
Earl of Sandwich,1 Charles,2116,Eating & Drinking w/ Take Out,42.3515,-71.0674,No Details
Earl's Kitchen and Bar,800 Boylston,2199,Eating & Drinking,42.3473,-71.0815,Back Bay
East Roof Production Kitchen,2597 Beacon,2135,Eating & Drinking w/ Take Out,42.3362,-71.1664,Chestnut Hill
Eataly 1St. Floor,800 Boylston,2199,Eating & Drinking w/ Take Out,42.3473,-71.0815,Back Bay
Eaton Vance,90 Oliver,2110,Eating & Drinking,42.3563,-71.0518,Downtown Boston
EF Boston School,200 Lake,2135,Eating & Drinking,42.3471,-71.1632,Brighton
Effie's Kitchen,37 Poplar,2131,Eating & Drinking w/ Take Out,42.2861,-71.129,Roslindale
EGLESTON PIZZA,3080 Washington,2119,Eating & Drinking w/ Take Out,42.3154,-71.0984,Roxbury
El Barrio Mexican Grill,809 Harrison,2118,Eating & Drinking w/ Take Out,42.3358,-71.0743,South End
EL CHALAN,405 Chelsea,2128,Eating & Drinking w/ Take Out,42.3798,-71.027,East Boston
El Dugout,122 Seaver,2121,Eating & Drinking w/ Take Out,42.3099,-71.0915,Roxbury
EL EMBAJADOR RESTAURANT,3371 Washington,2130,Eating & Drinking w/ Take Out,42.3091,-71.1051,Jamaica Plain
El Jefe's Taqueria,80 Boylston,2116,Eating & Drinking,42.3522,-71.0649,Beacon Hill
El Jefe's Taqueria,957 Commonwealth,2215,Eating & Drinking,42.3519,-71.1189,Allston
El Jefe's Taqueria of Northeastern,269 Huntington,2115,Eating & Drinking,42.3422,-71.0862,Fenway/Kenmore
EL MONDONGUITO,219 Dudley,2119,Eating & Drinking,42.3284,-71.0807,Roxbury
El Oriental De Cuba,414 Centre,2130,Eating & Drinking,42.3208,-71.1105,Jamaica Plain
EL PAISA RESTAURANTE,88 Chelsea,2128,Eating & Drinking w/ Take Out,42.3722,-71.0364,East Boston
El Palmar Restaurant,290 Bennington,2128,Eating & Drinking w/ Take Out,42.379,-71.0286,East Boston
El Pelon,2193 Commonwealth,2135,Eating & Drinking w/ Take Out,42.3403,-71.1664,Brighton
El Pelon Taqueria,84 Peterborough,2115,Eating & Drinking w/ Take Out,42.3431,-71.0991,Fenway/Kenmore
EL PENOL RESTAURANT,54 Bennington,2128,Eating & Drinking,42.3758,-71.0371,East Boston
El Recreo Coffee & Roastene,1872 Centre,2132,Eating & Drinking w/ Take Out,42.2857,-71.1554,Roxbury
El Rey Del Pollo Restautant,109 Blue Hill,2119,Eating & Drinking w/ Take Out,42.3212,-71.0777,Roxbury
El Triunfo Restaurant / Ali Baba,147 Berkeley,2118,Eating & Drinking,42.3435,-71.0648,South End
Elenas Cafe,424 Beacon,2115,Eating & Drinking,42.3518,-71.0868,Back Bay
Elephant & Castle Pub and Restaurant,161 Devonshire,2110,Eating & Drinking,42.3563,-71.0575,Downtown Boston
Emack & Bolio's,1 Chelsea,2129,Eating & Drinking w/ Take Out,42.3712,-71.0617,Charlestown
Emack & Bolio's,290 Newbury,2115,Eating & Drinking w/ Take Out,42.3488,-71.0846,Back Bay
Embassy Suites @Logan Airport,207 Porter,2128,Eating & Drinking,42.3704,-71.0317,East Boston
Embassy Suites Boston Kiosk,207 Porter,2128,Eating & Drinking w/ Take Out,42.3704,-71.0317,East Boston
EMC CLUB,4 Jersey,2215,Eating & Drinking,42.3467,-71.0987,Fenway/Kenmore
EMMETS/ROXANNE'S,6 Beacon,2108,Eating & Drinking,42.358,-71.0616,Beacon Hill
EMPIRE GARDEN,686 Washington,2111,Eating & Drinking,42.3513,-71.0626,No Details
Energize,610 Washington,2135,Eating & Drinking,42.3504,-71.1678,Brighton
ERIC LINDEMAN,25 Staniford,2114,Eating & Drinking,42.3622,-71.0635,West End
Erie Pub,791 Adams,2124,Eating & Drinking,42.2832,-71.056,Dorchester
Ernestos Pizza,69 Salem,2113,Eating & Drinking,42.3633,-71.0558,North End
Esperia Grill & Rotisserie,344 Washington,2135,Eating & Drinking w/ Take Out,42.3488,-71.1529,Brighton
Espresso Love Cafe,33 Broad,2109,Eating & Drinking,42.3584,-71.0545,Downtown Boston
Espresso Yourself,767 Centre,2130,Eating & Drinking,42.3103,-71.1155,Jamaica Plain
Essential Herb & Juice Cafe,501B Washington,2124,Eating & Drinking w/ Take Out,42.2942,-71.0721,Dorchester
Estella,49 Temple,2111,Eating & Drinking,42.3549,-71.0618,Downtown Boston
Esthetic Bean,16 Preble,2127,Eating & Drinking w/ Take Out,42.3296,-71.0563,South Boston
ETHEL & ANDY'S SUB SHOP,134 K,2127,Eating & Drinking w/ Take Out,42.3382,-71.0373,South Boston
Ethiopian Cafe,377 Centre,2130,Eating & Drinking,42.3224,-71.1091,Jamaica Plain
EUGENE O' NEILLS,3700 Washington,2130,Eating & Drinking,42.3005,-71.1128,Roslindale
EVA,279A Newbury,2115,Eating & Drinking,42.3493,-71.0844,Back Bay
Faccia Brutta,278 Newbury,2116,Eating & Drinking,42.3491,-71.0837,Back Bay
Fairouz Restaurant,5268 Washington,2132,Eating & Drinking,42.2593,-71.1589,Roxbury
FAJITAS & RITAS INC.,25 West,2111,Eating & Drinking,42.3548,-71.0624,Downtown Boston
Falafel King,262 Washington,2108,Eating & Drinking w/ Take Out,42.3577,-71.0578,Downtown Boston
Falafel King I I I,62 Summer,2110,Eating & Drinking,42.3543,-71.0586,Downtown Boston
Fan Fan Restaurant,15 Harvard,2136,Eating & Drinking,42.2564,-71.122,Hyde Park
FARAH'S CAFE RESTAURANT,1158 River,2136,Eating & Drinking,42.2564,-71.1203,Hyde Park
Felcaro Pizzeria,276 Cambridge,2114,Eating & Drinking,42.3609,-71.068,Beacon Hill
Fenway Cafe,61 Brookline,2215,Eating & Drinking w/ Take Out,42.3472,-71.0991,Fenway/Kenmore
Fidelity 245 Cafe,245 Summer,2210,Eating & Drinking,42.3514,-71.0539,Downtown Boston
Fidelity Beanery,245 Summer,2210,Eating & Drinking,42.3514,-71.0539,Downtown Boston
FIGARO'S BOSTON DELICATESSEN,105 Beach,2111,Eating & Drinking w/ Take Out,42.3507,-71.0583,Downtown Boston
FIG'S,42 Charles,2108,Eating & Drinking,42.3572,-71.0702,Beacon Hill
FIG'S,67 Main,2129,Eating & Drinking,42.3736,-71.0624,Charlestown
FILIPPO'S,283 Causeway,2114,Eating & Drinking,42.367,-71.0582,North End
FILL A BUSTER,130 Bowdoin,2108,Eating & Drinking w/ Take Out,42.3586,-71.0626,Beacon Hill
Finagle A Bagel,275 Cambridge,2114,Eating & Drinking w/ Take Out,42.3614,-71.0682,West End
FINAGLE-A-BAGEL,535 Boylston,2116,Eating & Drinking w/ Take Out,42.3509,-71.0756,Back Bay
FIN'S SUSHI & GRILL,240 Cambridge,2114,Eating & Drinking,42.361,-71.0669,Beacon Hill
FIN'S SUSHI & GRILL,62 Boylston,2116,Eating & Drinking,42.352,-71.0644,Downtown Boston
Fins Sushi & Grill  Inc.,354 Chestnut Hill,2135,Eating & Drinking w/ Take Out,42.3369,-71.1516,Brighton
Fiorella's Express,2 Tremont,2135,Eating & Drinking w/ Take Out,42.3506,-71.1723,Brighton
FIRE & ICE,31 Saint James,2116,Eating & Drinking,42.3511,-71.0746,Back Bay
FISHER COLLEGE,118 Beacon,2116,Eating & Drinking,42.3552,-71.0741,Back Bay
Fiskie's Cafe,27 Harbor Point,2125,Eating & Drinking,42.3189,-71.0423,Dorchester
Five Guys,1213 Commonwealth,2134,Eating & Drinking,42.3508,-71.1307,Allston
Five Guys,58 Summer,2110,Eating & Drinking,42.3544,-71.0587,Downtown Boston
Five Horses Tavern,535 Columbus,2118,Eating & Drinking,42.3419,-71.0806,South End
Five Spices House,58 Beach,2111,Eating & Drinking,42.3515,-71.0605,No Details
FLAMES RESTAURANT,1 Peabody,2124,Eating & Drinking,42.2861,-71.0637,Dorchester
FLAMES RESTAURANT,663 Morton,2126,Eating & Drinking w/ Take Out,42.2852,-71.0933,Mattapan
FLAMES RESTAURANT,746 Huntington,2116,Eating & Drinking w/ Take Out,42.3336,-71.1055,Mission Hill
Flat Black Coffee,260 Franklin,2109,Eating & Drinking,42.3569,-71.054,Downtown Boston
FLAT BLACK COFFEE CO. LTD.,1170 Washington,2124,Eating & Drinking w/ Take Out,42.2724,-71.0683,Dorchester
Flik @ Kirkland & Ellis,200 Clarendon,2116,Eating & Drinking,42.3492,-71.0751,Back Bay
Flik @ Putnam Investments,100 Federal,2110,Eating & Drinking,42.3548,-71.0561,Downtown Boston
Flik @ Re:Sources Cafe,33 Congress,2109,Eating & Drinking w/ Take Out,42.3578,-71.0569,Downtown Boston
Flik @ Skadden  Arps  Slate,500 Boylston,2116,Eating & Drinking,42.3505,-71.0739,Back Bay
Flik @ Willmer Hale Cafe,60 State,2109,Eating & Drinking w/ Take Out,42.3593,-71.0564,Downtown Boston
Flik International @ Merck & Co.,33 Avenue Louis Pasteur,2115,Eating & Drinking w/ Take Out,42.3398,-71.1033,Fenway/Kenmore
FLORENTINE CAFFE,333 Hanover,2113,Eating & Drinking,42.3643,-71.0537,North End
FLORIAN RESTAURANT,55 Hallet,2124,Eating & Drinking,42.2824,-71.0477,Dorchester
Florina Restaurant,16 Derne,2114,Eating & Drinking w/ Take Out,42.3595,-71.0634,Beacon Hill
Flour Bakery & Cafe,12 Farnsworth,2210,Eating & Drinking w/ Take Out,42.3514,-71.0488,South Boston
FLOUR BAKERY & CAFE,131 Clarendon,2116,Eating & Drinking,42.3484,-71.0738,Back Bay
FLOUR BAKERY & CAFE,1595 Washington,2114,Eating & Drinking w/ Take Out,42.3383,-71.0749,South End
Flying Embers,152 Hampden,2119,Eating & Drinking,42.3278,-71.0749,Roxbury
Fogo de Chao - Churrascaria,10 Huntington,2116,Eating & Drinking,42.3485,-71.0773,Back Bay
Fomu,477 Cambridge,2134,Eating & Drinking w/ Take Out,42.3538,-71.1373,Allston
Fomu,615 Centre,2130,Eating & Drinking w/ Take Out,42.3143,-71.1143,Jamaica Plain
Fomu Ice Cream,140 Brookline,2215,Eating & Drinking w/ Take Out,42.3449,-71.1007,Fenway/Kenmore
Food 4 Thought Cafe,145 Harrison,2118,Eating & Drinking,42.3499,-71.062,No Details
Food For The Soul,651 Warren,2121,Eating & Drinking w/ Take Out,42.3098,-71.083,Roxbury
Food Opera,81 Essex,2111,Eating & Drinking,42.3524,-71.0603,Downtown Boston
FOOD WALL CHINESE,387 Centre,2130,Eating & Drinking w/ Take Out,42.3223,-71.1096,Jamaica Plain
For Five Coffee Roasters,200 State,2109,Eating & Drinking w/ Take Out,42.36,-71.0532,No Details
Forcella,33 North,2113,Eating & Drinking,42.3635,-71.0539,North End
Ford Clubhouse,4 Jersey,2215,Eating & Drinking,42.3467,-71.0987,Fenway/Kenmore
FOREST HILLS PIZZA,3722 Washington,2130,Eating & Drinking w/ Take Out,42.3,-71.1133,Roslindale
Fort Hill Bar & Grill,2801 Washington,2119,Eating & Drinking,42.3217,-71.0922,Roxbury
Four Seasons Hotel Boston,200 Boylston,2116,Eating & Drinking,42.3522,-71.0681,No Details
Fox & The Knife,28 Broadway,2127,Eating & Drinking,42.3427,-71.0565,South Boston
Franciscan Children's Cafe,30 Warren,2134,Eating & Drinking,42.3502,-71.1446,Brighton
FRANKLIN CAFE,278 Shawmut,2118,Eating & Drinking,42.3429,-71.0689,South End
Fratello's Pizzeria & Shawarma  Inc.,563 Washington,2135,Eating & Drinking w/ Take Out,42.35,-71.1644,Brighton
Freeport Street Cafeteria,179 Freeport,2122,Eating & Drinking,42.3038,-71.0545,Dorchester
Fresh Food Generation,191 Talbot,2124,Eating & Drinking w/ Take Out,42.292,-71.0791,Mattapan
Fresh Fuel at Granby Commons,213 Bay State,2215,Eating & Drinking,42.3508,-71.1029,Fenway/Kenmore
Fresh Life Cafe @ Tuft's Medical Ctr.,750 Washington,2111,Eating & Drinking w/ Take Out,42.3501,-71.0631,No Details
Fresh Press Boston,1 Federal,2110,Eating & Drinking,42.3561,-71.057,Downtown Boston
Friendly's,100 Terminal,2128,Eating & Drinking w/ Take Out,42.3645,-71.0218,East Boston
Friendship BBQ,40 Harrison,2111,Eating & Drinking,42.3517,-71.061,No Details
Frio Rico,360 Bennington,2128,Eating & Drinking w/ Take Out,42.3798,-71.0266,East Boston
Fromage,399 Broadway,2127,Eating & Drinking,42.338,-71.0501,South Boston
Froyo World,157 Harvard,2134,Eating & Drinking w/ Take Out,42.3516,-71.1319,Allston
Fuel America,114 Western,2134,Eating & Drinking w/ Take Out,42.3632,-71.1245,Allston
Fuel America,152 Chestnut Hill,2135,Eating & Drinking,42.3415,-71.1543,Brighton
Fuji at HSP,100 High,2110,Eating & Drinking,42.3544,-71.0554,Downtown Boston
Futago Udon,512 Park,2215,Eating & Drinking,42.3478,-71.1059,Cambridge
Ga Ga Seafood Restaurant,23 Tyler,2111,Eating & Drinking,42.3507,-71.061,No Details
GALLERIA UMBERTO,287 Hanover,2113,Eating & Drinking w/ Take Out,42.3637,-71.0542,North End
Galway House,704 Centre,2140,Eating & Drinking,42.3116,-71.1142,Jamaica Plain
Garden Halal Restaurant,96 Blackstone,2109,Eating & Drinking,42.3615,-71.0564,No Details
Gelato & Chill,201 Brookline,2215,Eating & Drinking w/ Take Out,42.3446,-71.1022,Fenway/Kenmore
Genji Sushi #10087,181 Cambridge,2114,Eating & Drinking w/ Take Out,42.3621,-71.066,West End
Genki Ya of Boston,232 Tremont,2116,Eating & Drinking w/ Take Out,42.3512,-71.0646,No Details
Ghost Pepper,120 Savin Hill,2125,Eating & Drinking,42.3116,-71.0533,Dorchester
Giacomo's,431 Columbus,2116,Eating & Drinking,42.3441,-71.0778,South End
Giacomo's Ristorante,353 Hanover,2113,Eating & Drinking,42.3646,-71.0534,North End
Gillette Cafeteria,1 Gillette,2127,Eating & Drinking,42.3439,-71.0567,South Boston
Ginger Exchange,1625 Tremont,2120,Eating & Drinking,42.3339,-71.1035,Mission Hill
Ginger Exchange,250 Huntington,2115,Eating & Drinking,42.3422,-71.085,Fenway/Kenmore
Glenn's Kreme & Kone,308 Congress,2210,Eating & Drinking w/ Take Out,42.352,-71.0498,South Boston
Gogo Ya,201 Brookline,2215,Eating & Drinking w/ Take Out,42.3446,-71.1022,Fenway/Kenmore
Golden Krust Caribbean Bakery & Grill,1614 Blue Hill,2126,Eating & Drinking w/ Take Out,42.2689,-71.0934,Mattapan
Gong Cha,154 Harvard,2134,Eating & Drinking,42.3517,-71.1315,Allston
Gong Cha,270 Newbury,2116,Eating & Drinking w/ Take Out,42.3491,-71.0833,Back Bay
Gong Cha,281 Huntington,2115,Eating & Drinking,42.342,-71.0865,Fenway/Kenmore
Gong Cha,40 Harrison,2111,Eating & Drinking w/ Take Out,42.3517,-71.061,No Details
Good Eats,1002 Tremont,2120,Eating & Drinking w/ Take Out,42.3368,-71.0846,South End
Goulston & Storrs,390 Atlantic,2110,Eating & Drinking,42.3629,-71.0513,North End
Gourmet China House,55 Beach,2111,Eating & Drinking,42.3512,-71.0607,No Details
Gourmet Fish,2 Fairmount,2136,Eating & Drinking w/ Take Out,42.2558,-71.1209,Hyde Park
Grace Note Coffee,100 High,2110,Eating & Drinking w/ Take Out,42.3544,-71.0554,Downtown Boston
Gracenote Coffee,108 Lincoln,2111,Eating & Drinking w/ Take Out,42.3515,-71.0581,Downtown Boston
Grainmaker,91 Summer,2110,Eating & Drinking,42.3537,-71.0585,Downtown Boston
Granary Tavern,168 Milk,2109,Eating & Drinking,42.3587,-71.0526,Downtown Boston
GrandTen Distilling,383 Dorchester,2127,Eating & Drinking,42.3351,-71.0573,South Boston
GRASSHOPPER VEGETARIAN,1 Beacon,2134,Eating & Drinking,42.3538,-71.1375,Allston
Gre.Co,225 Newbury,2116,Eating & Drinking w/ Take Out,42.35,-71.0817,Back Bay
GREAT BARBECU INC.,15 Hudson,2111,Eating & Drinking w/ Take Out,42.3507,-71.0602,No Details
Great Chef,390 Chelsea,2128,Eating & Drinking w/ Take Out,42.3795,-71.0279,East Boston
Great Taste Bakery and Restaurant,61 Beach,2111,Eating & Drinking,42.3511,-71.0602,No Details
Great Wok,1284 Massachusetts,2125,Eating & Drinking w/ Take Out,42.321,-71.0617,Dorchester
GreCo,1 Milk,2110,Eating & Drinking,42.3568,-71.0586,Downtown Boston
Greek Pizza,1132 Blue Hill,2124,Eating & Drinking w/ Take Out,42.2855,-71.0907,Mattapan
GREEN DRAGON TAVERN,11 Marshall,2108,Eating & Drinking,42.3615,-71.0568,No Details
Green T Coffee Shop,873 South,2131,Eating & Drinking w/ Take Out,42.2889,-71.1339,Roslindale
GREENHILLS BAKERY,780 Adams,2122,Eating & Drinking w/ Take Out,42.2833,-71.0556,Dorchester
Greystone Cafe  Bakery  and Provisions,123 Appleton,2116,Eating & Drinking,42.3453,-71.0746,South End
GRILL 23 AND BAR,161 Berkeley,2116,Eating & Drinking,42.3494,-71.0719,Back Bay
GROTTO,37 Bowdoin,2114,Eating & Drinking,42.3599,-71.0631,Beacon Hill
Guira and Tambora Restaurant,4014 Washington,2131,Eating & Drinking,42.2918,-71.1222,Roslindale
Guy Fieri's Tequilla Cocina,100 Causeway,2114,Eating & Drinking,42.3652,-71.0612,West End
Gyro City,167 Chestnut Hill,2135,Eating & Drinking,42.3419,-71.1546,Brighton
Gyroscope/Sprout/Bos Hse of Pizza,305 Huntington,2115,Eating & Drinking,42.3413,-71.0873,Fenway/Kenmore
HABANERO MEXICAN GRILL  INC.,166 Brighton,2134,Eating & Drinking w/ Take Out,42.3529,-71.1328,Allston
Habibi's Lounge,1213 Commonwealth,2134,Eating & Drinking,42.3508,-71.1307,Allston
Haju Kitchen,175 Massachusetts,2115,Eating & Drinking,42.3458,-71.0874,Fenway/Kenmore
Halal Indian Cuisine,736 Huntington,2115,Eating & Drinking,42.3337,-71.1053,Mission Hill
haley henry wine bar,45 Province,2108,Eating & Drinking,42.357,-71.0602,Downtown Boston
Haley Janes,100 High,2110,Eating & Drinking w/ Take Out,42.3544,-71.0554,Downtown Boston
Hampshire House Butcher Block,84 Beacon,2108,Eating & Drinking,42.356,-71.0713,Beacon Hill
HAMPTON INN & SUITES BOSTON,811 Massachusetts,2119,Eating & Drinking,42.3323,-71.074,South End
HAN,186 Harvard,2134,Eating & Drinking,42.351,-71.1311,Allston
Happy Lemon,3193 Washington,2130,Eating & Drinking w/ Take Out,42.3128,-71.1015,Roxbury
Harbor Life Cafe,296 State,2110,Eating & Drinking w/ Take Out,42.3601,-71.0509,North End
HARBORSIDE INN OF BOSTON,185 State,2109,Eating & Drinking,42.3593,-71.0529,Downtown Boston
Harborview Cafe,250 Atlantic,2110,Eating & Drinking,42.3569,-71.0504,North End
Harp & Bard,1097 Dorchester,2125,Eating & Drinking,42.3131,-71.0574,Dorchester
Harpoon,100 Terminal,2128,Eating & Drinking,42.3645,-71.0218,East Boston
Harpoon Brewery Beer Hall,306 Northern,2210,Eating & Drinking,42.3469,-71.0342,South Boston
Hong Kong Eatery,79 Harrison,2111,Eating & Drinking,42.351,-71.0616,No Details
Harry's Bar & Grill,1430 Commonwealth,2135,Eating & Drinking,42.3492,-71.1396,Allston
HARVARD BUS./ALDRICH HALL,35 Harvard,2163,Eating & Drinking,42.3659,-71.1221,Allston
HARVARD BUS./BAKER FACULTY,25 Harvard,2163,Eating & Drinking,42.3664,-71.1228,Allston
HARVARD CLUB OF BOSTON,374 Commonwealth,2215,Eating & Drinking,42.3495,-71.0894,Back Bay
Harvard Gardens,310 Cambridge,2114,Eating & Drinking,42.3609,-71.069,Beacon Hill
Hava (basement at Wilbur Theatre),246 Tremont,2116,Eating & Drinking,42.3507,-71.0647,No Details
HEBREW REHAB CENTER,1200 Centre,2131,Eating & Drinking,42.2967,-71.1307,Roslindale
Hebrew Rehab Center 6th. Fl.,1200 Centre,2131,Eating & Drinking,42.2967,-71.1307,Roslindale
Hei La Moon Restaurant,88 Beach,2111,Eating & Drinking,42.3513,-71.0598,No Details
Heidi's House of Coffee,350 Longwood,2115,Eating & Drinking w/ Take Out,42.3391,-71.1081,Fenway/Kenmore
Hen Chicken Rice,190 High,2110,Eating & Drinking,42.3567,-71.0523,Downtown Boston
HENNESSY'S OF BOSTON,25 Union,2109,Eating & Drinking,42.361,-71.0567,No Details
HERRERA'S MEXICAN GRILL  INC.,11 Temple,2111,Eating & Drinking w/ Take Out,42.3553,-71.0625,Beacon Hill
HIDDEN KITCHEN,535 Albany,2118,Eating & Drinking,42.3384,-71.0669,South End
HIGHLAND TAP OF BOSTON INC.,2121 Washington,2119,Eating & Drinking,42.332,-71.082,Roxbury
Hills Deli,3696 Washington,2130,Eating & Drinking,42.3006,-71.1127,Roslindale
Hilton Boston Back Bay Coffee Bar,40 Dalton,2115,Eating & Drinking,42.3464,-71.0853,Fenway/Kenmore
HILTON BOSTON FINANCIAL DISTRICT,89 Broad,2110,Eating & Drinking,42.3574,-71.0532,Downtown Boston
Himayalan Bistro,1735 Centre,2132,Eating & Drinking,42.2875,-71.1497,Roxbury
Hissho Sushi & Mein Bowl,100 William T Morrissey,2125,Eating & Drinking w/ Take Out,42.3131,-71.0389,Dorchester
Hissho Sushi @ Stop & Shop,60 Everett,2134,Eating & Drinking w/ Take Out,42.3565,-71.1392,Allston
Hojoko,1271 Boylston,2215,Eating & Drinking,42.3452,-71.0968,Fenway/Kenmore
Home Run Cafe,1269 Massachusetts,2125,Eating & Drinking,42.3215,-71.0626,Dorchester
Home Stead,1448 Dorchester,2122,Eating & Drinking,42.3012,-71.0597,Dorchester
Honeycomb Cafe,107 Savin Hill,2125,Eating & Drinking w/ Take Out,42.3116,-71.054,Dorchester
Honeygrow,100 Northern,2210,Eating & Drinking,42.3529,-71.0431,South Boston
Hong Kong 888 Cafe,888 South,2132,Eating & Drinking w/ Take Out,42.2886,-71.1343,Roslindale
HONG KONG CHEF,889 Dorchester,2125,Eating & Drinking w/ Take Out,42.3201,-71.0569,Dorchester
Hong Kong Harbor,5 Maverick,2128,Eating & Drinking w/ Take Out,42.3689,-71.0393,East Boston
Hostelling International Boston,25 Stuart,2116,Eating & Drinking,42.3512,-71.0636,No Details
Hot Pot Buffet,70 Beach,2111,Eating & Drinking,42.3514,-71.0599,No Details
Hotel Aka Back Bay-Hotel,154 Berkeley,2116,Eating & Drinking,42.3492,-71.0724,Back Bay
HOUSE OF SIAM,542 Columbus,2118,Eating & Drinking,42.3414,-71.0803,South End
Howl at the Moon,184 High,2110,Eating & Drinking,42.3567,-71.0526,Downtown Boston
Hudson Coffee Terminal E Food Court,1 Harborside,2128,Eating & Drinking w/ Take Out,42.3634,-71.0257,East Boston
Humoveh,100 High,2110,Eating & Drinking w/ Take Out,42.3544,-71.0554,Downtown Boston
Hunter's,110 Dorchester,2127,Eating & Drinking,42.3351,-71.046,South Boston
Huong Que Vietnamese Restaurant,272 Adams,2122,Eating & Drinking,42.2999,-71.0584,Dorchester
HURRICANE O'REILLY'S,150 Canal,2114,Eating & Drinking,42.3648,-71.0608,West End
HYATT CONF. & HOTEL (FS),101 Harborside,2128,Eating & Drinking,42.3592,-71.0272,East Boston
Hyatt Place Boston/Seaport District,295 Northern,2210,Eating & Drinking,42.3478,-71.0372,South Boston
Hyatt Regency Boston,1 Avenue De Lafayette,2111,Eating & Drinking,42.3533,-71.0613,Downtown Boston
Ichiban Yakitori Sushi House,14 Westland,2115,Eating & Drinking,42.3432,-71.0867,Fenway/Kenmore
Icon,100 Warrenton,2116,Eating & Drinking,42.3508,-71.0662,No Details
IDEAL CAFE 'D PIZZA,482 Centre,2130,Eating & Drinking w/ Take Out,42.3186,-71.1121,Jamaica Plain
IDEAL SUB SHOP,522 Dudley,2119,Eating & Drinking w/ Take Out,42.3223,-71.0724,Roxbury
iFresh Noodle,182 Brighton,2134,Eating & Drinking,42.353,-71.1337,Allston
IL NIDO,257 North,2113,Eating & Drinking,42.3637,-71.0519,North End
Il Panino Restaurant,7 Parmenter,2113,Eating & Drinking,42.3639,-71.0548,North End
Ilmondo Pizzaria,738 Huntington,2115,Eating & Drinking w/ Take Out,42.3337,-71.1054,Mission Hill
Imperial Kitchen,50 Corinth,2131,Eating & Drinking,42.2859,-71.1291,Roslindale
In House Cafe Company,132 Chestnut Hill,2135,Eating & Drinking,42.343,-71.1533,Brighton
INBOUND PIZZA & RESTAURANT,1232 Commonwealth,2134,Eating & Drinking,42.3498,-71.131,Allston
INCHU,201 Brookline,2215,Eating & Drinking w/ Take Out,42.3446,-71.1022,Fenway/Kenmore
India Quality,484 Commonwealth,2215,Eating & Drinking w/ Take Out,42.3485,-71.0942,Fenway/Kenmore
Indian Kitchen,7 Craftsman,2134,Eating & Drinking w/ Take Out,42.3539,-71.1357,Allston
Insomnia Cookies,100 Tremont,2108,Eating & Drinking w/ Take Out,42.3572,-71.061,Downtown Boston
Insomnia Cookies,708 Commonwealth,2215,Eating & Drinking w/ Take Out,42.3495,-71.1054,Cambridge
Integrated Sciences Complex Cafe,100 William T Morrissey,2125,Eating & Drinking w/ Take Out,42.3131,-71.0389,Dorchester
Intelligentsia Coffee,225 Franklin,2110,Eating & Drinking,42.3561,-71.0541,Downtown Boston
Intercontinental Boston - Clipper Room,500 Atlantic,2210,Eating & Drinking,42.3541,-71.0523,Downtown Boston
Intercontinental Boston - Rumba Bar,500 Atlantic,2210,Eating & Drinking,42.3541,-71.0523,Downtown Boston
Invi Restaurant,761 Morton,2126,Eating & Drinking w/ Take Out,42.2835,-71.0894,Mattapan
Irashai Sushi and Teriyaki,8 Kneeland,2111,Eating & Drinking,42.351,-71.0624,No Details
IRIE JAMAICAN STYLE RESTAURANT,851 Washington,2124,Eating & Drinking w/ Take Out,42.2819,-71.0714,Dorchester
Irish Village Inc.,224 Market,2135,Eating & Drinking,42.3549,-71.1497,Brighton
IRON MOUNTAIN,1 Federal,2110,Eating & Drinking,42.3561,-71.057,Downtown Boston
Isabella Restaurant,2 Prince,2113,Eating & Drinking,42.364,-71.0536,North End
ISLAND STYLE INC.,183 Washington,2121,Eating & Drinking w/ Take Out,42.3033,-71.0788,Roxbury
Isshindou Ramen,1 Brighton,2134,Eating & Drinking w/ Take Out,42.3524,-71.1253,Allston
Itadaki,269 Newbury,2116,Eating & Drinking,42.3495,-71.0836,Back Bay
Italian Pizza & Sub Express,162 South,2130,Eating & Drinking w/ Take Out,42.3041,-71.1145,Jamaica Plain
J & J IRISH PUB & GRILLE,1130 Dorchester,2122,Eating & Drinking,42.3122,-71.0572,Dorchester
J M Curley/Bogie's Place/Wig Shop Lounge,21 Temple,2111,Eating & Drinking,42.3552,-71.0624,Downtown Boston
J P Licks @ Charles Street,144 Charles,2114,Eating & Drinking w/ Take Out,42.36,-71.071,Beacon Hill
J P Licks@Boylston St.,1106 Boylston,2215,Eating & Drinking w/ Take Out,42.3468,-71.0886,Fenway/Kenmore
J. P. SEAFOOD CAFE INC.,730 Centre,2130,Eating & Drinking,42.3108,-71.1145,Jamaica Plain
J. Pace & Son Uptown,225 Northern,2210,Eating & Drinking w/ Take Out,42.3481,-71.0393,South Boston
J.P. LICKS INC.,659 Centre,2130,Eating & Drinking w/ Take Out,42.3129,-71.1144,Jamaica Plain
Jacques,77 Broadway,2215,Eating & Drinking,42.35,-71.0674,No Details
Jade Garden Restaurant,20 Tyler,2111,Eating & Drinking,42.3507,-71.0606,No Details
Jaho Coffee & Tea,1651 Washington,2118,Eating & Drinking w/ Take Out,42.3379,-71.0754,South End
Jaho Coffee Roaster & Wine Bar,116 Huntington,2116,Eating & Drinking,42.3465,-71.0798,Back Bay
Jaho Coffee Roaster & Wine Bar,659 Washington,2116,Eating & Drinking w/ Take Out,42.3518,-71.0632,Downtown Boston
JAK Pizzeria,50 Maverick,2128,Eating & Drinking,42.3702,-71.0387,East Boston
Jamaica Mi Hungry,182 Western,2134,Eating & Drinking w/ Take Out,42.363,-71.1294,Allston
Java House,541 Broadway,2127,Eating & Drinking w/ Take Out,42.3353,-71.0424,South Boston
JEANIE JOHNSTON PUB,144 South,2130,Eating & Drinking,42.3051,-71.1144,Jamaica Plain
Jersey Mikes Subs,462 Washington,2135,Eating & Drinking w/ Take Out,42.3487,-71.159,Brighton
Jibei Chuan,50 Beach,2111,Eating & Drinking,42.3515,-71.0607,No Details
Jillian's Billiard Club,145 Ipswich,2215,Eating & Drinking,42.3474,-71.0944,Fenway/Kenmore
Jim's Restaurant and Deli,371 Washington,2135,Eating & Drinking w/ Take Out,42.3493,-71.1541,Brighton
JOE'S AMERICAN BAR & GRILL,100 Atlantic,2111,Eating & Drinking,42.362,-71.0507,North End
JOE'S AMERICAN BAR & GRILL,26 Exeter,2116,Eating & Drinking,42.3506,-71.0797,Back Bay
Joe's Famous Subs & Pizza,140 Dudley,2119,Eating & Drinking w/ Take Out,42.329,-71.0837,Roxbury
JOHN B. HYNES VET. MEM. CTR.,880 Boylston,2199,Eating & Drinking,42.3475,-71.0841,Back Bay
JOHNNY'S PIZZA & SUBS,1917 Dorchester,2124,Eating & Drinking w/ Take Out,42.2852,-71.0646,Dorchester
Jones Day 21st Floor,100 High,2110,Eating & Drinking,42.3544,-71.0554,Downtown Boston
Jongro BBQ,1414 Commonwealth,2134,Eating & Drinking,42.3485,-71.1391,Allston
Jonquils Cafe,125 Newbury,2116,Eating & Drinking w/ Take Out,42.3514,-71.0766,Back Bay
Jook Sing Cafe,177 Harrison,2111,Eating & Drinking w/ Take Out,42.3492,-71.0623,No Details
Joseph's Pizza & Sub Shop,1200 Blue Hill,2126,Eating & Drinking w/ Take Out,42.2834,-71.0914,Mattapan
Joseph's Pizzeria,8 Huntington,2130,Eating & Drinking,42.3318,-71.1117,Mission Hill
JP Kitchen,3510 Washington,2130,Eating & Drinking,42.3058,-71.1078,Jamaica Plain
JP LICKS,173 Newbury,2116,Eating & Drinking w/ Take Out,42.3507,-71.0792,Back Bay
JP LICKS @ BRIGHAM CIRCLE,1618 Tremont,2120,Eating & Drinking w/ Take Out,42.3334,-71.1044,Mission Hill
JP Licks @ West Broadway,397 Broadway,2127,Eating & Drinking w/ Take Out,42.3371,-71.0486,South Boston
J-Pizzle Kitchen,536 Centre,2130,Eating & Drinking,42.3169,-71.1133,Jamaica Plain
J'S CAFE @BOS. W & S,980 Harrison,2119,Eating & Drinking,42.3307,-71.0793,Roxbury
Jugos,502 Massachusetts,2118,Eating & Drinking,42.3393,-71.08,South End
Jugos Juice Boston @ MBTA,145 Dartmouth,2116,Eating & Drinking w/ Take Out,42.3474,-71.0748,South End
Juice Press,131 Dartmouth,2116,Eating & Drinking w/ Take Out,42.3468,-71.0754,South End
Juicy Greens,61 South,2130,Eating & Drinking,42.3077,-71.1158,Jamaica Plain
Just Thai,1512 Dorchester,2122,Eating & Drinking,42.2991,-71.0603,Dorchester
Kaju Tofu House,56 Harvard,2134,Eating & Drinking,42.3543,-71.1322,Allston
KALIHARI GRILL,1 Circuit,2119,Eating & Drinking w/ Take Out,42.3232,-71.0864,Roxbury
KANTIN,1 Brighton,2134,Eating & Drinking w/ Take Out,42.3524,-71.1253,Allston
KAO BBQ,75 Harvard,2134,Eating & Drinking,42.3536,-71.1324,Allston
Kapow,2257 Dorchester,2124,Eating & Drinking w/ Take Out,42.2734,-71.0679,Dorchester
Kava Neo Taverna,315 Shawmut,2118,Eating & Drinking,42.3423,-71.0705,South End
Kaze Shabu Shabu,41 Essex,2111,Eating & Drinking,42.3524,-71.0616,Downtown Boston
Kelleher's Bar and Grille,1410 Centre,2131,Eating & Drinking,42.2939,-71.1362,Roslindale
KELLEY'S SQ. PUB,84 Bennington,2128,Eating & Drinking w/ Take Out,42.3762,-71.0356,East Boston
Kentucky Fried Chicken,465 Washington,2124,Eating & Drinking w/ Take Out,42.2951,-71.0723,Dorchester
Kentucky Fried Chicken,5318 Washington,2132,Eating & Drinking w/ Take Out,42.2579,-71.1608,Roxbury
Kentucky Fried Chicken,625 American Legion,2131,Eating & Drinking w/ Take Out,42.2856,-71.1109,Roslindale
Kentucky Fried Chicken,695 Columbia,2125,Eating & Drinking w/ Take Out,42.32,-71.0618,Dorchester
KFC,30 Beacon,2134,Eating & Drinking w/ Take Out,42.3536,-71.1389,Allston
Khadija's  Express Cafe,1127 Harrison,2119,Eating & Drinking,42.3304,-71.082,Roxbury
Kimchipapi Korndogs & Pon de Joy,1 Brighton,2134,Eating & Drinking w/ Take Out,42.3524,-71.1253,Allston
KING AND I CORP.,145 Charles,2114,Eating & Drinking,42.3604,-71.0706,Beacon Hill
King Do,1225 Dorchester,2125,Eating & Drinking,42.309,-71.0584,Dorchester
KING'S LANE LOUNGE & BILLIARDS,50 Dalton,2115,Eating & Drinking,42.3471,-71.0856,Fenway/Kenmore
Kneeland Cafe,75 Kneeland,2111,Eating & Drinking,42.3502,-71.0606,No Details
Kohi Coffee Company,100 Guest,2135,Eating & Drinking,42.3574,-71.1447,Brighton
Kohi Coffee Company,40 Berkeley,2116,Eating & Drinking w/ Take Out,42.3459,-71.0709,South End
Koko Coffee,255 State,2109,Eating & Drinking w/ Take Out,42.3594,-71.0511,North End
Korean Garden Restaurant,122 Harvard,2134,Eating & Drinking,42.3524,-71.1317,Allston
Krasi,48 Gloucester,2115,Eating & Drinking,42.3487,-71.0841,Back Bay
Kuizinn Lakay Plus,1672 Blue Hill,2126,Eating & Drinking,42.2676,-71.0933,Mattapan
Kung Fu Tea,1 Brighton,2134,Eating & Drinking w/ Take Out,42.3524,-71.1253,Allston
Kung Fu Tea,125 Harvard,2134,Eating & Drinking w/ Take Out,42.3522,-71.1321,Allston
Kung Fu Tea @ Mass. Ave.,334 Massachusetts,2115,Eating & Drinking w/ Take Out,42.3426,-71.0842,Back Bay
Kured,83 Charles,2114,Eating & Drinking w/ Take Out,42.3585,-71.0705,Beacon Hill
Kutzu,100 High,2110,Eating & Drinking w/ Take Out,42.3544,-71.0554,Downtown Boston
L STREET DINER,108 L,2127,Eating & Drinking w/ Take Out,42.3341,-71.0351,South Boston
L STREET TAVERN,195 L,2127,Eating & Drinking,42.3316,-71.035,South Boston
L.A. Burdick Chocolate,224 Clarendon,2116,Eating & Drinking w/ Take Out,42.3512,-71.0757,Back Bay
La Be Fana Pizzeria,15 Beacon,2134,Eating & Drinking w/ Take Out,42.3543,-71.1376,Allston
La Cancun,190H Sumner,2128,Eating & Drinking w/ Take Out,42.3693,-71.0401,East Boston
La Casa del Pan Debono,271 Meridian,2128,Eating & Drinking,42.3763,-71.039,East Boston
LA CHIVA RESTAURANT,259 Bennington,2128,Eating & Drinking w/ Take Out,42.3783,-71.0295,East Boston
La Esquina Restaurant,624 Blue Hill,2121,Eating & Drinking w/ Take Out,42.3029,-71.085,Roxbury
LA FAMIGLIA RISTORANTE,112 Salem,2113,Eating & Drinking,42.3646,-71.0557,North End
La Familia Kitchen,224 Columbia,2121,Eating & Drinking w/ Take Out,42.3075,-71.0764,Roxbury
La Fonda Colombiana,972 Saratoga,2128,Eating & Drinking,42.3871,-71.0076,East Boston
La Gran Manzana,22 William C Kelly,2128,Eating & Drinking,42.3752,-71.0386,East Boston
La La Restaurant,792 Washington,2124,Eating & Drinking w/ Take Out,42.2838,-71.0713,Dorchester
La Lechonera Restaurant,342 Cummins,2131,Eating & Drinking w/ Take Out,42.2788,-71.116,Roslindale
La Mamma Pizza And More,190 Brighton,2134,Eating & Drinking w/ Take Out,42.353,-71.1339,Allston
La Neta,255 Newbury,2116,Eating & Drinking,42.3497,-71.0831,Back Bay
La Parrilla,299 Hancock,2125,Eating & Drinking w/ Take Out,42.3081,-71.0588,Dorchester
LA REINA,80 Bennington,2128,Eating & Drinking w/ Take Out,42.3761,-71.0361,East Boston
La Saison Bakery,401 Park,2215,Eating & Drinking w/ Take Out,42.3445,-71.1028,Fenway/Kenmore
LA SUMMA,26 Fleet,2113,Eating & Drinking,42.3646,-71.0525,North End
LA TERRAZA RESTAURANT,19 Bennington,2128,Eating & Drinking,42.3751,-71.038,East Boston
La Voile Brasserie,257 Newbury,2116,Eating & Drinking,42.3497,-71.0831,Back Bay
LaColombe Torrefaction Inc.,745 Atlantic,2111,Eating & Drinking,42.3503,-71.0571,Downtown Boston
Land of Fire Pizzeria,1696 Commonwealth,2135,Eating & Drinking w/ Take Out,42.3412,-71.1465,Brighton
Land of Pizza,445 Broadway,2127,Eating & Drinking w/ Take Out,42.336,-71.0469,South Boston
Lani's Pizza,1288 Blue Hill,2126,Eating & Drinking w/ Take Out,42.2798,-71.0926,Mattapan
Lanta Asian Cuisine,38 Batterymarch,2110,Eating & Drinking w/ Take Out,42.3576,-71.0539,Downtown Boston
LATINO RESTAURANT,302 Centre,2130,Eating & Drinking,42.3227,-71.1033,Jamaica Plain
Laugh Boston,425 Summer,2210,Eating & Drinking,42.3462,-71.0431,South Boston
Laughing Monk Cafe,737 Huntington,2115,Eating & Drinking,42.3341,-71.1055,Mission Hill
Lavietes Pavillion,65 Harvard,2134,Eating & Drinking w/ Take Out,42.3676,-71.1259,Allston
LC1/Pizza/LB2,4 Jersey,2215,Eating & Drinking w/ Take Out,42.3467,-71.0987,Fenway/Kenmore
LC2/LY1,4 Jersey,2215,Eating & Drinking w/ Take Out,42.3467,-71.0987,Fenway/Kenmore
LC4,4 Jersey,2215,Eating & Drinking w/ Take Out,42.3467,-71.0987,Fenway/Kenmore
Left Field Inseat,4 Jersey,2215,Eating & Drinking w/ Take Out,42.3467,-71.0987,Fenway/Kenmore
Left Field Pantry,4 Jersey,2215,Eating & Drinking w/ Take Out,42.3467,-71.0987,Fenway/Kenmore
Legacy Boston/Candibar,275 Tremont,2116,Eating & Drinking,42.35,-71.0655,No Details
Legal Sea Foods,100 Huntington,2116,Eating & Drinking,42.3472,-71.0782,Back Bay
Legal Sea Foods,255 State,2109,Eating & Drinking,42.3594,-71.0511,North End
Legal's Test Kitchen,100 Terminal,2128,Eating & Drinking,42.3645,-71.0218,East Boston
Legends Bar & Grill,525 William F McClellan,2128,Eating & Drinking,42.3952,-71.0001,East Boston
Lenox Hotel (5 Food Serv. Loc.),704 Boylston,2116,Eating & Drinking,42.3493,-71.0796,Back Bay
Lenox Sophia,87 A,2127,Eating & Drinking,42.3424,-71.0546,South Boston
Levi's Restaurant & Lounge,323 Washington,2121,Eating & Drinking,42.2998,-71.0745,Dorchester
Levy Premium Food Court 1,415 Summer,2210,Eating & Drinking w/ Take Out,42.3444,-71.0448,South Boston
Levy Premium Food Court 2,415 Summer,2210,Eating & Drinking w/ Take Out,42.3444,-71.0448,South Boston
Levy Premium Food Court 3,415 Summer,2210,Eating & Drinking w/ Take Out,42.3444,-71.0448,South Boston
Levy Premium Food Court 4,415 Summer,2210,Eating & Drinking w/ Take Out,42.3444,-71.0448,South Boston
Levy Premium Food Court 5,415 Summer,2210,Eating & Drinking w/ Take Out,42.3444,-71.0448,South Boston
Levy Premium Main Kitchen & Commissary,415 Summer,2210,Eating & Drinking,42.3444,-71.0448,South Boston
LFV,4 Jersey,2215,Eating & Drinking w/ Take Out,42.3467,-71.0987,Fenway/Kenmore
LICKS CAFE,1140 Boylston,2115,Eating & Drinking w/ Take Out,42.3467,-71.089,Fenway/Kenmore
Life Alive,431 Boylston,2116,Eating & Drinking,42.3516,-71.0728,Back Bay
Life Alive Cafe,505 Tremont,2116,Eating & Drinking,42.345,-71.0704,South End
Lilly Gourmet Pasta Express,1526 Tremont,2120,Eating & Drinking w/ Take Out,42.3323,-71.1,Mission Hill
Lily's Coffee & Cafe,33 Arch,2110,Eating & Drinking,42.3562,-71.058,Downtown Boston
Lily's Pizza,2 Oliver,2109,Eating & Drinking w/ Take Out,42.3573,-71.0546,Downtown Boston
Lime Red Tea House,1092 Commonwealth,2215,Eating & Drinking,42.3517,-71.1243,Allston
Limelight Stage & Studios,60 Boylston,2116,Eating & Drinking,42.352,-71.0644,Downtown Boston
LIMONCELLO,190 North,2113,Eating & Drinking,42.3634,-71.054,North End
Lincoln Tavern,425 Broadway,2127,Eating & Drinking,42.3364,-71.0476,South Boston
Liq 4,4 Jersey,2215,Eating & Drinking w/ Take Out,42.3467,-71.0987,Fenway/Kenmore
LITTLE ASIA RESTAURANT,991 Bennington,2128,Eating & Drinking,42.3864,-71.007,East Boston
Little Caesars,628 American Legion,2131,Eating & Drinking w/ Take Out,42.2846,-71.1102,Roslindale
Little Haiti International Cusine,1184 Hyde Park,2136,Eating & Drinking,42.2585,-71.1238,Hyde Park
Little Pecan,290 Washington,2135,Eating & Drinking,42.3488,-71.1509,Brighton
Little Pizza King,389 Washington,2135,Eating & Drinking w/ Take Out,42.3493,-71.1548,Brighton
Little Tao,1153 Commonwealth,2134,Eating & Drinking w/ Take Out,42.3509,-71.1276,Allston
Little Whale Oyster Bar,314 Newbury,2115,Eating & Drinking,42.3486,-71.0853,Back Bay
Liuyishon Hotpot Boston,702 Washington,2111,Eating & Drinking,42.351,-71.0627,No Details
Lobstah On A Roll,254 Newbury,2116,Eating & Drinking,42.3493,-71.0827,Back Bay
Lobstah On A Roll,537 Columbus,2118,Eating & Drinking w/ Take Out,42.3417,-71.0808,South End
Local 149,143 P,2127,Eating & Drinking,42.3334,-71.0273,South Boston
Locale,350 Hanover,2113,Eating & Drinking,42.3651,-71.0534,North End
Loco Taqueria & Oyster Bar,412 Broadway,2127,Eating & Drinking,42.337,-71.0477,South Boston
LOCONTES RESTAURANT,116 Salem,2113,Eating & Drinking,42.3647,-71.0557,North End
Lolita Cocina & Tequila Bar,253 Summer,2127,Eating & Drinking,42.3502,-71.0513,South Boston
Lolita Cocina & Tequila Bar,265 Dartmouth,2116,Eating & Drinking,42.3507,-71.0773,Back Bay
Lone Star Taco Bar,465 Cambridge,2134,Eating & Drinking,42.3541,-71.1366,Allston
LONGWOOD HOTEL CORP.,342 Longwood,2115,Eating & Drinking,42.3382,-71.1066,Fenway/Kenmore
Lorettas Last Call,1 Lansdowne,2215,Eating & Drinking w/ Take Out,42.3473,-71.0945,Fenway/Kenmore
Los Amigos,366 Washington,2135,Eating & Drinking,42.349,-71.1537,Brighton
Los Amigos Mexican Grill,1741 Centre,2132,Eating & Drinking w/ Take Out,42.2875,-71.1502,Roxbury
Los Antojitos Latin Restaurant,5272 Washington,2132,Eating & Drinking w/ Take Out,42.2592,-71.1592,Roxbury
LOS ARRIEROS REST,13 Meridian,2128,Eating & Drinking,42.3706,-71.0388,East Boston
Los Hermanos Restaurant,604 Blue Hill,2121,Eating & Drinking,42.3037,-71.0847,Roxbury
L'OSTERIA RESTAURANT,104 Salem,2113,Eating & Drinking,42.3643,-71.0556,North End
Lotus Test Kitchen,2 Avenue De Lafayette,2111,Eating & Drinking w/ Take Out,42.354,-71.0611,Downtown Boston
Love Art Poke,40 Water,2109,Eating & Drinking,42.3577,-71.0568,Downtown Boston
Lower Mills Tavern,2269 Dorchester,2124,Eating & Drinking,42.273,-71.068,Dorchester
Lu Fu Zi,145 Brighton,2134,Eating & Drinking w/ Take Out,42.3532,-71.1317,Allston
Lucca North End,226 Hanover,2113,Eating & Drinking,42.3632,-71.0554,North End
Lucia Ristorante,415 Hanover,2113,Eating & Drinking,42.3656,-71.0527,North End
LUCKY BOSTON CHINESE REST.,3096 Washington,2119,Eating & Drinking w/ Take Out,42.3151,-71.0988,Roxbury
LUCKY CAFE,1107 Dorchester,2125,Eating & Drinking w/ Take Out,42.3127,-71.0575,Dorchester
LUCKY'S,355 Congress,2210,Eating & Drinking,42.3501,-71.0485,South Boston
Lucy Ethopian Cafe,334 Massachusetts,2115,Eating & Drinking,42.3426,-71.0842,Back Bay
Lulu Green Cafe  Bakery and Juice Bar,246 Broadway,2127,Eating & Drinking w/ Take Out,42.3396,-71.0517,South Boston
LULUS' ALLSTON,417 Cambridge,2134,Eating & Drinking,42.3551,-71.1341,Allston
Luna's,945 Saratoga,2128,Eating & Drinking,42.3866,-71.0092,East Boston
LY4/LB4,4 Jersey,2215,Eating & Drinking w/ Take Out,42.3467,-71.0987,Fenway/Kenmore
M Club,110 Huntington,2116,Eating & Drinking,42.3471,-71.0784,Back Bay
M.J. O'CONNOR'S,27 Columbus,2116,Eating & Drinking,42.3511,-71.0689,Back Bay
Ma La Restaurant,129 Brighton,2134,Eating & Drinking,42.3531,-71.1311,Allston
Ma Maison,272 Cambridge,2114,Eating & Drinking,42.361,-71.0679,Beacon Hill
Mala Kungfu,155 Brighton,2134,Eating & Drinking,42.3532,-71.1319,Allston
Mamacita,329 Huntington,2115,Eating & Drinking,42.3409,-71.0882,Fenway/Kenmore
Mamaleh's Delicatessan,100 High,2110,Eating & Drinking w/ Take Out,42.3544,-71.0554,Downtown Boston
Mama's Place,764A Huntington,2115,Eating & Drinking w/ Take Out,42.3333,-71.106,Mission Hill
Mana Escondido Cafe,68 Pembroke,2118,Eating & Drinking w/ Take Out,42.3427,-71.0769,South End
Mangu Dominican Bistro,264 Hyde Park,2130,Eating & Drinking,42.2925,-71.1175,Roslindale
MARE,3 Mechanic,2113,Eating & Drinking,42.3629,-71.0551,North End
Maria's Kitchen,1819 Centre,2132,Eating & Drinking,42.2871,-71.1536,Roxbury
Maria's Taqueria,226 Tremont,2116,Eating & Drinking,42.3514,-71.0646,No Details
Mariel,10 Post Office,2109,Eating & Drinking,42.3575,-71.056,Downtown Boston
Market Cafe,39 Dalton,2116,Eating & Drinking,42.3466,-71.0838,Fenway/Kenmore
Marketplace Cafe & Take Away,240 Mount Vernon,2125,Eating & Drinking,42.319,-71.045,Dorchester
Maryann's Breakfast & Lunch,223 Grove,2132,Eating & Drinking w/ Take Out,42.2619,-71.1574,Roxbury
MASS ART DINING COMMONS,625 Huntington,2115,Eating & Drinking,42.3367,-71.0995,Mission Hill
Mass Bay Lines/Freedom,60 Rowes,2110,Eating & Drinking,42.3565,-71.0503,North End
MASS EYE AND EAR INFIRMARY,243 Charles,2114,Eating & Drinking,42.3627,-71.0701,West End
Mass Gen. Hosp./Tea Leaves & Coffee Beans,55 Fruit,2114,Eating & Drinking w/ Take Out,42.3626,-71.0701,West End
Mass General Hospital Cafe,55 Fruit,2114,Eating & Drinking,42.3626,-71.0701,West End
Massachusetts Eye & Ear EyeOpener Cafe,800 Huntington,2115,Eating & Drinking w/ Take Out,42.333,-71.1075,Mission Hill
Massachusetts Eye & Ear Infirmary Eye Opener Cafe,243 Charles,2114,Eating & Drinking w/ Take Out,42.3628,-71.0703,West End
MassArt Eat Cafe,625 Huntington,2115,Eating & Drinking,42.3367,-71.0995,Mission Hill
MassArt Starbucks,625 Huntington,2115,Eating & Drinking w/ Take Out,42.3367,-71.0995,Mission Hill
Massiminos Cucina,207 Endicott,2113,Eating & Drinking,42.3666,-71.0579,North End
Mast' Restaurant,45 Province,2108,Eating & Drinking,42.357,-71.0602,Downtown Boston
MASTER WOK,650 Atlantic,2110,Eating & Drinking w/ Take Out,42.3519,-71.0554,Downtown Boston
Mattapan House of Pizza,1621 Blue Hill,2126,Eating & Drinking w/ Take Out,42.2685,-71.0941,Mattapan
MATTHEWS ARENA CONCESSION,238 Saint Botolph,2115,Eating & Drinking,42.3413,-71.0845,Fenway/Kenmore
Maverick House Tavern,154 Maverick,2128,Eating & Drinking w/ Take Out,42.3699,-71.0379,East Boston
Mc Goo's Pizza,479 Broadway,2127,Eating & Drinking w/ Take Out,42.3355,-71.046,South Boston
Mcdonalds,1223 Commonwealth,2135,Eating & Drinking w/ Take Out,42.3507,-71.131,Allston
Mcdonalds,1312 Hyde Park,2136,Eating & Drinking w/ Take Out,42.2537,-71.1243,Hyde Park
Mcdonalds,1650 VFW,2132,Eating & Drinking w/ Take Out,42.2644,-71.1678,Roxbury
Mcdonalds,1750 Soldiers Field,2135,Eating & Drinking w/ Take Out,42.3586,-71.1549,Brighton
Mcdonalds,301 Warren,2119,Eating & Drinking w/ Take Out,42.3203,-71.0822,Roxbury
Mcdonalds,3064 Washington,2119,Eating & Drinking w/ Take Out,42.3156,-71.0979,Roxbury
Mcdonalds,315 Washington,2108,Eating & Drinking w/ Take Out,42.3571,-71.0592,Downtown Boston
Mcdonalds,360 Western,2135,Eating & Drinking w/ Take Out,42.3609,-71.1375,Brighton
Mcdonalds,511 Gallivan,2124,Eating & Drinking w/ Take Out,42.2823,-71.0551,Dorchester
Mcdonalds,540 Commonwealth,2215,Eating & Drinking w/ Take Out,42.3485,-71.0967,Fenway/Kenmore
Mcdonalds,870 Massachusetts,2119,Eating & Drinking w/ Take Out,42.3315,-71.0704,Dorchester
McDonald's,178 Border,2128,Eating & Drinking w/ Take Out,42.3745,-71.0403,East Boston
McDonald's,340 Longwood,2115,Eating & Drinking w/ Take Out,42.3383,-71.107,Fenway/Kenmore
McDonald's,607 Washington,2124,Eating & Drinking w/ Take Out,42.2904,-71.0719,Dorchester
McDonald's,718 American Legion,2131,Eating & Drinking w/ Take Out,42.2828,-71.1131,Roslindale
McDonald's,750 Atlantic,2111,Eating & Drinking w/ Take Out,42.3501,-71.0561,Downtown Boston
MCKENNA'S CAFE,109 Savin Hill,2125,Eating & Drinking,42.3115,-71.0538,Dorchester
MCPHS Univ Eat Cafe Express,179 Longwood,2115,Eating & Drinking w/ Take Out,42.3369,-71.1011,Fenway/Kenmore
MDM Noodle,351 Washington,2135,Eating & Drinking,42.3493,-71.1528,Brighton
Medallo,411 Chelsea,2128,Eating & Drinking,42.3799,-71.0268,East Boston
Media,4 Jersey,2215,Eating & Drinking,42.3467,-71.0987,Fenway/Kenmore
Meet Fresh,130 Brighton,2134,Eating & Drinking,42.3528,-71.1319,Allston
Megumi of Japan,200 Faneuil Hall Marketplace,2109,Eating & Drinking w/ Take Out,42.3602,-71.0548,No Details
Mei Mei Restaurant,506 Park,2215,Eating & Drinking,42.3477,-71.1058,Cambridge
MELA RESTAURANT,574 Tremont,2118,Eating & Drinking,42.3433,-71.0724,South End
Mello Vibez Restaurant,473 River,2126,Eating & Drinking w/ Take Out,42.2682,-71.093,Mattapan
Menton,348 Congress,2210,Eating & Drinking,42.3507,-71.0485,South Boston
MERENGUE RESTAURANT,156 Blue Hill,2119,Eating & Drinking,42.3192,-71.0775,Roxbury
METRO SUBWAY,31 Saint James,2116,Eating & Drinking w/ Take Out,42.3511,-71.0746,Back Bay
METRO SUBWAY INC.,417 Washington,2108,Eating & Drinking w/ Take Out,42.3558,-71.0604,Downtown Boston
METROPOLIS CAFE,574 Tremont,2118,Eating & Drinking,42.3433,-71.0725,South End
Mi Finca Mexican Food,4249 Washington,2131,Eating & Drinking w/ Take Out,42.2857,-71.1292,Roslindale
Mi Pueblito Orient Heights,964 Saratoga,2128,Eating & Drinking w/ Take Out,42.3872,-71.0086,East Boston
Mi Pueblito Restaurant,333 Border,2128,Eating & Drinking,42.379,-71.0399,East Boston
MI RANCHO RESTAURANT,45 Meridian,2128,Eating & Drinking,42.3715,-71.0388,East Boston
MIAMI RESTAURANT,381 Centre,2130,Eating & Drinking,42.3223,-71.1093,Jamaica Plain
Michael Schlow Italian Kitchen,201 Brookline,2215,Eating & Drinking w/ Take Out,42.3446,-71.1022,Fenway/Kenmore
Midway Cafe,3496 Washington,2130,Eating & Drinking,42.3062,-71.1075,Jamaica Plain
Miel Brasserie,500 Atlantic,2210,Eating & Drinking,42.3541,-71.0523,Downtown Boston
Mija Cantina & Tequila Bar,1 Harborside,2128,Eating & Drinking,42.3634,-71.0257,East Boston
Mike & Patty's,100 High,2110,Eating & Drinking w/ Take Out,42.3544,-71.0554,Downtown Boston
Mike & Patty's,388 Centre,2130,Eating & Drinking,42.3217,-71.1096,Jamaica Plain
Mike and Patty's,12 Church,2116,Eating & Drinking w/ Take Out,42.3485,-71.0679,No Details
MIKE'S CITY DINER,1714 Washington,2118,Eating & Drinking,42.3369,-71.076,South End
MIKE'S PASTRY INC.,298 Hanover,2113,Eating & Drinking w/ Take Out,42.3642,-71.0543,North End
MILANO'S DELI,978 Saratoga,2128,Eating & Drinking,42.387,-71.0074,East Boston
MILK ST CAFE,50 Milk,2109,Eating & Drinking,42.357,-71.0576,Downtown Boston
Minina's Cafe,430 Geneva,2122,Eating & Drinking w/ Take Out,42.3006,-71.0664,Dorchester
MISONO RESTAURANT,669 VFW,2467,Eating & Drinking w/ Take Out,42.2966,-71.155,Roxbury
MISSION BAR & GRILL,724 Huntington,2115,Eating & Drinking,42.3338,-71.105,Mission Hill
Mister Q Cafe,283 Main,2129,Eating & Drinking,42.3776,-71.0668,Charlestown
Miyuki Sushi,547 Washington,2135,Eating & Drinking,42.3495,-71.1638,Brighton
Modern Pastry Shop I I,261 Hanover,2113,Eating & Drinking w/ Take Out,42.3633,-71.0547,North End
Modern Relik,485 Harrison,2118,Eating & Drinking,42.3419,-71.0667,South End
Moge Tee,164 Brighton,2134,Eating & Drinking w/ Take Out,42.3529,-71.1328,Allston
Molly's Beachside,165 William J Day,2127,Eating & Drinking w/ Take Out,42.3301,-71.0322,South Boston
MONICA'S RESTAURANT,143 Richmond,2113,Eating & Drinking,42.3634,-71.0543,North End
MONTIEN RESTAURANT,63 Stuart,2116,Eating & Drinking,42.3513,-71.0643,No Details
Monumental Market,34 South,2130,Eating & Drinking w/ Take Out,42.3084,-71.1154,Jamaica Plain
MOOGY'S SANDWICH SHOP INC.,154 Chestnut Hill,2135,Eating & Drinking,42.3416,-71.1543,Brighton
Moon & Flower House,110 Brighton,2134,Eating & Drinking,42.3526,-71.1304,Allston
Moon Flower House,20 Kneeland,2111,Eating & Drinking w/ Take Out,42.3509,-71.0621,No Details
Mooncusser Fish House & Moon Bar,129 Columbus,2116,Eating & Drinking,42.3498,-71.0706,Back Bay
Mooo Seaport,49 Melcher,2127,Eating & Drinking,42.3494,-71.0504,South Boston
Mooo...,15 Beacon,2108,Eating & Drinking,42.3584,-71.062,Beacon Hill
MOOYAH,140 Tremont,2111,Eating & Drinking,42.3556,-71.0626,Beacon Hill
MORGAN HALL COFFEE CART,117 Western,2135,Eating & Drinking w/ Take Out,42.3652,-71.1222,Allston
Morgan Lewis & Bockius LLP,1 Federal,2110,Eating & Drinking,42.3561,-71.057,Downtown Boston
Morton's of Chicago,2 Seaport,2210,Eating & Drinking,42.3489,-71.0408,South Boston
MOTHER ANNA'S,211 Hanover,2113,Eating & Drinking,42.3627,-71.0553,North End
Mother Juice,100 High,2110,Eating & Drinking w/ Take Out,42.3544,-71.0554,Downtown Boston
Mother Juice Inc.,291 Newbury,2115,Eating & Drinking w/ Take Out,42.3491,-71.085,Back Bay
Mr Tea,266 Newbury,2116,Eating & Drinking w/ Take Out,42.3492,-71.0832,Back Bay
MR. DOOLEYS BOSTON TAVERN,77 Broad,2109,Eating & Drinking,42.3576,-71.0536,Downtown Boston
Ms. Clucks Deluxe Chicken & Dumplings,201 Brookline,2215,Eating & Drinking w/ Take Out,42.3446,-71.1022,Fenway/Kenmore
Mt. Olympic Pizza,187 Wolcott,2136,Eating & Drinking w/ Take Out,42.2371,-71.1323,Hyde Park
Mud House,389 Neponset,2122,Eating & Drinking,42.2865,-71.0447,Dorchester
MURPHY'S LAW,837 Summer,2127,Eating & Drinking,42.338,-71.0357,South Boston
Museum of Fine Arts Cafeteria,465 Huntington,2115,Eating & Drinking,42.3393,-71.094,Fenway/Kenmore
Museum of Fine Arts New American Cafe,465 Huntington,2115,Eating & Drinking,42.3393,-71.094,Fenway/Kenmore
Museum of Fine Arts-Taste D/B/A #19285,465 Huntington,2115,Eating & Drinking,42.332,-71.1016,Mission Hill
Museum of Science,10 Charles River,2114,Eating & Drinking,42.367,-71.0703,West End
My Happy Hunan Kitchen,1924 Beacon,2135,Eating & Drinking,42.3365,-71.1496,Brighton
My Sister Crawfish Restaurant III,1487 Dorchester,2122,Eating & Drinking,42.2999,-71.0604,Dorchester
My Thai Cafe Vegetarian & Bubble Tea Bristro,3 Beach,2111,Eating & Drinking,42.3514,-71.0626,No Details
Myers & Chang,1143 Washington,2118,Eating & Drinking,42.3438,-71.0663,South End
Myung Dong 1st Ave,90 Harvard,2134,Eating & Drinking,42.3532,-71.1319,Allston
N.U. Stetson Hall East,11 Speare,2115,Eating & Drinking,42.341,-71.0902,Fenway/Kenmore
N.U. Stetson Hall West,11 Speare,2115,Eating & Drinking,42.341,-71.0902,Fenway/Kenmore
Nachlo,1443 Tremont,2119,Eating & Drinking w/ Take Out,42.332,-71.0967,Mission Hill
Nagomi,636 Beacon,2215,Eating & Drinking,42.3496,-71.0952,Cambridge
Napoles,1233 Bennington,2128,Eating & Drinking,42.3899,-70.9967,East Boston
Napper Tandys,4187 Washington,2131,Eating & Drinking,42.2874,-71.1274,Roslindale
Nashville Grill,253 Tremont,2116,Eating & Drinking,42.3504,-71.0653,No Details
Natalie's Pizza,1306 Commonwealth,2134,Eating & Drinking w/ Take Out,42.3484,-71.134,Allston
Nathalie Wine Bar,186 Brookline,2215,Eating & Drinking,42.3438,-71.1017,Fenway/Kenmore
Natif Natal Restaurant,830 Blue Hill,2124,Eating & Drinking,42.2962,-71.0872,Roxbury
Nebo Ristorante/Enoteca,520 Atlantic,2110,Eating & Drinking,42.3533,-71.0529,Downtown Boston
NEPTUNE RESTAURANT,63 Salem,2113,Eating & Drinking,42.3632,-71.0559,North End
New England Center For Arts & Technology,23 Bradston,2118,Eating & Drinking,42.3331,-71.0706,Dorchester
New England Wichcraft Co.,54 Salem,2113,Eating & Drinking,42.3632,-71.0563,North End
NEW GOLDEN GATE RESTAURANT,66 Beach,2111,Eating & Drinking,42.3514,-71.06,No Details
New Ho Toy,746 Dudley,2124,Eating & Drinking w/ Take Out,42.318,-71.0666,Dorchester
New Hong Kong,14 Tremont,2135,Eating & Drinking w/ Take Out,42.3504,-71.1686,Brighton
New Market Pizza & Grill,850 Massachusetts,2119,Eating & Drinking w/ Take Out,42.3321,-71.071,Dorchester
New Market Sq. Cafe,130 Newmarket,2118,Eating & Drinking w/ Take Out,42.3304,-71.0667,Dorchester
New Moon Villa Restaurant,15 Edinboro,2111,Eating & Drinking,42.352,-71.0599,Downtown Boston
New Oriental House,3704 Washington,2130,Eating & Drinking w/ Take Out,42.3004,-71.1129,Roslindale
New York Fried Chicken,442 Blue Hill,2121,Eating & Drinking w/ Take Out,42.3096,-71.0822,Roxbury
NEW YORK FRIED CHICKEN & PIZZA,531 Columbia,2125,Eating & Drinking w/ Take Out,42.3154,-71.0663,Dorchester
NEW YORK FRIED CHICKEN & PIZZA,67 Washington,2135,Eating & Drinking w/ Take Out,42.3441,-71.1433,Brighton
New York Pizza,224 Tremont,2116,Eating & Drinking w/ Take Out,42.3514,-71.0646,No Details
New York Shawarma Guys,83 Canal,2114,Eating & Drinking w/ Take Out,42.3643,-71.0596,West End
News Room Cafe,7 Bulfinch,2114,Eating & Drinking,42.3618,-71.0613,West End
Next Door Speakeasy,103 Porter,2128,Eating & Drinking,42.373,-71.0362,East Boston
Nfarra 2,127 Maverick,2128,Eating & Drinking,42.3702,-71.0394,East Boston
Nhu Lan Fast Food,1155 Dorchester,2125,Eating & Drinking w/ Take Out,42.3114,-71.0581,Dorchester
NHU LAN Restaurant,1157 Dorchester,2125,Eating & Drinking,42.3113,-71.0581,Dorchester
Nicholas Sub & Pizza Shop,600 Hyde Park,2131,Eating & Drinking w/ Take Out,42.28,-71.1187,Roslindale
NICK'S,4590 Washington,2131,Eating & Drinking w/ Take Out,42.2763,-71.1388,Roslindale
Nicks/Venue,100 Warrenton,2116,Eating & Drinking,42.3508,-71.0662,No Details
Nico Restaurant,417 Hanover,2113,Eating & Drinking,42.3656,-71.0527,North End
NICOLE'S PIZZA,639 Tremont,2118,Eating & Drinking w/ Take Out,42.3423,-71.0751,South End
Night Shift Brewing,160 Washington,2114,Eating & Drinking,42.3674,-71.0592,West End
NINE ZERO HOTEL,90 Tremont,2109,Eating & Drinking,42.3575,-71.0607,Downtown Boston
Nino's Pizza,79 Charles,2114,Eating & Drinking w/ Take Out,42.3584,-71.0704,Beacon Hill
NIXON & PEABODY,53 State,2109,Eating & Drinking,42.3588,-71.0562,Downtown Boston
No. 9 Park LLC,9 Park,2108,Eating & Drinking,42.3576,-71.0628,Beacon Hill
Noodle Barn,707 Centre,2130,Eating & Drinking,42.3114,-71.1147,Jamaica Plain
NOODLE STREET RESTAURANT,627 Commonwealth,2215,Eating & Drinking,42.3498,-71.1016,Cambridge
Noodles King,350 Longwood,2115,Eating & Drinking w/ Take Out,42.3391,-71.1081,Fenway/Kenmore
North East of the Boarder Taqueria,100 High,2110,Eating & Drinking w/ Take Out,42.3544,-71.0554,Downtown Boston
North End Creamery,121 Salem,2113,Eating & Drinking w/ Take Out,42.3646,-71.0554,North End
NORTH STREET GRILLE & CAFE,229 North,2113,Eating & Drinking,42.3634,-71.0525,North End
NORTHEASTERN UNIV. RYDER HALL,11 Leon,2115,Eating & Drinking,42.3366,-71.0909,Fenway/Kenmore
Northeastern University/Cafe Crossing,1175 Tremont,2120,Eating & Drinking,42.335,-71.0895,Fenway/Kenmore
Northeastern University-Snell Library,376 Huntington,2115,Eating & Drinking,42.3384,-71.088,Fenway/Kenmore
Nos Casa Cafe,475 Dudley,2119,Eating & Drinking w/ Take Out,42.3233,-71.0737,Roxbury
Notch Brighton Tap Room,1420 Soldiers Field,2135,Eating & Drinking,42.3619,-71.1452,Brighton
Notch Brighton Tap Room,525 Western,2135,Eating & Drinking w/ Take Out,42.3657,-71.1357,Brighton
Nu Burger,201 Brookline,2215,Eating & Drinking w/ Take Out,42.3446,-71.1022,Fenway/Kenmore
Nu Flav Restaurant,1098 Blue Hill,2124,Eating & Drinking,42.2869,-71.0902,Mattapan
O YA RESTAURANT,9 East,2111,Eating & Drinking,42.3513,-71.0569,Downtown Boston
Oasis Cafe,105 Bowdoin,2121,Eating & Drinking w/ Take Out,42.2996,-71.0737,Dorchester
Oasis Restaurant,33 Hancock,2125,Eating & Drinking,42.3144,-71.0658,Dorchester
Obosa Foods,146 Belgrade,2131,Eating & Drinking,42.2861,-71.1367,Roslindale
O'Brien's Pub,1 Harvard,2134,Eating & Drinking,42.3553,-71.1329,Allston
ODYSSEY CRUISES,60 Rowes,2110,Eating & Drinking,42.3565,-71.0503,North End
Ogawa Coffee,10 Milk,2108,Eating & Drinking w/ Take Out,42.3569,-71.058,Downtown Boston
OLD COLONY YACHT CLUB,235 Victory,2122,Eating & Drinking,42.2997,-71.0444,Dorchester
OLGA'S KAFE,206 Broadway,2127,Eating & Drinking,42.3402,-71.0526,South Boston
Olitoki,66 Brighton,2134,Eating & Drinking w/ Take Out,42.3524,-71.1288,Allston
Omni Boston Seaport - Crescendo,450 Summer,2210,Eating & Drinking,42.3473,-71.0426,South Boston
Omni Boston Seaport - Kestra,450 Summer,2210,Eating & Drinking,42.3473,-71.0426,South Boston
Omni Boston Seaport - Lifted Pool Bar,450 Summer,2210,Eating & Drinking,42.3473,-71.0426,South Boston
Omni Boston Seaport - Sporting Club,450 Summer,2210,Eating & Drinking,42.3473,-71.0426,South Boston
OMNI PARKER HOUSE,56 School,2108,Eating & Drinking,42.3578,-71.0601,Downtown Boston
Omni Seaport Employee Kitchen,450 Summer,2210,Eating & Drinking,42.3473,-71.0426,South Boston
Omni Seaport L3 Kitchen,450 Summer,2210,Eating & Drinking,42.3473,-71.0426,South Boston
Omni Seaport Main BQ Kitchen,450 Summer,2210,Eating & Drinking,42.3473,-71.0426,South Boston
On Fire Nutrition,411 Adams,2122,Eating & Drinking w/ Take Out,42.2952,-71.0564,Dorchester
On the Edge Nutrition,283 Old Colony,2127,Eating & Drinking w/ Take Out,42.3303,-71.0529,South Boston
ONLY ONE JAMAICAN RESTAURANT,160 Norfolk,2124,Eating & Drinking w/ Take Out,42.2872,-71.0786,Mattapan
Orfano,186 Brookline,2215,Eating & Drinking,42.3438,-71.1017,Fenway/Kenmore
ORIENTAL HOUSE,560 Washington,2124,Eating & Drinking w/ Take Out,42.2921,-71.0715,Dorchester
O'Saraceno,284 Hanover,2113,Eating & Drinking,42.364,-71.0545,North End
Otto Pizza,345 Harrison,2118,Eating & Drinking w/ Take Out,42.3452,-71.0645,South End
P & R Restaurant & Ice Cream Parlor,208 Dudley,2119,Eating & Drinking w/ Take Out,42.3286,-71.0811,Roxbury
P.F.CHANG'S CHINA BISTRO,8 Park,2116,Eating & Drinking,42.3514,-71.0687,Back Bay
Padduck Concession,525 William F McClellan,2128,Eating & Drinking w/ Take Out,42.3952,-71.0001,East Boston
Pagliuca's Restaurant,14 Parmenter,2113,Eating & Drinking,42.3638,-71.055,North End
Palm  Restaurant  (1 International Place),90 Oliver,2110,Eating & Drinking,42.3563,-71.0518,Downtown Boston
PAN ASIA RESTAURANT,720 Broadway,2127,Eating & Drinking w/ Take Out,42.3358,-71.0364,South Boston
Panera Bread,115 Stuart,2116,Eating & Drinking,42.3514,-71.0655,No Details
Panera Bread,8 Allstate,2125,Eating & Drinking,42.3266,-71.0617,Dorchester
Panza,326 Hanover,2113,Eating & Drinking,42.3647,-71.0538,North End
PAPA GINO'S,1270 River,2136,Eating & Drinking w/ Take Out,42.2557,-71.1239,Hyde Park
PAPA GINO'S,748 Gallivan,2122,Eating & Drinking w/ Take Out,42.2846,-71.0458,Dorchester
PAPA RINO'S PIZZA,392 Geneva,2122,Eating & Drinking w/ Take Out,42.3014,-71.0677,Dorchester
Papa's Pizza Company,682 Huntington,2120,Eating & Drinking,42.3349,-71.1024,Mission Hill
PARADISE,963 Commonwealth,2215,Eating & Drinking,42.3519,-71.1193,Allston
PARAMOUNT,44 Charles,2114,Eating & Drinking,42.3572,-71.0703,Beacon Hill
Parish Cafe,359 Boylston,2116,Eating & Drinking,42.3519,-71.0717,Back Bay
Park 54 Restaurant and Lounge,81 Fairmount,2136,Eating & Drinking,42.2546,-71.1202,Hyde Park
PARLA,230 Hanover,2113,Eating & Drinking,42.3633,-71.0554,North End
Pasta Beach,30 Rowes,2110,Eating & Drinking,42.3566,-71.0504,North End
PATS PIZZA,2254 Dorchester,2124,Eating & Drinking w/ Take Out,42.2735,-71.0675,Dorchester
Pauli's,65 Salem,2113,Eating & Drinking w/ Take Out,42.3633,-71.0559,North End
Pavement,415 Western,2135,Eating & Drinking,42.3627,-71.1404,Brighton
Pavement Coffee House,286 Newbury,2115,Eating & Drinking,42.3489,-71.0844,Back Bay
Pavement Coffeehouse,1096 Boylston,2215,Eating & Drinking,42.3469,-71.0884,Fenway/Kenmore
Pavement Coffeehouse,1243 Commonwealth,2134,Eating & Drinking w/ Take Out,42.3503,-71.1319,Allston
Pavement Coffeehouse,44 Gainsborough,2115,Eating & Drinking,42.3416,-71.087,Fenway/Kenmore
Pavia,82 Water,2109,Eating & Drinking w/ Take Out,42.3577,-71.0563,Downtown Boston
Pavillion Restaurant,4 Jersey,2215,Eating & Drinking,42.3467,-71.0987,Fenway/Kenmore
Pazza on Porter,107 Porter,2128,Eating & Drinking,42.373,-71.0362,East Boston
PEACH FARM RESTAURANT,4 Tyler,2111,Eating & Drinking,42.3511,-71.0604,No Details
Pei Wei,1 Harborside,2128,Eating & Drinking w/ Take Out,42.3634,-71.0257,East Boston
Peka,300 Washington,2135,Eating & Drinking,42.3488,-71.1512,Brighton
PEKING HOUSE,160 Dudley,2119,Eating & Drinking,42.3288,-71.083,Roxbury
PENNYPACKERS,100 High,2110,Eating & Drinking w/ Take Out,42.3544,-71.0554,Downtown Boston
Peregrine,170 Charles,2114,Eating & Drinking,42.3606,-71.0714,Beacon Hill
PERKIN'S SQ DELI,106 Dorchester,2127,Eating & Drinking w/ Take Out,42.3352,-71.0458,South Boston
Perla Del Sur Quintanilla,454 Hyde Park,2131,Eating & Drinking,42.285,-71.1187,Roslindale
Perros Paisas,350 Bennington,2128,Eating & Drinking w/ Take Out,42.3796,-71.0269,East Boston
Peruvian Taste Restaurant,78 Arlington,2129,Eating & Drinking,42.3872,-71.075,Charlestown
Pete's Seafood,267 Bowdoin,2122,Eating & Drinking,42.3065,-71.0664,Dorchester
Phin Coffee House,10 High,2110,Eating & Drinking w/ Take Out,42.3535,-71.0567,Downtown Boston
Phinista,96 Peterborough,2116,Eating & Drinking w/ Take Out,42.343,-71.0992,Fenway/Kenmore
Pho #1 Brighton,1799 Commonwealth,2135,Eating & Drinking,42.3406,-71.1516,Brighton
PHO 2000,198 Adams,2122,Eating & Drinking,42.3022,-71.06,Dorchester
Pho Express,1 Brighton,2134,Eating & Drinking w/ Take Out,42.3524,-71.1253,Allston
Pho Hoa restaurant/Drink Lab,1370 Dorchester,2122,Eating & Drinking,42.304,-71.059,Dorchester
Pho Le,1356 Dorchester,2122,Eating & Drinking,42.3044,-71.059,Dorchester
Pho Pasteur,682 Washington,2111,Eating & Drinking,42.3514,-71.0626,No Details
PHO REAL,279 Newbury,2116,Eating & Drinking w/ Take Out,42.3494,-71.084,Back Bay
Phuket Thai  Restaurant,1852 Centre,2132,Eating & Drinking,42.2861,-71.1544,Roxbury
Phuong Nam,291 Adams,2122,Eating & Drinking,42.2992,-71.0582,Dorchester
Piattini,226 Newbury,2116,Eating & Drinking,42.3497,-71.0812,Back Bay
Pick N'Roll Sushi,134 Boylston,2116,Eating & Drinking w/ Take Out,42.3523,-71.0661,Beacon Hill
Pier 6 Restaurant,1 Eighth,2129,Eating & Drinking,42.3732,-71.0501,Charlestown
Pikalo J.P.,378 Centre,2130,Eating & Drinking w/ Take Out,42.322,-71.1093,Jamaica Plain
Pikalox,3160 Washington,2130,Eating & Drinking,42.3136,-71.1003,Jamaica Plain
Pikalox,422 Geneva,2122,Eating & Drinking w/ Take Out,42.3009,-71.0669,Dorchester
Pink Carrot,115 Salem,2113,Eating & Drinking w/ Take Out,42.3644,-71.0554,North End
Pino's Pizza House,1918 Beacon,2135,Eating & Drinking w/ Take Out,42.3365,-71.1492,Brighton
Pita Thyme,112 Water,2109,Eating & Drinking w/ Take Out,42.3582,-71.0549,Downtown Boston
Pizza Days,101 Brighton,2134,Eating & Drinking w/ Take Out,42.3531,-71.1306,Allston
Pizza E.T.C.,427 Faneuil,2135,Eating & Drinking,42.3512,-71.1684,Brighton
PIZZA OGGI,8 Perkins,2130,Eating & Drinking w/ Take Out,42.3217,-71.1106,Jamaica Plain
Pizza Stop,851 Harrison,2118,Eating & Drinking,42.3347,-71.0757,South End
Pizzatalia,618 Shawmut,2118,Eating & Drinking w/ Take Out,42.3354,-71.0806,South End
Pizzeria Regina,11H Thacher,2113,Eating & Drinking,42.3654,-71.0569,North End
PIZZERIA REGINA OF SO. STATION,630 Atlantic,2111,Eating & Drinking w/ Take Out,42.352,-71.055,Downtown Boston
PlantPub Fenway,61 Brookline,2215,Eating & Drinking,42.3472,-71.0991,Fenway/Kenmore
Playa Bowls,2193 Commonwealth,2135,Eating & Drinking w/ Take Out,42.3403,-71.1664,Brighton
Playa Bowls,277 Huntington,2115,Eating & Drinking,42.3421,-71.0864,Fenway/Kenmore
Pleasant Cafe,4511 Washington,2131,Eating & Drinking,42.2787,-71.1368,Roslindale
POCKETS BILLIARD CLUB,981 Bennington,2128,Eating & Drinking,42.3863,-71.0074,East Boston
Poke Bar & Kitchen,309 Huntington,2115,Eating & Drinking,42.3412,-71.0876,Fenway/Kenmore
Poke Boys,1 Brighton,2134,Eating & Drinking w/ Take Out,42.3524,-71.1253,Allston
Poke Works,200 Faneuil Hall Marketplace,2109,Eating & Drinking w/ Take Out,42.3602,-71.0548,No Details
Pokeworks,415 Brookline,2215,Eating & Drinking,42.3387,-71.1078,Fenway/Kenmore
Pollo Campero,188 Border,2128,Eating & Drinking,42.3754,-71.0405,East Boston
Pollo Centro,223 Bowdoin,2122,Eating & Drinking,42.3057,-71.0673,Dorchester
Pollos A La Brasa Beto's,294 Bennington,2128,Eating & Drinking,42.3791,-71.0284,East Boston
Popeyes,1630 VFW,2132,Eating & Drinking w/ Take Out,42.265,-71.1677,Roxbury
Popeyes,300 Martin Luther King Jr,2119,Eating & Drinking w/ Take Out,42.3194,-71.0825,Roxbury
PORTER BELLY'S,338 Washington,2135,Eating & Drinking,42.3489,-71.1525,Brighton
PORTERS BAR & GRILL,173 Portland,2114,Eating & Drinking,42.3644,-71.0615,West End
Porto,780 Boylston,2199,Eating & Drinking,42.3481,-71.0809,Back Bay
Potbelly Sandwich Shop,1 Federal,2110,Eating & Drinking w/ Take Out,42.3561,-71.057,Downtown Boston
Potluck Cafe,7 Knapp,2111,Eating & Drinking,42.3512,-71.062,No Details
Powerhouse Juice,645 Summer,2210,Eating & Drinking w/ Take Out,42.3418,-71.0404,South Boston
Precinct Kitchen & Bar,154 Berkeley,2116,Eating & Drinking,42.3492,-71.0724,Back Bay
Pressed Juicery,288 Newbury,2115,Eating & Drinking w/ Take Out,42.3488,-71.0845,Back Bay
PREZZA,24 Fleet,2113,Eating & Drinking,42.3647,-71.0528,North End
Prieto El Rey De Las Empanadas,196 Humboldt,2121,Eating & Drinking w/ Take Out,42.3127,-71.0896,Roxbury
PRIMO'S RESTAURANT,28 Myrtle,2114,Eating & Drinking,42.3592,-71.0656,Beacon Hill
Project Place Gatehouse,1143 Washington,2118,Eating & Drinking w/ Take Out,42.3438,-71.0663,South End
Prow/Max Cafe @Emerson,150 Boylston,2116,Eating & Drinking,42.3523,-71.0665,Beacon Hill
PS Coffee,4252 Washington,2131,Eating & Drinking w/ Take Out,42.2854,-71.129,Roslindale
Pu Pu Restaurant,2060 Centre,2132,Eating & Drinking w/ Take Out,42.2799,-71.1583,Roxbury
Publico,11 Dorchester,2127,Eating & Drinking,42.3372,-71.0438,South Boston
Pueblo Viejo,309 Bennington,2128,Eating & Drinking w/ Take Out,42.3789,-71.0278,East Boston
Pueblo Viejo Pupuseria & Mexican Grill,170 Marion,2128,Eating & Drinking,42.376,-71.0355,East Boston
PunJab Palace,109 Brighton,2134,Eating & Drinking,42.353,-71.1305,Allston
PUNTO ROJO,16 Bennington,2128,Eating & Drinking w/ Take Out,42.3753,-71.0383,East Boston
Puritan Restaurant,735 William T Morrissey,2122,Eating & Drinking w/ Take Out,42.2954,-71.0489,Dorchester
Puro,264 Newbury,2116,Eating & Drinking w/ Take Out,42.3492,-71.0831,Back Bay
PURPLE CACTUS,674 Centre,2130,Eating & Drinking w/ Take Out,42.3121,-71.114,Jamaica Plain
Qdoba Mexican Eats,540 Commonwealth,2215,Eating & Drinking w/ Take Out,42.3485,-71.0967,Fenway/Kenmore
Qdoba Mexican Eats #2207,393 Huntington,2115,Eating & Drinking w/ Take Out,42.3398,-71.0909,Fenway/Kenmore
Qdoba Mexican Eats #2592,101 Causeway,2114,Eating & Drinking w/ Take Out,42.3649,-71.0619,West End
QUALITY EATS,1199 Tremont,2120,Eating & Drinking,42.3341,-71.0908,Roxbury
QUATTRO RISTORANTE  GRILL & PIZZERIA,264 Hanover,2113,Eating & Drinking,42.3636,-71.0549,North End
Que Arepa En Tertulias Cafe,26 Porter,2128,Eating & Drinking,42.3746,-71.0379,East Boston
R & S JAMAICAN RESTAURANT,630 Hyde Park,2131,Eating & Drinking,42.2789,-71.1186,Roslindale
Rabia's Dolce Fumo,71 Salem,2113,Eating & Drinking,42.3634,-71.0558,North End
Raising Cane's Chicken Fingers,949 Commonwealth,2215,Eating & Drinking,42.3519,-71.1187,Allston
Ray & Joan Krok Community Center,650 Dudley,2125,Eating & Drinking,42.3194,-71.0701,Roxbury
Rebel's Guild,196 Stuart,2116,Eating & Drinking,42.3505,-71.0676,No Details
Recreo Coffee,1 City Hall,2201,Eating & Drinking w/ Take Out,42.3601,-71.0579,No Details
Red Lantern,39 Stanhope,2116,Eating & Drinking,42.3485,-71.0733,Back Bay
Red Line Pizza and Grill,582 Dorchester,2127,Eating & Drinking w/ Take Out,42.3299,-71.0568,South Boston
Red White,294 Newbury,2115,Eating & Drinking w/ Take Out,42.3488,-71.0847,Back Bay
Regal,686 Morton,2126,Eating & Drinking w/ Take Out,42.2847,-71.0921,Mattapan
Renaissance Hotel (Club Lounge),606 Congress,2210,Eating & Drinking,42.3482,-71.0391,South Boston
Renaissance Hotel (Employee Cafe),606 Congress,2210,Eating & Drinking,42.3482,-71.0391,South Boston
Renaissance Hotel (Lobby Lounge/Capiz),606 Congress,2210,Eating & Drinking,42.3482,-71.0391,South Boston
Renaissance Hotel (Main Kitchen),606 Congress,2210,Eating & Drinking,42.3482,-71.0391,South Boston
Renaissance Hotel (Starbucks),606 Congress,2210,Eating & Drinking w/ Take Out,42.3482,-71.0391,South Boston
Render Coffee,563 Columbus,2118,Eating & Drinking w/ Take Out,42.3411,-71.0815,South End
Render Coffee @ 121,50 Milk,2109,Eating & Drinking,42.357,-71.0576,Downtown Boston
Residence Inn Fenway - Boston,121 Brookline,2215,Eating & Drinking,42.3457,-71.1003,Fenway/Kenmore
Restaurant Associates @ Amazon,253 Summer,2127,Eating & Drinking,42.3502,-71.0513,South Boston
Restaurant Associates @ Google,100 Summer,2110,Eating & Drinking,42.3536,-71.0574,Downtown Boston
Restaurant Y Cafeteria Los Nietos,962 Blue Hill,2124,Eating & Drinking w/ Take Out,42.292,-71.088,Mattapan
Restaurante Cesaria,266 Bowdoin,2125,Eating & Drinking,42.3069,-71.0667,Dorchester
Reunion BBQ,439 Tremont,2116,Eating & Drinking,42.3468,-71.0694,South End
REV Bar LL,40 Berkeley,2116,Eating & Drinking,42.3459,-71.0709,South End
Revival,1 Post Office,2109,Eating & Drinking,42.3568,-71.055,Downtown Boston
Revolution Health Kitchen,150 Huntington,2115,Eating & Drinking w/ Take Out,42.3449,-71.0818,Back Bay
RHYTHM 'N WRAPS,1092 Commonwealth,2215,Eating & Drinking,42.3517,-71.1243,Allston
RICCARDO'S RISTORANTE,175 North,2113,Eating & Drinking,42.3632,-71.0538,North End
Richy's,1461 River,2136,Eating & Drinking,42.2519,-71.1312,Hyde Park
Right Field Inseat,4 Jersey,2215,Eating & Drinking w/ Take Out,42.3467,-71.0987,Fenway/Kenmore
Right Field Pantry,4 Jersey,2215,Eating & Drinking w/ Take Out,42.3467,-71.0987,Fenway/Kenmore
Rina's,371 Hanover,2113,Eating & Drinking w/ Take Out,42.3649,-71.0532,North End
Rincon Caribeno Restaurant,18 Fairmount,2136,Eating & Drinking,42.2557,-71.1208,Hyde Park
RINCON LIMENO,409 Chelsea,2128,Eating & Drinking,42.3799,-71.0269,East Boston
Rinconcito Salvadoreno,313 Meridian,2128,Eating & Drinking,42.3775,-71.039,East Boston
RINO'S PIZZA,730 Blue Hill,2121,Eating & Drinking w/ Take Out,42.2998,-71.086,Roxbury
RISTORANTE EUNO,119 Salem,2113,Eating & Drinking,42.3645,-71.0554,North End
Ristorante Toscano Inc.,41 Charles,2114,Eating & Drinking,42.3574,-71.0699,Beacon Hill
RITZ-CARLTON BOSTON COMMON,10 Avery,2111,Eating & Drinking,42.3531,-71.0633,Downtown Boston
River Grille Plus Restaurant,1868 Centre,2132,Eating & Drinking w/ Take Out,42.2859,-71.1551,Roxbury
River Grille Restaurant & Cafe Inc.,1263 River,2136,Eating & Drinking,42.256,-71.1238,Hyde Park
RIVER STREET GRILL,73 River,2126,Eating & Drinking w/ Take Out,42.2716,-71.0736,Mattapan
RIVERSIDE CAFE-LEV1,32 Fruit,2114,Eating & Drinking,42.3622,-71.069,West End
RIZZO'S PIZZA,347 Centre,2130,Eating & Drinking w/ Take Out,42.3227,-71.1064,Jamaica Plain
Rocco's Cucina & Bar,450 Commercial,2109,Eating & Drinking,42.3673,-71.0533,North End
RoChambeau,880 Boylston,2199,Eating & Drinking,42.3475,-71.0841,Back Bay
ROCHE BROS. SUPERMARKET,1800 Centre,2132,Eating & Drinking,42.2872,-71.1525,Roxbury
Rock Bottom Brewery,115 Stuart,2116,Eating & Drinking,42.3514,-71.0655,No Details
Rock City Pizza,568 Cambridge,2134,Eating & Drinking w/ Take Out,42.3523,-71.1404,Allston
Rod Thai Family Taste,94 Peterborough,2115,Eating & Drinking,42.343,-71.0992,Fenway/Kenmore
Rome Pizza,416 Tremont,2116,Eating & Drinking w/ Take Out,42.3468,-71.0686,South End
Rompe Dieta Restaurant,14 Hancock,2125,Eating & Drinking,42.3152,-71.0658,Dorchester
Rondo's Sub Shop,134 Broadway,2127,Eating & Drinking w/ Take Out,42.3411,-71.054,South Boston
Rooftop @ Revere Hotel,200 Stuart,2116,Eating & Drinking,42.3505,-71.0676,No Details
ROSLINDALE HOUSE OF PIZZA,4168 Washington,2131,Eating & Drinking w/ Take Out,42.2878,-71.1264,Roslindale
Round Two,10 Walk Hill,2130,Eating & Drinking w/ Take Out,42.2959,-71.1157,Roslindale
Rox Diner,1881 Centre,2132,Eating & Drinking w/ Take Out,42.286,-71.1557,Roxbury
Royal Fried Chicken,2360 Washington,2119,Eating & Drinking w/ Take Out,42.3294,-71.0844,Roxbury
ROYAL ROAST BEEF & SEAFOOD,752 Bennington,2128,Eating & Drinking w/ Take Out,42.3856,-71.0108,East Boston
Royal Tea,162 Harvard,2134,Eating & Drinking w/ Take Out,42.3516,-71.1314,Allston
Royal Tea,23 Tyler,2111,Eating & Drinking w/ Take Out,42.3508,-71.0609,No Details
Royale,279 Tremont,2116,Eating & Drinking,42.3499,-71.0655,No Details
Roza Lyons,709 Broadway,2127,Eating & Drinking,42.3354,-71.037,South Boston
RUCKUS NOODLES,5 Tyler,2111,Eating & Drinking,42.3511,-71.061,No Details
Ruggles Pizza and Cafe,249 Ruggles,2115,Eating & Drinking w/ Take Out,42.3374,-71.088,Fenway/Kenmore
Ruth Mulan Chu Chao Center,49 Harvard,2163,Eating & Drinking,42.3666,-71.12,Allston
Ruth's Chris Steak House,45 School,2108,Eating & Drinking,42.3581,-71.0593,Downtown Boston
S & I TO GO,168 Brighton,2134,Eating & Drinking w/ Take Out,42.3529,-71.1329,Allston
Sabroso Taqueria,2 Oliver,2109,Eating & Drinking w/ Take Out,42.3573,-71.0546,Downtown Boston
Safari African Restaurant,1336 Blue Hill,2126,Eating & Drinking,42.2781,-71.0931,Mattapan
Saigon Chicken House,223 Adams,2122,Eating & Drinking,42.3015,-71.06,Dorchester
Saigon Hut,305 Meridian,2128,Eating & Drinking,42.3773,-71.039,East Boston
Saigon One Restaurant,1331 Dorchester,2122,Eating & Drinking,42.3052,-71.0592,Dorchester
Saigon Seafood Restaurant,270 Adams,2122,Eating & Drinking,42.3,-71.0585,Dorchester
Sakura Japan,350 Longwood,2115,Eating & Drinking w/ Take Out,42.3391,-71.1081,Fenway/Kenmore
Saloniki,132 Brookline,2215,Eating & Drinking,42.3452,-71.1004,Fenway/Kenmore
Saloniki Greek,1 Beacon,2108,Eating & Drinking w/ Take Out,42.3584,-71.0608,Beacon Hill
Saloniki Greek,316 Newbury,2115,Eating & Drinking,42.3486,-71.0854,Back Bay
SAL'S PIZZA,51 Brookline,2215,Eating & Drinking w/ Take Out,42.3473,-71.0987,Fenway/Kenmore
Sal's Pizza/Bakery,150 Tremont,2111,Eating & Drinking w/ Take Out,42.3548,-71.0631,Beacon Hill
SALSAS MEXICAN GRILL,417 Washington,2108,Eating & Drinking w/ Take Out,42.3558,-71.0604,Downtown Boston
Saltie Girl,277 Dartmouth,2116,Eating & Drinking,42.3511,-71.0776,Back Bay
Salty Pig,130 Dartmouth,2116,Eating & Drinking,42.3468,-71.0761,South End
Sam Adams Deck/RF ROOF,4 Jersey,2215,Eating & Drinking,42.3467,-71.0987,Fenway/Kenmore
Sam Adams Tap Room,60 State,2109,Eating & Drinking,42.3593,-71.0564,Downtown Boston
Sam LaGrassa's,44 Province,2108,Eating & Drinking w/ Take Out,42.3569,-71.0599,Downtown Boston
Sammy Carlo's Delicatessan,567 Bennington,2128,Eating & Drinking,42.3825,-71.0181,East Boston
Sammy's Pizza and Fried Chicken,1443 Commonwealth,2135,Eating & Drinking,42.3488,-71.1404,Brighton
Samuel Adams Boston Brewery,30 Germania,2130,Eating & Drinking,42.3142,-71.1035,Roxbury
Santarpios Restaurant,1 Harborside,2128,Eating & Drinking,42.3634,-71.0257,East Boston
Santouka,66 Hereford,2115,Eating & Drinking,42.3485,-71.0853,Back Bay
Sarku Japan,417 Washington,2108,Eating & Drinking w/ Take Out,42.3558,-71.0604,Downtown Boston
Saus Boston,31 Union,2108,Eating & Drinking,42.3612,-71.0568,No Details
Savenors RF,4 Jersey,2215,Eating & Drinking w/ Take Out,42.3467,-71.0987,Fenway/Kenmore
Savin Bar And Kitchen,112 Savin Hill,2125,Eating & Drinking,42.3117,-71.0535,Dorchester
Savin Hill Yacht Club,400 William T Morrissey,2125,Eating & Drinking,42.3093,-71.0444,Dorchester
Savvor Restaurant & Lounge,174 Lincoln,2111,Eating & Drinking,42.3506,-71.0584,Downtown Boston
Say Coffee Co,401 Park,2215,Eating & Drinking w/ Take Out,42.3445,-71.1028,Fenway/Kenmore
SBARRO RESTAURANT,100 Terminal,2128,Eating & Drinking w/ Take Out,42.3645,-71.0218,East Boston
Scali Deli Cafe,147 Pearl,2110,Eating & Drinking w/ Take Out,42.3546,-71.0537,Downtown Boston
Scampo,215 Charles,2114,Eating & Drinking,42.362,-71.0702,West End
Scholars Restaurant,23 School,2108,Eating & Drinking,42.3577,-71.059,Downtown Boston
Schraffts Center Cafe,529 Main,2129,Eating & Drinking,42.3845,-71.0719,Charlestown
SCOLA'S CAFE,88 Black Falcon,2210,Eating & Drinking,42.3439,-71.0225,South Boston
Scopa,319 Hanover,2113,Eating & Drinking,42.364,-71.054,North End
Seabiscuit,256 Marginal,2128,Eating & Drinking,42.3642,-71.0325,East Boston
Seaport Hotel,1 Seaport,2210,Eating & Drinking,42.3493,-71.0417,South Boston
Sebastians Cafe,1 Harborside,2128,Eating & Drinking,42.3634,-71.0257,East Boston
SEC Cafe / Kitchen,140 Western,2134,Eating & Drinking,42.3544,-71.1519,Brighton
Select Oyster Bar,50 Gloucester,2115,Eating & Drinking,42.3486,-71.0841,Back Bay
Seoul,156 Cambridge,2114,Eating & Drinking,42.361,-71.0647,Beacon Hill
Seoul Soulongtang,1243 Commonwealth,2134,Eating & Drinking,42.3503,-71.1319,Allston
Seoul Tteokbokki,166 Harvard,2134,Eating & Drinking,42.3515,-71.1314,Allston
Serafina,237 Newbury,2116,Eating & Drinking,42.3499,-71.082,Back Bay
Seven's Ale House,77 Charles,2114,Eating & Drinking,42.3583,-71.0704,Beacon Hill
Shabu Maru,10 Huntington,2116,Eating & Drinking,42.3485,-71.0773,Back Bay
Shabu-Zen,14 Tyler,2111,Eating & Drinking,42.3509,-71.0605,No Details
Shabu-Zen,78 Brighton,2134,Eating & Drinking,42.3524,-71.1289,Allston
Shake Shack,332 Washington,2108,Eating & Drinking,42.3567,-71.0587,Downtown Boston
Shaking Crab,140 Boylston,2116,Eating & Drinking,42.3523,-71.0662,Beacon Hill
Shaking Seafood,1616 Dorchester,2122,Eating & Drinking w/ Take Out,42.2954,-71.0614,Dorchester
Shamrock Pub,501 Eighth,2127,Eating & Drinking,42.3313,-71.0413,South Boston
Shanti Boston,4197 Washington,2131,Eating & Drinking,42.2872,-71.1276,Roslindale
Shanti Express,49 Warren,2119,Eating & Drinking w/ Take Out,42.3291,-71.0836,Roxbury
Shawarma Falafel,26 Province,2108,Eating & Drinking w/ Take Out,42.3572,-71.0597,Downtown Boston
SHEA'S TAVERN,222 Broadway,2127,Eating & Drinking,42.3398,-71.0527,South Boston
SHERATON BOSTON (R.S./CAFE),39 Dalton,2116,Eating & Drinking,42.3466,-71.0838,Fenway/Kenmore
SHERATON BOSTON (SIDE BAR),39 Dalton,2116,Eating & Drinking,42.3466,-71.0838,Fenway/Kenmore
Shin Hakata Ramen,173 Massachusetts,2115,Eating & Drinking,42.3459,-71.0874,Fenway/Kenmore
Shojo,11 Tyler,2111,Eating & Drinking,42.3511,-71.0608,No Details
Shore Leave,345 Harrison,2118,Eating & Drinking,42.3452,-71.0645,South End
Showa Womens Institution,414 Pond,2130,Eating & Drinking,42.3076,-71.1313,Jamaica Plain
SHRINERS' HOSP. FOR CHILDREN,51 Blossom,2114,Eating & Drinking,42.3631,-71.0665,West End
Shun's Kitchen,520 Columbus,2118,Eating & Drinking w/ Take Out,42.3419,-71.0798,South End
Siam Bistro,151 Pearl,2110,Eating & Drinking w/ Take Out,42.3545,-71.0536,Downtown Boston
Side Chick,692 Columbia,2125,Eating & Drinking w/ Take Out,42.3202,-71.0625,Dorchester
SIDEWALK CAFE,764 Fourth,2127,Eating & Drinking w/ Take Out,42.335,-71.0335,South Boston
Silver Slipper,2387 Washington,2119,Eating & Drinking,42.3291,-71.0851,Roxbury
SILVERTONE BAR & GRILL,69 Bromfield,2108,Eating & Drinking,42.3571,-71.0609,Downtown Boston
Silvio O. Conte Forum East Roof 2A,2597 Beacon,2135,Eating & Drinking w/ Take Out,42.3362,-71.1664,Chestnut Hill
Silvio O. Conte Forum East Roof 2B,2597 Beacon,2135,Eating & Drinking w/ Take Out,42.3362,-71.1664,Chestnut Hill
Silvio O. Conte Forum East Roof 2C,2597 Beacon,2135,Eating & Drinking w/ Take Out,42.3362,-71.1664,Chestnut Hill
Silvio O. Conte Forum East Roof 2D,2597 Beacon,2135,Eating & Drinking w/ Take Out,42.3362,-71.1664,Chestnut Hill
Silvio O. Conte Forum East Roof 3A,2597 Beacon,2135,Eating & Drinking w/ Take Out,42.3362,-71.1664,Chestnut Hill
Silvio O. Conte Forum East Roof 3B,2597 Beacon,2135,Eating & Drinking w/ Take Out,42.3362,-71.1664,Chestnut Hill
Silvio O. Conte Forum Yawkey 4th Fl.,2597 Beacon,2135,Eating & Drinking w/ Take Out,42.3362,-71.1664,Chestnut Hill
SIMCO'S INC.,679 Canterbury,2131,Eating & Drinking w/ Take Out,42.2854,-71.11,Roslindale
SIMCO'S RESTAURANT,1509 Blue Hill,2126,Eating & Drinking w/ Take Out,42.2724,-71.0939,Mattapan
SIMMONS COLLEGE-THE FENS,300 Fenway,2115,Eating & Drinking,42.3393,-71.1,Fenway/Kenmore
Simons IMAX Theater,250 Atlantic,2110,Eating & Drinking w/ Take Out,42.3569,-71.0504,North End
Singhs Roti,554 Columbia,2125,Eating & Drinking w/ Take Out,42.3163,-71.0663,Dorchester
SIP,0 Post Office,2109,Eating & Drinking w/ Take Out,42.3568,-71.055,Downtown Boston
Sip Wine Bar & Kitchen,1 Avery,2111,Eating & Drinking,42.3535,-71.0629,Downtown Boston
Slade's Bar & Grill,950 Tremont,2120,Eating & Drinking,42.3373,-71.0836,South End
Smoke Shop BBQ,343 Congress,2210,Eating & Drinking,42.3506,-71.0494,South Boston
Society On High,99 High,2110,Eating & Drinking,42.3542,-71.0548,Downtown Boston
Sodexo @ Bloomberg Boston Pantry,100 Summer,2110,Eating & Drinking w/ Take Out,42.3536,-71.0574,Downtown Boston
Sodexo @ BU Fenway/Res. Dining,200 Riverway,2215,Eating & Drinking,42.3417,-71.1064,Fenway/Kenmore
Sodexo @ East End Cafe,364 Brookline,2215,Eating & Drinking,42.339,-71.1064,Fenway/Kenmore
Sodexo @ National Resilience,500 Soldiers Field,2134,Eating & Drinking,42.3628,-71.1185,Allston
SoJu Ba,1265 Boylston,2215,Eating & Drinking,42.3453,-71.0964,Fenway/Kenmore
Sol Azteca,914 Beacon,2215,Eating & Drinking,42.3467,-71.1063,Fenway/Kenmore
Somerset Club,42 Beacon,2108,Eating & Drinking,42.357,-71.0667,Beacon Hill
Somtum Modern Thai Cuisine,1894 Centre,2132,Eating & Drinking w/ Take Out,42.2854,-71.1558,Roxbury
SONSIE,327 Newbury,2115,Eating & Drinking,42.3488,-71.0863,Back Bay
Sorelle,100 Northern,2210,Eating & Drinking,42.3529,-71.0431,South Boston
SORELLINA RESTAURANT,1 Huntington,2116,Eating & Drinking,42.3488,-71.078,Back Bay
Source Fenway,201 Brookline,2215,Eating & Drinking w/ Take Out,42.3446,-71.1022,Fenway/Kenmore
SOUTH BOSTON YACHT CLUB,1849 Columbia,2127,Eating & Drinking,42.3321,-71.027,South Boston
South End Buttery(314 Shawmut Ave.),314 Shawmut,2118,Eating & Drinking,42.3421,-71.0703,South End
South End Pita,471 Albany,2118,Eating & Drinking,42.3397,-71.065,South End
South St. Diner,178 Kneeland,2111,Eating & Drinking,42.3499,-71.0578,Downtown Boston
SOUTHERN BAPTIST CHURCH,29 Winthrop,2119,Eating & Drinking,42.3261,-71.0816,Roxbury
Spagnoulos,240 Hanover,2113,Eating & Drinking,42.3634,-71.0552,North End
Spangler Student Center Coffee Bar,117 Western,2135,Eating & Drinking,42.3652,-71.1222,Allston
Spicy World,7 Beach,2111,Eating & Drinking,42.3514,-71.0624,No Details
SPIKE'S JUNKYARD DOGS,108 Brighton,2134,Eating & Drinking w/ Take Out,42.3526,-71.1304,Allston
SPiN,273 Summer,2210,Eating & Drinking,42.3499,-71.0503,South Boston
Sportello,348 Congress,2210,Eating & Drinking,42.3507,-71.0485,South Boston
SPORTS CONNECTION BAR & GRILL,560 Dorchester,2127,Eating & Drinking,42.3305,-71.0567,South Boston
Spring House,44 Allandale,2130,Eating & Drinking,42.3001,-71.1306,Roxbury
Spring Shabu-Shabu,304 Western,2134,Eating & Drinking,42.3627,-71.1359,Brighton
SPUKIES PIZZA RESTAURANT,1159 Washington,2126,Eating & Drinking w/ Take Out,42.2722,-71.0689,Dorchester
Squeeze Juice Company,15 Channel Center,2127,Eating & Drinking w/ Take Out,42.3457,-71.0511,South Boston
Squeeze Juice Company,53 State,2109,Eating & Drinking w/ Take Out,42.3588,-71.0562,Downtown Boston
SRV,434 Massachusetts,2118,Eating & Drinking,42.3409,-71.0818,South End
St Botolph Club Inc,199 Commonwealth,2116,Eating & Drinking,42.3516,-71.0809,Back Bay
St. Elizabeth's Medical Center,736 Cambridge,2135,Eating & Drinking,42.3496,-71.148,Brighton
St. George Orthodox Church,55 Emmonsdale,2132,Eating & Drinking,42.2772,-71.1516,Roxbury
St. John's Seminary,127 Lake,2135,Eating & Drinking,42.3443,-71.163,Brighton
St. Mary's Ctr. for Women & Children,90 Cushing,2125,Eating & Drinking,42.3138,-71.0632,Dorchester
Stage Karaoke X Studios,138 Brighton,2134,Eating & Drinking,42.3528,-71.1318,Allston
Stalex Pizza,140 Norfolk,2124,Eating & Drinking w/ Take Out,42.2878,-71.0778,Dorchester
Star Market #4572,370 Western,2135,Eating & Drinking,42.3611,-71.1378,Brighton
Star Markets #2576,33 Kilmarnock,2215,Eating & Drinking,42.3437,-71.1002,Fenway/Kenmore
Starbucks,1341 Boylston,2215,Eating & Drinking,42.3444,-71.0996,Fenway/Kenmore
Starbucks Coffee,110 Huntington,2116,Eating & Drinking w/ Take Out,42.3471,-71.0784,Back Bay
Starbucks Coffee,140 Brookline,2135,Eating & Drinking w/ Take Out,42.3449,-71.1007,Fenway/Kenmore
Starbucks Coffee,1660 Soldiers Field,2135,Eating & Drinking w/ Take Out,42.3587,-71.1537,Brighton
Starbucks Coffee,1948 Beacon,2135,Eating & Drinking w/ Take Out,42.3363,-71.1502,Brighton
Starbucks Coffee,219 Western,2134,Eating & Drinking,42.364,-71.1304,Allston
Starbucks Coffee,300 Faneuil Hall Marketplace,2109,Eating & Drinking,42.36,-71.0563,No Details
Starbucks Coffee,440 William F McClellan,2128,Eating & Drinking w/ Take Out,42.3935,-71.013,East Boston
Starbucks Coffee,50 Park,2116,Eating & Drinking,42.3513,-71.0692,Back Bay
Starbucks Coffee # 10599,125 Summer,2111,Eating & Drinking w/ Take Out,42.353,-71.0576,Downtown Boston
Starbucks Coffee # 7531,12 Winter,2108,Eating & Drinking w/ Take Out,42.3556,-71.0611,Downtown Boston
Starbucks Coffee # 7544,755 Boylston,2116,Eating & Drinking w/ Take Out,42.3494,-71.0811,Back Bay
Starbucks Coffee # 7564,60 Boylston,2116,Eating & Drinking w/ Take Out,42.352,-71.0644,Downtown Boston
Starbucks Coffee # 7805,90 Oliver,2110,Eating & Drinking w/ Take Out,42.3563,-71.0518,Downtown Boston
STARBUCKS COFFEE # 7823,470 Washington,2135,Eating & Drinking w/ Take Out,42.3487,-71.1595,Brighton
Starbucks Coffee # 830,443 Boylston,2116,Eating & Drinking w/ Take Out,42.3516,-71.073,Back Bay
Starbucks Coffee # 869,101 Federal,2110,Eating & Drinking w/ Take Out,42.3549,-71.0566,Downtown Boston
Starbucks Coffee # 883,63 Court,2203,Eating & Drinking w/ Take Out,42.3594,-71.0592,Downtown Boston
Starbucks Coffee #22566,48 Northern,2210,Eating & Drinking w/ Take Out,42.3536,-71.0461,South Boston
Starbucks Coffee #9463,84 State,2109,Eating & Drinking w/ Take Out,42.3591,-71.0557,No Details
Starbucks Coffee @Westin Copley,10 Huntington,2116,Eating & Drinking w/ Take Out,42.3485,-71.0773,Back Bay
STARBUCKS COFFEE CO.,222 Cambridge,2114,Eating & Drinking w/ Take Out,42.361,-71.0665,Beacon Hill
Starbucks Coffee Co. #7808,1804 Centre,2132,Eating & Drinking w/ Take Out,42.2872,-71.1526,Roxbury
Starbucks Coffee Co. #872,350 Newbury,2115,Eating & Drinking w/ Take Out,42.3481,-71.0871,Back Bay
Starbucks Coffee Co. #875,228 Washington,2109,Eating & Drinking w/ Take Out,42.3581,-71.0577,Downtown Boston
Starbucks Coffee Company,11 Broadway,2127,Eating & Drinking w/ Take Out,42.3425,-71.0569,South Boston
STARBUCKS COFFEE INC.,627 Tremont,2118,Eating & Drinking w/ Take Out,42.3426,-71.0746,South End
Starbucks@Boston Childrens(Sodexo),300 Longwood,2115,Eating & Drinking w/ Take Out,42.3369,-71.1054,Fenway/Kenmore
STASH'S PIZZA,612 Blue Hill,2121,Eating & Drinking w/ Take Out,42.3032,-71.0849,Roxbury
STASH'S ROSLINDALE,330 Belgrade,2131,Eating & Drinking w/ Take Out,42.2859,-71.1451,Roslindale
State Street Financial Cafeteria,1 Lincoln,2111,Eating & Drinking,42.3529,-71.0587,Downtown Boston
State Street Financial Executive Dining,1 Lincoln,2111,Eating & Drinking,42.3529,-71.0587,Downtown Boston
State Street Provisions,255 State,2109,Eating & Drinking,42.3594,-71.0511,North End
Station Bistro & KTV,20 Hudson,2111,Eating & Drinking,42.3504,-71.06,No Details
Stats Bar & Grille,77 Dorchester,2127,Eating & Drinking,42.3358,-71.0453,South Boston
STEFANO'S PIZZA,863 Washington,2124,Eating & Drinking w/ Take Out,42.2816,-71.0713,Dorchester
STEPHANIE'S ON NEWBURY,190 Newbury,2116,Eating & Drinking,42.3502,-71.0796,Back Bay
Sterlings,60 State,2109,Eating & Drinking,42.3593,-71.0564,Downtown Boston
Stillwater,120 Kingston,2111,Eating & Drinking,42.3523,-71.0591,Downtown Boston
Stockyard,135 Market,2134,Eating & Drinking,42.3578,-71.1486,Brighton
Stop & Shop #412,1622 Tremont,2120,Eating & Drinking,42.3338,-71.1046,Mission Hill
Stop & Shop #413,1025 Truman,2136,Eating & Drinking,42.2425,-71.1273,Hyde Park
Stop & Shop Supermarket #075,301 Centre,2130,Eating & Drinking,42.3241,-71.1031,Jamaica Plain
Stop and Taste Pizza Grill,239 Dudley,2119,Eating & Drinking w/ Take Out,42.3284,-71.0797,Roxbury
Storyville,47 Huntington,2116,Eating & Drinking,42.3484,-71.0786,Back Bay
STREGA,379 Hanover,2113,Eating & Drinking,42.365,-71.0531,North End
Strip by Strega,64 Arlington,2116,Eating & Drinking,42.3507,-71.0699,Back Bay
Su Su Gourmet,70 Tyler,2111,Eating & Drinking,42.3492,-71.0612,No Details
Suasday,227 Hanover,2113,Eating & Drinking w/ Take Out,42.363,-71.0551,North End
Subway,11 Broadway,2127,Eating & Drinking w/ Take Out,42.3425,-71.0569,South Boston
Subway,1281 Hyde Park,2136,Eating & Drinking w/ Take Out,42.2553,-71.1245,Hyde Park
Subway,13 William C Kelly,2128,Eating & Drinking w/ Take Out,42.3746,-71.0388,East Boston
Subway,1576 Dorchester,2122,Eating & Drinking w/ Take Out,42.2971,-71.0605,Dorchester
Subway,1578 Tremont,2120,Eating & Drinking w/ Take Out,42.3332,-71.1026,Mission Hill
Subway,2195 Commonwealth,2135,Eating & Drinking w/ Take Out,42.3398,-71.1664,Chestnut Hill
Subway,260 Western,2134,Eating & Drinking w/ Take Out,42.3631,-71.1333,Allston
Subway,340 Longwood,2115,Eating & Drinking w/ Take Out,42.3383,-71.107,Fenway/Kenmore
Subway,390 Massachusetts,2115,Eating & Drinking w/ Take Out,42.3415,-71.0826,South End
Subway,401 Washington,2135,Eating & Drinking w/ Take Out,42.3494,-71.1553,Brighton
Subway,4238 Washington,2131,Eating & Drinking w/ Take Out,42.2859,-71.1283,Roslindale
Subway,875 William T Morrissey,2122,Eating & Drinking,42.2936,-71.0479,Dorchester
Subway,944 Bennington,2128,Eating & Drinking w/ Take Out,42.3862,-71.0095,East Boston
Subway,981 Tremont,2120,Eating & Drinking,42.3373,-71.0844,South End
Suffolk University 150 Tremont,150 Tremont,2111,Eating & Drinking w/ Take Out,42.3548,-71.0631,Beacon Hill
Suffolk University Sargent Hall,120 Tremont,2108,Eating & Drinking w/ Take Out,42.3568,-71.0613,Downtown Boston
Suffolk University Sawyer Cafe,8 Ashburton,2108,Eating & Drinking w/ Take Out,42.3589,-71.0618,Beacon Hill
Suffolk University Smith Cafe,20 Somerset,2108,Eating & Drinking w/ Take Out,42.3597,-71.0618,Beacon Hill
Sufra,52 Queensberry,2115,Eating & Drinking,42.3426,-71.0973,Fenway/Kenmore
Sugar Bowl Cafe LLC,857 Dorchester,2125,Eating & Drinking,42.3215,-71.057,Dorchester
sultana's bakery & cafe,1585 Commonwealth,2135,Eating & Drinking w/ Take Out,42.3443,-71.1431,Brighton
Summer Shack,50 Dalton,2115,Eating & Drinking,42.3471,-71.0856,Fenway/Kenmore
SUN PIZZA,46 Washington,2121,Eating & Drinking w/ Take Out,42.3072,-71.0821,Roxbury
Sunny Cafe,1000 Bennington,2128,Eating & Drinking w/ Take Out,42.3869,-71.0069,East Boston
Super Bien,525 Western,2135,Eating & Drinking w/ Take Out,42.3657,-71.1357,Brighton
Super Emoji,217 Newbury,2116,Eating & Drinking w/ Take Out,42.3501,-71.0814,Back Bay
Super Stop & Shop,1100 Massachusetts,2125,Eating & Drinking,42.3265,-71.0652,Dorchester
Super Stop & Shop #89,60 Everett,2135,Eating & Drinking,42.3565,-71.1392,Allston
Supreme House of Pizza,309 Old Colony,2127,Eating & Drinking w/ Take Out,42.3297,-71.0529,South Boston
Supreme Pizza,177 Massachusetts,2115,Eating & Drinking w/ Take Out,42.3458,-71.0873,Fenway/Kenmore
SUSAN BAILIS ASSISTED LIVING,352 Massachusetts,2115,Eating & Drinking,42.3421,-71.0835,Fenway/Kenmore
Sushi Kappo,84 Peterborough,2115,Eating & Drinking w/ Take Out,42.3431,-71.0991,Fenway/Kenmore
SUSHI TIME,417 Washington,2108,Eating & Drinking w/ Take Out,42.3558,-71.0604,Downtown Boston
Sushi Today,1562 Tremont,2120,Eating & Drinking,42.3329,-71.1017,Mission Hill
Suya Joint,185 Dudley,2119,Eating & Drinking,42.3283,-71.082,Roxbury
Sweet Boba,9 William C Kelly,2128,Eating & Drinking w/ Take Out,42.3745,-71.0388,East Boston
Sweet Cheeks,144 Brookline,2215,Eating & Drinking,42.3444,-71.1011,Fenway/Kenmore
Sweet Cheeks/Fool's Errand,144 Brookline,2215,Eating & Drinking,42.3444,-71.1011,Fenway/Kenmore
Sweet Kingdom,145 Harvard,2134,Eating & Drinking w/ Take Out,42.3521,-71.1321,Allston
Sweet Kingdom,15 Beach,2111,Eating & Drinking w/ Take Out,42.3514,-71.0623,No Details
Sweet Life Bakery and Cafe,2243 Dorchester,2124,Eating & Drinking,42.2738,-71.0679,Dorchester
Sweet Rice,695 Centre,2130,Eating & Drinking,42.3118,-71.1145,Jamaica Plain
Sweet Waffles & Boba,18 Hudson,2111,Eating & Drinking w/ Take Out,42.3505,-71.06,No Details
Sweetgreen,15 School,2108,Eating & Drinking,42.3576,-71.0588,Downtown Boston
Sweetgreen,225 Franklin,2110,Eating & Drinking,42.3561,-71.0541,Downtown Boston
Sweetgreen,296 Cambridge,2114,Eating & Drinking,42.3609,-71.0684,Beacon Hill
Sweetgreen,350 Longwood,2115,Eating & Drinking,42.3391,-71.1081,Fenway/Kenmore
Sweetgreen,364 Congress,2210,Eating & Drinking,42.3502,-71.0479,South Boston
Sweetgreen,60 State,2109,Eating & Drinking,42.3593,-71.0564,Downtown Boston
Sweetgreen,659 Boylston,2116,Eating & Drinking,42.35,-71.0786,Back Bay
Sweetgreen,800 Boylston,2199,Eating & Drinking w/ Take Out,42.3473,-71.0815,Back Bay
Sweetgreen,87 Summer,2110,Eating & Drinking,42.3538,-71.0586,Downtown Boston
Swiss Bakers,168 Western,2134,Eating & Drinking,42.363,-71.1285,Allston
SYMPHONY SUSHI,45 Gainsborough,2115,Eating & Drinking,42.342,-71.0871,Fenway/Kenmore
Taco Bell,449 Broadway,2127,Eating & Drinking w/ Take Out,42.3359,-71.0468,South Boston
Taco Bell,74 Summer,2110,Eating & Drinking,42.3541,-71.0583,Downtown Boston
Taco Bell # 29265,1560 VFW,2132,Eating & Drinking w/ Take Out,42.2667,-71.1686,Roxbury
TACO MEX,65 Maverick,2128,Eating & Drinking w/ Take Out,42.3697,-71.0387,East Boston
TAIWAN CAFE,34 Oxford,2111,Eating & Drinking,42.3515,-71.0602,No Details
TALK AND WOK CAFE,1277 River,2136,Eating & Drinking,42.256,-71.1243,Hyde Park
TANGIERINO/The Boston Cigar Club,83 Main,2129,Eating & Drinking,42.3739,-71.0627,Charlestown
Taqueria,2297 Dorchester,2124,Eating & Drinking,42.2724,-71.0682,Dorchester
Taqueria El Barrio,201 Brookline,2215,Eating & Drinking w/ Take Out,42.3446,-71.1022,Fenway/Kenmore
TAQUERIA EL CARRIZAL,248 Brighton,2134,Eating & Drinking,42.3533,-71.1367,Allston
TAQUERIA JALISCO,291 Bennington,2128,Eating & Drinking w/ Take Out,42.3787,-71.0282,East Boston
Tarboosh Pizza & Grill,2 Brighton,2134,Eating & Drinking w/ Take Out,42.352,-71.1262,Allston
Target Pizza,5200 Washington,2132,Eating & Drinking w/ Take Out,42.2611,-71.1568,Roxbury
TASCA RESTAURANT,1612 Commonwealth,2135,Eating & Drinking,42.3433,-71.1427,Brighton
Taste of Eden,38 Norfolk,2124,Eating & Drinking w/ Take Out,42.2892,-71.0728,Dorchester
Tasty BBQ,417 Washington,2108,Eating & Drinking w/ Take Out,42.3558,-71.0604,Downtown Boston
Tasty Burger,1301 Boylston,2215,Eating & Drinking,42.3447,-71.0983,Fenway/Kenmore
Tasty Burger 6,48 Winter,2108,Eating & Drinking,42.3559,-71.0619,Downtown Boston
Tasty Burger Back Bay,145 Dartmouth,2116,Eating & Drinking,42.3474,-71.0748,South End
Tatte Bakery & Cafe,1350 Boylston,2215,Eating & Drinking,42.3438,-71.0995,Fenway/Kenmore
Tatte Bakery & Cafe,345 Harrison,2118,Eating & Drinking,42.3452,-71.0645,South End
Tatte Bakery & Cafe,359 Huntington,2115,Eating & Drinking,42.3403,-71.0903,Fenway/Kenmore
Tatte Bakery & Cafe,399 Boylston,2116,Eating & Drinking,42.3518,-71.0721,Back Bay
Tatte Bakery & Cafe,70 Charles,2114,Eating & Drinking w/ Take Out,42.3579,-71.0706,Beacon Hill
Tatte Bakery & Cafe,80 Boylston,2116,Eating & Drinking,42.3522,-71.0649,Beacon Hill
Tavern Club,4 Boylston,2116,Eating & Drinking,42.3519,-71.0662,Beacon Hill
Tavern In The Square,161 Brighton,2134,Eating & Drinking,42.3533,-71.1324,Allston
Tavern In The Square Restaurant (So. Station),640 Atlantic,2110,Eating & Drinking,42.35,-71.0559,Downtown Boston
Tawakal Halal Cafe,389 Maverick,2128,Eating & Drinking,42.3657,-71.029,East Boston
TBaar,754 Huntington,2115,Eating & Drinking w/ Take Out,42.3335,-71.1057,Mission Hill
Tea Do/ Ice Age,8 Tyler,2111,Eating & Drinking,42.351,-71.0604,No Details
TEATRO,177 Tremont,2111,Eating & Drinking,42.353,-71.064,Beacon Hill
Teddys on the Hill/Red Hat,9 Bowdoin,2114,Eating & Drinking,42.361,-71.0632,Beacon Hill
Telegraph Hill Tavern,289 Dorchester,2127,Eating & Drinking,42.332,-71.0528,South Boston
Ten One Tea House,1325 Boylston,2215,Eating & Drinking w/ Take Out,42.3445,-71.0992,Fenway/Kenmore
Ten One Tea House,279 Newbury,2116,Eating & Drinking w/ Take Out,42.3494,-71.084,Back Bay
Ten Second Noodles,417 Cambridge,2134,Eating & Drinking,42.3551,-71.1341,Allston
TEN TABLES,597 Centre,2130,Eating & Drinking,42.3149,-71.1143,Jamaica Plain
Tenderonis,100 High,2110,Eating & Drinking w/ Take Out,42.3544,-71.0554,Downtown Boston
Tenoch Mexican,3 Lewis,2109,Eating & Drinking w/ Take Out,42.3633,-71.0519,North End
Teriyaki House,32 Broadway,2127,Eating & Drinking w/ Take Out,42.3427,-71.0564,South Boston
Terra Restaurant,800 Boylston,2199,Eating & Drinking,42.3473,-71.0815,Back Bay
Terrace Cafe,100 Guest,2135,Eating & Drinking,42.3574,-71.1447,Brighton
TERRAMIA RISTORANTE,98 Salem,2113,Eating & Drinking,42.3641,-71.0557,North End
THAI BASIL,132 Newbury,2116,Eating & Drinking,42.3509,-71.0767,Back Bay
THAI DISH RESTAURANT,270 Babcock,2215,Eating & Drinking,42.3527,-71.1218,Allston
Thai North Restaurant,433 Faneuil,2135,Eating & Drinking w/ Take Out,42.3512,-71.1685,Brighton
Thai Oishi,203 Adams,2122,Eating & Drinking,42.3019,-71.0602,Dorchester
Thai Place Restaurant,184 Brighton,2134,Eating & Drinking w/ Take Out,42.353,-71.1337,Allston
Thai Spice,1745 Centre,2132,Eating & Drinking w/ Take Out,42.2875,-71.1502,Roxbury
Thaitation,129 Jersey,2215,Eating & Drinking,42.3423,-71.097,Fenway/Kenmore
Thazia,21 Dry Dock,2210,Eating & Drinking w/ Take Out,42.3443,-71.0309,South Boston
The Alley Bar,275 Washington,2108,Eating & Drinking,42.3578,-71.0582,Downtown Boston
The Anchor,36 First,2129,Eating & Drinking,42.3749,-71.0541,Charlestown
The Avenue Bar & Grill,1249 Commonwealth,2134,Eating & Drinking,42.3502,-71.1321,Allston
The Avenue Grille,856 Dorchester,2127,Eating & Drinking w/ Take Out,42.3215,-71.0566,Dorchester
The Backstage Cafe @Emerson,2 Boylston,2116,Eating & Drinking w/ Take Out,42.352,-71.0661,Beacon Hill
THE BARKING CRAB,88 Sleeper,2210,Eating & Drinking,42.3539,-71.0486,South Boston
The Beehive,537 Tremont,2116,Eating & Drinking,42.3447,-71.0714,South End
THE BELVEDERE CONDOMINIUM,100 Belvidere,2116,Eating & Drinking,42.346,-71.0822,Back Bay
THE BOSTON ICE CREAM FACTORY,777 William T Morrissey,2122,Eating & Drinking w/ Take Out,42.2948,-71.0483,Dorchester
The Bostonian Boston - A Millennium Hotel,20 North,2109,Eating & Drinking,42.3607,-71.0563,No Details
The Boxer dba Finch,105 Merrimac,2114,Eating & Drinking,42.3639,-71.0624,West End
The Broadway Restaurant,732 Broadway,2127,Eating & Drinking,42.3359,-71.0361,South Boston
The Butcher Shop,552 Tremont,2118,Eating & Drinking,42.3438,-71.0715,South End
THE CAFE ON NEW CHARDON ST.,25 New Chardon,2114,Eating & Drinking w/ Take Out,42.3621,-71.0617,West End
THE CATERED AFFAIR @ BOS. PUBLIC LIBRARY(T.O.),700 Boylston,2116,Eating & Drinking w/ Take Out,42.3492,-71.0787,Back Bay
The Causeway,65 Causeway,2114,Eating & Drinking,42.3644,-71.0627,West End
THE CHARLES PLAYHOUSE,74 Warrenton,2116,Eating & Drinking,42.35,-71.0662,No Details
The Circle Pizza & Tavern,354 Chestnut Hill,2135,Eating & Drinking w/ Take Out,42.3369,-71.1515,Brighton
The Corner Pub of Chinatown,162 Lincoln,2111,Eating & Drinking,42.3508,-71.0584,Downtown Boston
The Corner Restaurant,156 Bunker Hill,2129,Eating & Drinking w/ Take Out,42.3783,-71.0609,Charlestown
The Corner Tavern,421 Marlborough,2115,Eating & Drinking,42.3501,-71.0894,Back Bay
The Delux Cafe,100 Chandler,2116,Eating & Drinking,42.3463,-71.0729,South End
The Draft Bar & Grill,32 Harvard,2134,Eating & Drinking,42.3549,-71.1323,Allston
The Dubliner,2 Center,2108,Eating & Drinking,42.3598,-71.0602,No Details
THE ELEPHANT WALK,1415 Washington,2118,Eating & Drinking,42.3412,-71.0705,South End
The Farmacy,100 High,2110,Eating & Drinking w/ Take Out,42.3544,-71.0554,Downtown Boston
The Fed,250 Franklin,2110,Eating & Drinking,42.3566,-71.0543,Downtown Boston
THE FIELD HOUSE,100 Ashford,2134,Eating & Drinking w/ Take Out,42.3546,-71.1237,Allston
The Flamingo,266 Commercial,2109,Eating & Drinking,42.3643,-71.0513,North End
The Fourth Wall,228 Tremont,2116,Eating & Drinking,42.3513,-71.0646,No Details
The Friendly Toast,35 Stanhope,2116,Eating & Drinking,42.3485,-71.0733,Back Bay
THE GOOD LIFE,28 Kingston,2111,Eating & Drinking,42.3534,-71.059,Downtown Boston
The Greatest Bar,262 Friend,2114,Eating & Drinking,42.3645,-71.0614,West End
THE HARP,85 Causeway,2114,Eating & Drinking,42.3646,-71.0623,West End
The Haven at the Brewery,284 Amory,2130,Eating & Drinking,42.3146,-71.1045,Roxbury
THE HILL TAVERN,228 Cambridge,2114,Eating & Drinking,42.361,-71.0666,Beacon Hill
The Hopewell Bar & Kitchen,1277 Commonwealth,2134,Eating & Drinking,42.3498,-71.1334,Allston
THE HUB PUB,18 Province,2108,Eating & Drinking,42.3573,-71.0596,Downtown Boston
The Hummus Republic,274 Franklin,2110,Eating & Drinking,42.357,-71.0535,Downtown Boston
The Ice Creamsmith,2295 Dorchester,2124,Eating & Drinking w/ Take Out,42.2724,-71.0682,Dorchester
The Inn @ St. Botolph,99 Saint Botolph,2116,Eating & Drinking,42.345,-71.0809,Back Bay
The Joint,605 Centre,2130,Eating & Drinking,42.3148,-71.1143,Jamaica Plain
The Juicery,700 Commonwealth,2115,Eating & Drinking w/ Take Out,42.3494,-71.104,Cambridge
The Kenmore,476 Commonwealth,2215,Eating & Drinking,42.3485,-71.0939,Fenway/Kenmore
The Koji Club,525 Western,2135,Eating & Drinking,42.3657,-71.1357,Brighton
The Landing,6 Long,2110,Eating & Drinking w/ Take Out,42.3601,-71.0503,North End
The Langham Club,250 Franklin,2110,Eating & Drinking,42.3566,-71.0543,Downtown Boston
The Langham Hotel/Grana,250 Franklin,2110,Eating & Drinking,42.3566,-71.0543,Downtown Boston
The Lansdowne,9 Lansdowne,2215,Eating & Drinking w/ Take Out,42.3473,-71.0951,Fenway/Kenmore
The Liberty Hotel,215 Charles,2114,Eating & Drinking,42.362,-71.0704,West End
THE MASTER MCGRATH,1152 River,2136,Eating & Drinking,42.2565,-71.1203,Hyde Park
The Merchant,60 Franklin,2110,Eating & Drinking,42.3558,-71.0584,Downtown Boston
The Newbury- Banquet & Room Service 2nd Floor,15 Arlington,2116,Eating & Drinking,42.3528,-71.0716,Back Bay
The Newbury Street Bar,15 Arlington,2116,Eating & Drinking,42.3528,-71.0716,Back Bay
The Oceanaire Seafood Room,40 Court,2108,Eating & Drinking,42.359,-71.0593,Downtown Boston
The Olive Garden Italian Restaurant # 1674,1118 Massachusetts,2125,Eating & Drinking,42.3263,-71.0653,Dorchester
The Oyster Bar,200 Faneuil Hall Marketplace,2109,Eating & Drinking,42.3602,-71.0548,No Details
The Paramount,667 Broadway,2127,Eating & Drinking,42.3354,-71.0379,South Boston
The Playwright,658 Broadway,2127,Eating & Drinking,42.3358,-71.0381,South Boston
THE POINT,145 Hanover,2108,Eating & Drinking,42.3617,-71.057,No Details
The Porter Cafe,1723 Centre,2132,Eating & Drinking,42.2874,-71.1492,Roxbury
The Q,640 Washington,2111,Eating & Drinking,42.352,-71.0621,Downtown Boston
The Quietfew,331 Sumner,2128,Eating & Drinking,42.3671,-71.036,East Boston
The Quin,217 Commonwealth,2116,Eating & Drinking,42.3514,-71.0819,Back Bay
The Quin Bondo Restaurant,217 Commonwealth,2116,Eating & Drinking,42.3514,-71.0819,Back Bay
The Real Deal,1882 Centre,2132,Eating & Drinking,42.2857,-71.1555,Roxbury
The Real Deal,728 Centre,2130,Eating & Drinking w/ Take Out,42.3109,-71.1144,Jamaica Plain
The Reef,250 Atlantic,2110,Eating & Drinking,42.3569,-71.0504,North End
The Scoop N Scootery,2 Chestnut Hill,2135,Eating & Drinking w/ Take Out,42.3489,-71.1533,Brighton
The Scoop N Scootery,73 Linden,2134,Eating & Drinking w/ Take Out,42.3525,-71.1304,Allston
The Shames Cafe,100 Newton,2118,Eating & Drinking w/ Take Out,42.3363,-71.0701,South End
The Square Root,2 Corinth,2131,Eating & Drinking,42.2867,-71.1304,Roslindale
The Tavern At The End Of The World,108 Cambridge,2129,Eating & Drinking,42.3822,-71.0794,Charlestown
The Trophy Room,26 Chandler,2116,Eating & Drinking,42.347,-71.0705,South End
THE UNION LOUNGE,180 Mount Vernon,2125,Eating & Drinking,42.3221,-71.0469,Dorchester
The Upper Crust,20 Charles,2114,Eating & Drinking w/ Take Out,42.3568,-71.07,Beacon Hill
The Upper Crust,683 Tremont,2118,Eating & Drinking w/ Take Out,42.3416,-71.0766,South End
The Well Coffee House Boston,62 William C Kelly,2128,Eating & Drinking,42.3741,-71.04,East Boston
The Westland,8 Westland,2115,Eating & Drinking,42.3432,-71.0865,Fenway/Kenmore
The Wild Rover Tavern,61 Chatham,2109,Eating & Drinking,42.3596,-71.054,No Details
The Wright Grill @ Geo. Wright Golf Course,420 West,2136,Eating & Drinking,42.2684,-71.1329,Hyde Park
THEO'S COZY CORNER RESTAURANT,162 Salem,2113,Eating & Drinking,42.3661,-71.0551,North End
Thinking Cup L L C,165 Tremont,2111,Eating & Drinking,42.3539,-71.0637,Beacon Hill
Thinking Cup Newbury,85 Newbury,2116,Eating & Drinking,42.3519,-71.075,Back Bay
Third Cliff Bakery,3521 Washington,2130,Eating & Drinking w/ Take Out,42.3054,-71.1089,Jamaica Plain
Thorntons Fenway Grille,100 Peterborough,2215,Eating & Drinking,42.343,-71.0994,Fenway/Kenmore
Thyme 2 Eat,11 Walter,2136,Eating & Drinking w/ Take Out,42.2569,-71.1193,Hyde Park
TIA'S WATERFRONT,200 Atlantic,2110,Eating & Drinking,42.3569,-71.0504,North End
Tiger Sugar,14 Tyler,2111,Eating & Drinking w/ Take Out,42.3509,-71.0605,No Details
Tiki Rock/Oisa,131 State,2109,Eating & Drinking,42.359,-71.0542,Downtown Boston
Tikki Masala Indian Restaurant,3706 Washington,2130,Eating & Drinking,42.3004,-71.113,Roslindale
Time Out Market (Boston) Bar 1,401 Park,2215,Eating & Drinking,42.3445,-71.1028,Fenway/Kenmore
Time Out Market (Boston) Bar 2,401 Park,2215,Eating & Drinking,42.3445,-71.1028,Fenway/Kenmore
Tin Tin Buffet,200 Beacon,2135,Eating & Drinking w/ Take Out,42.3557,-71.1482,Brighton
Tip Tap Room,138 Cambridge,2114,Eating & Drinking,42.361,-71.0639,Beacon Hill
Tom English Cottage,112 Emerson,2127,Eating & Drinking,42.3359,-71.0405,South Boston
Tony & Elaine's,111 Washington,2113,Eating & Drinking,42.3656,-71.0581,North End
Tony's Place,186 Baker,2132,Eating & Drinking w/ Take Out,42.276,-71.1672,Roxbury
Top Griyo Restaurant,994 Blue Hill,2124,Eating & Drinking w/ Take Out,42.2899,-71.0893,Mattapan
Top Mix Bar & Kitchen,257 Norfolk,2119,Eating & Drinking,42.3237,-71.0681,Roxbury
Top Mix Bar & Kitchen,365 Centre,2130,Eating & Drinking,42.3227,-71.1082,Jamaica Plain
Top of The Hill,1357 Blue Hill,2126,Eating & Drinking w/ Take Out,42.2775,-71.0938,Mattapan
Top Shelf Cookies,516 Gallivan,2124,Eating & Drinking w/ Take Out,42.2829,-71.0556,Dorchester
TOPASIO RESTAURANT,120 Meridian,2128,Eating & Drinking,42.3735,-71.0392,East Boston
Tora Japanese Restaurant,20 Tyler,2111,Eating & Drinking,42.3507,-71.0606,No Details
Tora Ramen,99 Harrison,2111,Eating & Drinking,42.3508,-71.0616,No Details
Tori Japan,315 Centre,2130,Eating & Drinking w/ Take Out,42.323,-71.1039,Jamaica Plain
Tori Japan,62 William C Kelly,2128,Eating & Drinking w/ Take Out,42.3741,-71.04,East Boston
TORO,1704 Washington,2118,Eating & Drinking,42.3369,-71.0759,South End
Tostado,300 Centre,2130,Eating & Drinking w/ Take Out,42.3228,-71.1031,Jamaica Plain
Toutwel Restaurant,643 River,2126,Eating & Drinking,42.2651,-71.0995,Hyde Park
Trade,520 Atlantic,2110,Eating & Drinking,42.3533,-71.0529,Downtown Boston
Tradesman,89 Broad,2110,Eating & Drinking,42.3574,-71.0532,Downtown Boston
Tradesman 100 Federal,100 Federal,2110,Eating & Drinking w/ Take Out,42.3548,-71.0561,Downtown Boston
TREMONT HOUSE OF PIZZA,1586 Tremont,2120,Eating & Drinking w/ Take Out,42.3334,-71.103,Mission Hill
Tres Gatos Cafe,470 Centre,2130,Eating & Drinking,42.3191,-71.1116,Jamaica Plain
TRIDENT BOOKSELLERS AND CAFE,338 Newbury,2115,Eating & Drinking,42.3482,-71.0866,Back Bay
Trillium Fenway,201 Brookline,2215,Eating & Drinking,42.3446,-71.1022,Fenway/Kenmore
Trio Cafe,212 Northern,2210,Eating & Drinking w/ Take Out,42.3504,-71.0382,South Boston
Triple Eatery,77 Cummins,2131,Eating & Drinking w/ Take Out,42.2845,-71.1256,Roslindale
Troquet On South,107 South,2111,Eating & Drinking,42.3514,-71.0575,Downtown Boston
Tsaocaa Tea,10 Tyler,2111,Eating & Drinking w/ Take Out,42.351,-71.0605,No Details
Tu Metapan Restaurant,295 Bennington,2128,Eating & Drinking,42.3787,-71.0281,East Boston
Tully Tavern/Grandstand Bar,4 Jersey,2215,Eating & Drinking w/ Take Out,42.3467,-71.0987,Fenway/Kenmore
Tunnel,100 Stuart,2116,Eating & Drinking,42.3509,-71.0653,No Details
Turkish Lazuri Cafe,487 Cambridge,2134,Eating & Drinking,42.3538,-71.1373,Allston
Turtle Swamp Brewing,3377 Washington,2130,Eating & Drinking,42.3091,-71.1056,Jamaica Plain
Tuscan Kitchen,28 Northern,2210,Eating & Drinking,42.3528,-71.0445,South Boston
Tutti Frutti,382 Chelsea,2128,Eating & Drinking w/ Take Out,42.3794,-71.028,East Boston
Twelve Bens,315 Adams,2122,Eating & Drinking,42.2986,-71.0576,Dorchester
TWIN DONUTS,501 Cambridge,2134,Eating & Drinking w/ Take Out,42.3535,-71.138,Allston
Two Saints Tavern,54 Gainsborough,2115,Eating & Drinking,42.3418,-71.0873,Fenway/Kenmore
Typhoon Restaurant,725 Boylston,2116,Eating & Drinking,42.3496,-71.0803,Back Bay
Ugi's Pizza,69 Heath,2120,Eating & Drinking w/ Take Out,42.3266,-71.1005,Mission Hill
UGIS SUBS,62 Warren,2119,Eating & Drinking w/ Take Out,42.3284,-71.0831,Roxbury
Ula Cafe,284 Amory,2130,Eating & Drinking,42.3146,-71.1045,Roxbury
Ultra Spicy Pot,66 Brighton,2134,Eating & Drinking,42.3524,-71.1288,Allston
Umai Japanese Restaurant,224 Newbury,2116,Eating & Drinking,42.3497,-71.0812,Back Bay
UMass Boston Dining Commons,100 William T Morrissey,2125,Eating & Drinking,42.3131,-71.0389,Dorchester
UMass Club,1 Beacon,2108,Eating & Drinking,42.3584,-71.0608,Beacon Hill
Underdog Hot Chicken,160 Brighton,2134,Eating & Drinking,42.3528,-71.1326,Allston
UNI,370 Commonwealth,2215,Eating & Drinking,42.3486,-71.0887,Back Bay
Unidine Cafe @ RSM,80 City,2129,Eating & Drinking,42.3713,-71.0609,Charlestown
Unidine Cafe Coffee Bar,529 Main,2129,Eating & Drinking w/ Take Out,42.3845,-71.0719,Charlestown
Union Club of Boston,8 Park,2108,Eating & Drinking,42.3575,-71.0627,Beacon Hill
UNION OYSTER HOUSE,41 Union,2108,Eating & Drinking,42.3613,-71.0569,No Details
Union Park Pizza,1403 Washington,2118,Eating & Drinking,42.3413,-71.0703,South End
Union Square Donuts,201 Brookline,2215,Eating & Drinking w/ Take Out,42.3446,-71.1022,Fenway/Kenmore
UNITED HOUSE OF PRAYER FOR ALL PEOPLE,206 Seaver,2121,Eating & Drinking,42.3082,-71.0889,Roxbury
University Club of Boston,426 Stuart,2116,Eating & Drinking,42.3485,-71.0748,Back Bay
UNIVERSITY HOUSE OF PIZZA,452 Huntington,2115,Eating & Drinking,42.3386,-71.0928,Mission Hill
Urban Hearth,201 Brookline,2215,Eating & Drinking w/ Take Out,42.3446,-71.1022,Fenway/Kenmore
Vaanga,102 Water,2109,Eating & Drinking w/ Take Out,42.3581,-71.0551,Downtown Boston
Vaisakhi Indian Kitchen,157 Sutherland,2135,Eating & Drinking,42.3411,-71.1468,Brighton
VAUGHN'S FISH N CHIPS,1 Erie,2121,Eating & Drinking w/ Take Out,42.3033,-71.0788,Roxbury
Vee Vee,763 Centre,2130,Eating & Drinking,42.3103,-71.1153,Jamaica Plain
Vegas Restaurant,1592 Blue Hill,2126,Eating & Drinking w/ Take Out,42.2696,-71.0932,Mattapan
Vejigantes Restaurant,57 Dedham,2118,Eating & Drinking,42.3419,-71.0724,South End
VENEZIA RESTAURANT (HARBOR LIGHTS),20 R Ericsson,2122,Eating & Drinking,42.2921,-71.0402,Dorchester
Verizon - Associate Pantries Fl. 16,100 Causeway,2114,Eating & Drinking,42.3652,-71.0612,West End
Verizon - Associate Pantries Fl. 17,100 Causeway,2114,Eating & Drinking,42.3652,-71.0612,West End
Verizon - Associate Pantries Fl. 18,100 Causeway,2114,Eating & Drinking,42.3652,-71.0612,West End
Verizon - Associate Pantries Fl. 19,100 Causeway,2114,Eating & Drinking,42.3652,-71.0612,West End
Verizon - Associate Pantries Fl. 20,100 Causeway,2114,Eating & Drinking,42.3652,-71.0612,West End
Verizon - Associate Pantries Fl. 21,100 Causeway,2114,Eating & Drinking,42.3652,-71.0612,West End
Verizon - Associate Pantries Fl. 22,100 Causeway,2114,Eating & Drinking,42.3652,-71.0612,West End
Verizon - Associate Pantries Fl. 30,100 Causeway,2114,Eating & Drinking,42.3652,-71.0612,West End
Verizon - Coffee Bar,100 Causeway,2114,Eating & Drinking w/ Take Out,42.3652,-71.0612,West End
Verizon- 15th Floor Coffee Bar,100 Causeway,2114,Eating & Drinking w/ Take Out,42.3652,-71.0612,West End
Verizon- Banquet Staging Kitchen,100 Causeway,2114,Eating & Drinking,42.3652,-71.0612,West End
Verizon- Catering Kitchen,100 Causeway,2114,Eating & Drinking,42.3652,-71.0612,West End
Versus,42 Province,2108,Eating & Drinking,42.3569,-71.0599,Downtown Boston
VHP,4 Jersey,2215,Eating & Drinking w/ Take Out,42.3467,-71.0987,Fenway/Kenmore
Vi Vi Bubble Tea Brighton,364 Washington,2135,Eating & Drinking w/ Take Out,42.349,-71.1536,Brighton
Victoria Seafood,1029 Commonwealth,2215,Eating & Drinking,42.3522,-71.1217,Allston
Victoria's Diner,1024 Massachusetts,2118,Eating & Drinking,42.3271,-71.0668,Dorchester
Viga,140 Clarendon,2116,Eating & Drinking w/ Take Out,42.3486,-71.0744,Back Bay
Viga (133 Pearl Street),133 Pearl,2110,Eating & Drinking w/ Take Out,42.3547,-71.0538,Downtown Boston
Viga Italian Eatery,275 Washington,2108,Eating & Drinking w/ Take Out,42.3578,-71.0582,Downtown Boston
Vikos Pizza & Ribs,847 River,2126,Eating & Drinking w/ Take Out,42.2629,-71.1083,Hyde Park
Villa Francesca,150 Richmond,2113,Eating & Drinking,42.3633,-71.0546,North End
Villa Mexico Cafe,41 Broad,2109,Eating & Drinking w/ Take Out,42.3582,-71.0544,Downtown Boston
Villa Sombrero Restaurant,11 Blue Hill,2119,Eating & Drinking,42.3249,-71.0755,Roxbury
Village Sushi & Grill,10 Corinth,2131,Eating & Drinking,42.2866,-71.1302,Roslindale
Vino Volo,1 Harborside,2128,Eating & Drinking,42.3634,-71.0257,East Boston
Vino Volo,100 Terminal,2128,Eating & Drinking,42.3645,-71.0218,East Boston
Vintage Lounge,72 Broad,2110,Eating & Drinking,42.3577,-71.053,Downtown Boston
VIP Dillion Fieldhouse,65 Harvard,2134,Eating & Drinking w/ Take Out,42.3676,-71.1259,Allston
Viva Burrito,66 Staniford,2114,Eating & Drinking w/ Take Out,42.3627,-71.0642,West End
VIVA MI AREPA,5197 Washington,2132,Eating & Drinking w/ Take Out,42.2614,-71.1573,Roxbury
VRF,4 Jersey,2215,Eating & Drinking w/ Take Out,42.3467,-71.0987,Fenway/Kenmore
W Boston Banquets Main Kitchen,100 Stuart,2116,Eating & Drinking,42.3509,-71.0653,No Details
W Boston The Gallery Restaurant,100 Stuart,2116,Eating & Drinking,42.3509,-71.0653,No Details
W Boston The Library Bar,100 Stuart,2116,Eating & Drinking,42.3509,-71.0653,No Details
WAI WAI ICE CREAM SHOP,26 Oxford,2111,Eating & Drinking,42.3517,-71.0603,Downtown Boston
Waku Waku,2 Tyler,2111,Eating & Drinking w/ Take Out,42.3512,-71.0604,No Details
WALLY'S,427 Massachusetts,2118,Eating & Drinking,42.3407,-71.0823,South End
Ward 8,90 Washington,2114,Eating & Drinking,42.3654,-71.0587,West End
Warehouse Bar & Grille,40 Broad,2109,Eating & Drinking,42.3584,-71.054,Downtown Boston
WARREN TAVERN,2 Pleasant,2129,Eating & Drinking,42.3742,-71.0631,Charlestown
Waterstone at The Circle,385 Chestnut Hill,2135,Eating & Drinking,42.3348,-71.1505,Brighton
WBZ Cafe,1170 Soldiers Field,2134,Eating & Drinking,42.3649,-71.1334,Allston
Well Coffee House Boston,1A State,2109,Eating & Drinking w/ Take Out,42.3584,-71.0577,Downtown Boston
Wendy's,153 Massachusetts,2115,Eating & Drinking w/ Take Out,42.3464,-71.0876,Fenway/Kenmore
Wendy's,71 Summer,2110,Eating & Drinking w/ Take Out,42.3541,-71.059,Downtown Boston
Wens Rice Noodle & Ramen,247 Newbury,2116,Eating & Drinking w/ Take Out,42.3498,-71.0827,Back Bay
Wen's Rice Noodle and Ramen,144 Tremont,2111,Eating & Drinking,42.3553,-71.0628,Beacon Hill
WENTWORTH BEATTY HALL,550 Huntington,2115,Eating & Drinking w/ Take Out,42.3366,-71.0949,Mission Hill
West Garden,1890 Centre,2132,Eating & Drinking w/ Take Out,42.2854,-71.1558,Roxbury
West Napoli Pizza,1946 Centre,2132,Eating & Drinking w/ Take Out,42.2836,-71.1568,Roxbury
Westburry Restaurant,1836 Centre,2132,Eating & Drinking,42.2864,-71.1539,Roxbury
Westin Copley Place Ingredients,10 Huntington,2116,Eating & Drinking w/ Take Out,42.3485,-71.0773,Back Bay
Wheelhouse,100 High,2110,Eating & Drinking w/ Take Out,42.3544,-71.0554,Downtown Boston
Which Wich,324 Newbury,2115,Eating & Drinking,42.3484,-71.086,Back Bay
WHOLE FOODS MARKET,15 Westland,2115,Eating & Drinking,42.3437,-71.0865,Fenway/Kenmore
WHOLE FOODS MARKET(Cambridge St.),181 Cambridge,2114,Eating & Drinking,42.3621,-71.066,West End
Wichit Sandwich Inc.,244 Newbury,2116,Eating & Drinking,42.3494,-71.0824,Back Bay
Wing's Kitchen,13 Hudson,2111,Eating & Drinking w/ Take Out,42.3508,-71.0602,No Details
Wings Over Boston,325 Huntington,2115,Eating & Drinking,42.3409,-71.0881,Fenway/Kenmore
Wingz and Tingz,388 Blue Hill,2121,Eating & Drinking,42.3114,-71.0809,Roxbury
Winsor DimSum Cafe,10 Tyler,2111,Eating & Drinking,42.351,-71.0605,No Details
WIT Beatty Cafe,550 Huntington,2115,Eating & Drinking w/ Take Out,42.3366,-71.0949,Mission Hill
Wm. E. Carter Ameri. Legion Post 16,1531 Blue Hill,2126,Eating & Drinking,42.2715,-71.094,Mattapan
Wok N Talk,525 Washington,2135,Eating & Drinking,42.3492,-71.1629,Brighton
Wok 'N Talk,23 Huntington,2130,Eating & Drinking,42.3315,-71.1122,Mission Hill
Wolfgang Puck Pizza,1 Harborside,2128,Eating & Drinking w/ Take Out,42.3634,-71.0257,East Boston
Wolfgang's Steakhouse,201 Washington,2108,Eating & Drinking,42.3586,-71.0583,Downtown Boston
Wong's of Boston,417 Washington,2108,Eating & Drinking w/ Take Out,42.3558,-71.0604,Downtown Boston
Woodshill Table,130 Northern,2210,Eating & Drinking,42.3526,-71.0426,South Boston
WOODY'S GRILL & TAP,58 Hemenway,2115,Eating & Drinking,42.3448,-71.0894,Fenway/Kenmore
Woodys Pizza EF Inc.,1035 Saratoga,2128,Eating & Drinking w/ Take Out,42.386,-71.0053,East Boston
Wyndham Boston Beacon Hill-The Dean's List,5 Blossom,2114,Eating & Drinking,42.3618,-71.0666,West End
XI CHA,350 Longwood,2115,Eating & Drinking w/ Take Out,42.3391,-71.1081,Fenway/Kenmore
Xi'an Biang Biang Noodle,30 Massachusetts,2115,Eating & Drinking,42.3504,-71.089,Back Bay
Xian Rougamo,417 Washington,2108,Eating & Drinking,42.3558,-71.0604,Downtown Boston
Y5,4 Jersey,2215,Eating & Drinking w/ Take Out,42.3467,-71.0987,Fenway/Kenmore
Yale Appliance,296 Freeport,2125,Eating & Drinking,42.3027,-71.0516,Dorchester
Yamato II,545 Boylston,2116,Eating & Drinking,42.3508,-71.0758,Back Bay
Yamato Japanese Cuisine,111 Chiswick,2135,Eating & Drinking,42.3407,-71.1516,Brighton
Yanes Burrito's,3492 Washington,2130,Eating & Drinking w/ Take Out,42.3063,-71.1074,Jamaica Plain
Yard House,122 Brookline,2215,Eating & Drinking,42.3453,-71.1001,Fenway/Kenmore
Yard House #8391,110 Huntington,2116,Eating & Drinking,42.3471,-71.0784,Back Bay
Yas Chicken,128 Brighton,2134,Eating & Drinking,42.3526,-71.1313,Allston
Yawkey Cafe,850 Harrison,2118,Eating & Drinking,42.3345,-71.074,South End
"YAWKEY CENTER ""COFFEE SOUTH""",32 Fruit,2114,Eating & Drinking w/ Take Out,42.3622,-71.069,West End
YAWKEY CLUB OF ROXBURY,115 Warren,2119,Eating & Drinking,42.3268,-71.0838,Roxbury
Yellowbird Chicken,239 Grove,2132,Eating & Drinking w/ Take Out,42.2616,-71.1573,Roxbury
Yelus,116 Washington,2121,Eating & Drinking w/ Take Out,42.3052,-71.08,Roxbury
Yely's Coffee Shop,284 Centre,2130,Eating & Drinking w/ Take Out,42.3228,-71.102,Jamaica Plain
YiFang Taiwan Fruit Tea,215 Newbury,2116,Eating & Drinking,42.3501,-71.0813,Back Bay
Yomie's Rice x Yogurt,44 Beacon,2134,Eating & Drinking w/ Take Out,42.3535,-71.1398,Allston
Young Kong Restaurant,300 Centre,2130,Eating & Drinking w/ Take Out,42.3228,-71.1031,Jamaica Plain
Yummy Yummy,2360 Washington,2119,Eating & Drinking w/ Take Out,42.3294,-71.0844,Roxbury
Yvonnes,3 Winter,2108,Eating & Drinking,42.3554,-71.0615,Downtown Boston
Zaaki,1143 Commonwealth,2134,Eating & Drinking,42.3509,-71.1275,Allston
Zaz Restaurant,1230 River,2136,Eating & Drinking,42.2558,-71.123,Hyde Park
Zaz Restaurant & Catering Corp.,1 City Hall,2201,Eating & Drinking,42.3601,-71.0579,No Details
ZESTO'S PIZZA,460 Centre,2130,Eating & Drinking w/ Take Out,42.3194,-71.1115,Jamaica Plain
Zo,92 State,2109,Eating & Drinking w/ Take Out,42.3592,-71.0553,Downtown Boston
Zume's Coffee House,219 Main,2129,Eating & Drinking w/ Take Out,42.3765,-71.0654,Charlestown
